,Title,Location,City,State,Zip,Country,Qualifications,Skills,Responsibilities,Education,Requirement,FullDescriptions
0,19/20 - Coach - Assistant Girls' Basketball,"Mercer Island, WA 98040",Mercer Island,WA,98040,None Found,"
High school diploma or equivalent
Hold a current and valid First Aid and CPR card
Must be at least 21 years of age
Prior coaching experience preferred",None Found,None Found,None Found,None Found,"COACH POSITION: Girls' Basketball - Assistant Coach (Winter)

Salary: Per the negotiated agreement

General Functions:
Supports the High School in all of its athletic programs and demonstrates commitment to strengthen relations withthe educational system as well as the coaching profession.
Supports the head coach in conducting the athletic program of that particular sport.
Knowledgeable and aware of rules and regulations concerning his/her sport.
Assumes any duties assigned to him/her by the head coach pertaining to the overall athletic program of that particular sport and assumes responsibilities of the head coach in the absence of the head coach.
Assists and be accountable to the head coach, athletic director, and principal.
Accompanies and directs the assigned team to all games and practices.
Holds a current first aid and CPR card.
Keeps current on all clock hours depending on coaching level.
Exemplifies good sportsmanship and is held to the same sportsmanship expectations as the head coach.
Essential Functions
Instructs students in the fundamentals of the sport s/he is coaching.
Maintains facilities and equipment.
Supervises team players at practice, contests, in locker room and during travel.
Promotes sportsmanship and fair play among all teams and players by always setting a good example for participants and fans to follow, exemplifies the highest moral and ethical behavior; instructs participants in proper sportsmanship responsibilities and demands they make sportsmanship a high priority; respects judgment of contest officials, abides by rules of the event and displays no behavior that could incite fans; treats opposing coaches, participants, fans and media members with respect; develops and enforces penalties for participants who do not abide by sportsmanship standards; and develops a method to publicly recognize good sportsmanship.
Reports contest results to League Statistician as directed.
Minimum Qualifications
High school diploma or equivalent
Hold a current and valid First Aid and CPR card
Must be at least 21 years of age
Prior coaching experience preferred

If you need help with the online process please call (206) 236-3318 or use the District Job Kiosk in the District Administration Building located at 4160 86th Ave SE, Mercer Island."
1,"Manager, Data Science and Statistician","Seattle, WA",Seattle,WA,None Found,None Found,"Required:

Master’s degree in statistics, manufacturing/industrial engineering, operations research, computer science, or a related field
Minimum of 2+ years with a PhD or 5 years with a MS of relevant industry experience in measuring and improving complex processes
Proficient in a statistical programming (R, Python, STATA, etc..)
Excellent written and spoken English
Preferred
Understanding of implementing statistical monitoring at scale / server based
Specific experience in Application Web Services (AWS)
Experience in healthcare
Peer reviewed publications demonstrating scientific leadership",None Found,None Found,None Found,None Found,"CSATS is recruiting for a Manager, Data Science and Statistician located in Seattle, WA


Johnson and Johnson Medical Device Companies
The Johnson & Johnson Medical Devices Companies have been working to make surgery better for more than a century. With substantial breadth and depth in surgical technologies, orthopedic and interventional solutions, we aspire to improve and enhance medical care for people worldwide. Together, we are working to shape the future of health through differentiated products and services.

CSATS is hiring a Manager, Data Science and Statistician to work on measuring healthcare surgical outcome variability and the development and implementation of real-time monitoring focusing on surgeon and hospital clinical and economic improvement, learning curve, and outlier detection. Complex data sets include surgeon performance metrics extracted from operative video (e.g. operative time, task completion time, general performance metrics) along with hospital Electronic Health Records and big data Real-World Data (such as Medicare, private insurance claims, aggregate hospital billing data, and registry data) and ergonomic and clinical studies. Projects will include measuring the impact of surgeon improvement and healthcare improvement interventions including simulation, practice labs, and decision support solutions. In addition, he/she will evaluate the impact of the introduction of new technology such as decision support, medical devices, and new surgical approaches.

The candidate will be responsible for applying modern statistical techniques including statistics (Bayesian and frequentist), signal detection, novel visualization, and machine learning as applied to process measurement to create scalable implementation that can be interpreted by various levels of statistical experience. Responsibilities include:
Use a combination of state of the art statistical and other modern analytical techniques to create and implement a real-time measurement system for surgeon / hospital performance for both internal and external presentation
Translate point in time ‘causal inference’ outcomes research studies into real-time monitoring
Identify and connect new data sources to develop an improving learning measurement system
Measure the effect of training, educational content, and other quality improvement healthcare solutions
Implement an internal quality control system
Develop predictive models for forecasting, clinical and economic outcomes, and performance improvement
Collaborate with statisticians, surgeons, researchers, machine learning experts, and engineering to research and develop new statistical methods focusing on learning curve and measuring surgeon/hospital improvement

Qualifications
Required:

Master’s degree in statistics, manufacturing/industrial engineering, operations research, computer science, or a related field
Minimum of 2+ years with a PhD or 5 years with a MS of relevant industry experience in measuring and improving complex processes
Proficient in a statistical programming (R, Python, STATA, etc..)
Excellent written and spoken English
Preferred
Understanding of implementing statistical monitoring at scale / server based
Specific experience in Application Web Services (AWS)
Experience in healthcare
Peer reviewed publications demonstrating scientific leadership
Johnson & Johnson is an Affirmative Action and Equal Opportunity Employer. All qualified applicants will receive consideration for employment without regard to race, color, religion, sex, sexual orientation, gender identity, age, national origin, or protected veteran status and will not be discriminated against on the basis of disability

Primary Location
United States-Washington-Seattle-
Organization
CSATS Inc.(6261).
Job Function
Biostatistics
Requisition ID
6627191003"
2,SENIOR BIOSTATISTICIAN 18-09-217,"Seattle, WA 98121",Seattle,WA,98121,None Found,"
Master's degree in Statistics, Biostatistics, or Public Health with 3 years of post-graduation experience in pharmaceutical industry as a lead statistician with high independency for complicated studies; or PhD in Statistics, Biostatistics or Public Heath with 2 years of post-graduation experience in pharmaceutical industry including CRO as a study statistician.
Sound knowledge of Clinical trials and Data Monitoring Committee
Knowledge and experience to exercise independent judgment and provide oversight to programmers, and junior statisticians
Previous experience providing leadership to team members
Interpersonal skills
Excellent verbal and written communication skills
Proficiency with SAS procedures and programming language",None Found,"
Provide leadership to the biostatistics team on studies; review work of statisticians supporting this work
Review/Write the statistical sections of study protocols and statistical analysis plans SAPs
Review/Write DMC Charters
Translate data analysis plans into specific, written instructions for programmers
Identify data elements corresponding to requested variables and providing specifications for creating any required composite or derived variables
Assure the analytic file is constructed correctly and that documentation is complete
Review output from programmers and other statisticians for accuracy and interpretation
Provide updates to Project Directors on project progress to ensure to meet the delivery timelines
Collaborate with internal and external teams to manage project budget and oversee the scope of work
Present results to Committee members, and/or clients",None Found,None Found,"We have an immediate opening for a senior level Biostatistician to be a part of our rapidly growing biostatistics team responsible for performing or overseeing the analysis of clinical trial data, provide statistical interpretation of results, and collaborate on the reporting of clinical trial results to clients and monitoring committees, while ensuring adherence to regulatory and company standards. The successful candidate must be self-motivated in a quickly paced environment and willing to provide leadership. This is a full time on-site position with great career development and advancement opportunities.
Axio Research is specialized in providing services to a diverse portfolio of clients in the planning and management of Data Monitoring Committees for clinical trials in all major therapeutic areas. Axio also provides a full range of statistical analysis and programming capabilities spanning preclinical through Phase 4 clinical development.
Responsibilities:
Provide leadership to the biostatistics team on studies; review work of statisticians supporting this work
Review/Write the statistical sections of study protocols and statistical analysis plans SAPs
Review/Write DMC Charters
Translate data analysis plans into specific, written instructions for programmers
Identify data elements corresponding to requested variables and providing specifications for creating any required composite or derived variables
Assure the analytic file is constructed correctly and that documentation is complete
Review output from programmers and other statisticians for accuracy and interpretation
Provide updates to Project Directors on project progress to ensure to meet the delivery timelines
Collaborate with internal and external teams to manage project budget and oversee the scope of work
Present results to Committee members, and/or clients
Qualifications:
Master's degree in Statistics, Biostatistics, or Public Health with 3 years of post-graduation experience in pharmaceutical industry as a lead statistician with high independency for complicated studies; or PhD in Statistics, Biostatistics or Public Heath with 2 years of post-graduation experience in pharmaceutical industry including CRO as a study statistician.
Sound knowledge of Clinical trials and Data Monitoring Committee
Knowledge and experience to exercise independent judgment and provide oversight to programmers, and junior statisticians
Previous experience providing leadership to team members
Interpersonal skills
Excellent verbal and written communication skills
Proficiency with SAS procedures and programming language
Preferred Experience:
DMC experience preferred
CDISC experience a plus
Understanding of multiple therapeutic areas. Oncology experience preferred.
What We Have to Offer:
No Cost Health, dental, and vision insurance
Generous Vacation, Sick and Personal Day time
Recognition, Bonuses, & Promotions for Outstanding Performance based on merit
Professional development
401k-retirement savings plan with employer match
A casual, fun and supportive work environment
Various company events throughout the year
Opportunity to grow with a rising company
Axio Research is an equal opportunity employer."
3,Data Scientist Technical Lead,"Seattle, WA",Seattle,WA,None Found,None Found,None Found,None Found,"
Work with large, complex Geo datasets and solve difficult, non-routine analysis problems, applying advanced analytical methods as needed. Conduct end-to-end analysis that includes data gathering and requirements specification, processing, analysis, ongoing deliverables, and presentations.
Build and prototype analysis pipelines iteratively to provide insights at scale. Develop comprehensive understanding of Google data structures and metrics, advocating for changes where needed for both products development and sales activity.
Make business recommendations (e.g., cost-benefit, forecasting, experiment analysis) with effective presentations of findings at multiple levels of stakeholders through visual displays of quantitative information.
Research and develop analysis, forecasting and optimization methods to improve the quality of Google's user facing products; example application areas include ads quality, search quality, end-user behavioral modeling, and live experiments.
Manage a data science team. Interact cross-functionally with a wide variety of leaders and teams, and work closely with Engineers and Product Managers to identify opportunities for design and to assess improvements for Google products.
",None Found,None Found,"Note: By applying to this position your application is automatically submitted to the following locations: New York, NY, USA; Mountain View, CA, USA; Seattle, WA, USA
Minimum qualifications:

Master's degree in a quantitative discipline (e.g., Statistics, Operations Research, Bioinformatics, Economics, Computational Biology, Computer Science, Mathematics, Physics, Electrical Engineering, Industrial Engineering) or equivalent practical experience.
10 years of relevant experience in data analysis or related field as a Statistician, Data Scientist, Computational Biologist, or Bioinformatician.
5 years of experience in people management or leadership.
Experience with statistical software (e.g., R, Python, MATLAB, pandas) and database languages (e.g., SQL).

Preferred qualifications:

Doctorate's degree in a quantitative discipline (e.g., Statistics, Operations Research, Bioinformatics, Economics, Computational Biology, Computer Science, Mathematics, Physics, Electrical Engineering, Industrial Engineering).
12 years of directly relevant, tech industry work experience (e.g., as a statistician, bioinformatician, or data scientist), with deep expertise in statistical data analysis, such as linear models, multivariate analysis, stochastic models, and sampling methods.
8 years of demonstrated leadership and self-direction including people management.
Applied experience with machine learning on large datasets.
Experience articulating business questions and using mathematical techniques to arrive at an answer using available data.
Demonstrated skills in selecting the right statistical tools given a data analysis problem.
About the job
The Geo team builds the most accurate, comprehensive, and useful maps for our users. More than a billion people rely on Google Maps services to explore the world and navigate their daily lives. That includes sailing down the Amazon river, choosing where to get a bite of pizza, flying over a 3D version of New York City and saving time commuting.

Geo helps merchants get their businesses on Google, and more than a million developers use the power of Google Maps to enhance their apps and websites. They are solving complex computer science problems, designing beautiful and intuitive product experiences and improving the accuracy of our geo data, all in order to plot a course for the future of mapping.
Responsibilities
Work with large, complex Geo datasets and solve difficult, non-routine analysis problems, applying advanced analytical methods as needed. Conduct end-to-end analysis that includes data gathering and requirements specification, processing, analysis, ongoing deliverables, and presentations.
Build and prototype analysis pipelines iteratively to provide insights at scale. Develop comprehensive understanding of Google data structures and metrics, advocating for changes where needed for both products development and sales activity.
Make business recommendations (e.g., cost-benefit, forecasting, experiment analysis) with effective presentations of findings at multiple levels of stakeholders through visual displays of quantitative information.
Research and develop analysis, forecasting and optimization methods to improve the quality of Google's user facing products; example application areas include ads quality, search quality, end-user behavioral modeling, and live experiments.
Manage a data science team. Interact cross-functionally with a wide variety of leaders and teams, and work closely with Engineers and Product Managers to identify opportunities for design and to assess improvements for Google products.
At Google, we don’t just accept difference—we celebrate it, we support it, and we thrive on it for the benefit of our employees, our products and our community. Google is proud to be an equal opportunity workplace and is an affirmative action employer. We are committed to equal employment opportunity regardless of race, color, ancestry, religion, sex, national origin, sexual orientation, age, citizenship, marital status, disability, gender identity or Veteran status. We also consider qualified applicants regardless of criminal histories, consistent with legal requirements. See also Google's EEO Policy and EEO is the Law. If you have a disability or special need that requires accommodation, please let us know by completing this form."
4,Senior Biostatistician,"Seattle, WA 98109",Seattle,WA,98109,None Found,None Found,None Found,None Found,None Found,None Found,"Req #: 1903276
Location: Seattle, Washington, United States
Job Category: Clinical Operations
Work Location: 400 Dexter Ave N. 98109
Organization: Biostatistics
Employee Status: Full-time
Job Type: Regular
POSITION
Senior Statistician
SUPERVISOR
Associate Director or Director Biostatistics
DEPARTMENT
Biometrics and Data Operations
PREREQUISITES
Ph.D. in Statistics with 2 plus years (or 5+ years for MS) pharmaceutical experience as a statistician supporting clinical trials
Responsibilities will include, but are not limited to, the following:
1. Actively provide statistical support to the Clinical R&D Department.
 Contribute to efficient study design, prepare statistical consideration sections and provide input into other protocol sections.
 Prepare statistical analysis plans including table shells.
 Analyze clinical trial data; work with programmers to provide tables, listings and graphs, including ad hoc validation.
 Review, synthesize, interpret and report analysis results.
 Provide ad hoc data driven analyses.
 Provide statistical input for the preparation of final study reports and other required documents.
 Support preparation of manuscripts.
 Provide statistical support for integrated reports, submissions preparation, and post-submission activities.
 Provide project requirements to programmers.
2. Manage outside CROs and consultants as needed.
3. Escalates issues to functional management as necessary.
4. Makes recommendations or resolves technical, quality, and timeline issues.
5. Provides leadership
 Provides continuous feedback to peers and leaders
 Proactively seeks ways to gain broader experience/perspectives and focuses on a robust professional development plan
Skills/Knowledge Required:
 Ph.D or MS. in statistics with a focus on statistical methods appropriate for clinical trials.
 Experience in clinical drug development at least 2 years for Ph.D and 5 years for MS.
 Demonstrated skill in the analysis and reporting of clinical trials.
 Knowledge of statistical methodologies and statistical regulatory requirements.
 Knowledge of statistical computing software (e.g. SAS or R).
 Knowledge of MS Office products (Word, Excel, PowerPoint)
 Strong knowledge of clinical trial design concepts.
 Knowledge of clinical drug development process.
 Experience working in a team environment with other clinical team members.
 Good interpersonal, communication, writing and organizational skills.


About Us

COMMITTED TO IMPROVING THE LIVES OF PATIENTS WORLDWIDE

At Celgene, we seek to deliver truly innovative and life-changing drugs for our patients. Our vision as a company is to build a major global biopharmaceutical corporation while focusing on the discovery, the development, and the commercialization of products for the treatment of cancer and other severe, immune, inflammatory conditions.

""At Celgene, we seek to deliver truly innovative and life-changing drugs for our patients.""

There are more than 300 clinical trials at major medical centers using compounds from Celgene. Investigational compounds are being studied for patients with incurable hematological and solid tumor cancers, including multiple myeloma, myelodysplastic syndromes, chronic lymphocytic leukemia (CLL), non-Hodgkin’s lymphoma (NHL), triple-negative breast cancer and pancreatic cancer. As committed as we are to clinical accomplishment, we are equally committed to patient support, which is a guiding principle at Celgene. We believe all who can benefit from our discoveries should have the opportunity to do so. Celgene puts patients first with industry-leading programs that provide information, support and access to our innovative therapies."
5,Principal Statistician (Cell Therapy CMC),"Seattle, WA 98109",Seattle,WA,98109,None Found,None Found,"Master’s degree or Ph.D. in statistics,Biostatistics, mathematics, or related field;
8+ years of prior experience in a CMC drug-development environment;
Experience or training with a wide-range of skills including JMP/ SAS programming and other relevant statistical software such as Minitab and / or R, statistical methodology and theories, and analysis;
Excellent computer skills in the following programs: MS Word, PowerPoint, and Excel;
Experience writing technical documents, reports, and presentations;
Ability to manage multiple and diverse issues;
Key Competencies:
Professionalism and customer service orientation
Communication skills - written and verbal
Planning, organizing and multi-tasking
Prioritizing and time management
Problem assessment and problem solving
Information gathering and information monitoring
Attention to detail and accuracy
Flexibility, adaptability and teamwork","
Participate in protocol development;
Calculate sample sizes and/or perform power calculations for proposed studies as well as for alternative designs to evaluate the costs and timelines of various scenarios;
Propose methods for statistical analysis and write the statistical sections of study protocols;
 Experience with the statistical aspects of Analytical method development, qualification, validation, transfer, comparability and troubleshooting.
Experience with the statistical aspects of Process development, characterization, comparability, PPQ and troubleshooting.
Experience with the statistical aspects of translational development, stability analysis & shelf life determination and specification setting.
Review programming and analysis specifications;
Write statistical analysis plans;
Perform statistical analyses of CMC data using JMP / SAS and other statistical software packages as necessary. Oversee the work of scientists / engineers that are performing statistical analyses of CMC data;
Lead the study teams in the review, and discussion, of analysis plans;
Interpret statistical results and present study findings to the teams, senior management, and in various external forums;
Participate in organizing and writing results for primary publication; and
Maintain project files that ensure adequate and clear documentation of statistical analyses.
Other responsibilities as assigned.",None Found,"Play a key role in meeting cross-functional goals through commitment, quality standards, and a customer service orientation.
Contribute to a work environment that fosters professionalism, mutual respect, teamwork, and collaboration.","Req #: 1901666
Location: Seattle, Washington, United States
Job Category: Clinical Operations
Work Location: 400 Dexter Ave N. 98109
Organization: Biostatistics
Employee Status: Full-time
Job Type: Regular
As our Principal Statistician (Cell Therapy CMC) you are responsible for providing statistical support to the Cell Therapy CMC teams. Serves as primary Biostatistician on multiple analytical and manufacturing process related activities. Participates in the development of protocols and statistical analysis plans. Performs statistical analysis, interprets statistical results, and participates in the preparation of study reports. Oversees the work of others that are performing any of the above listed tasks. May travel up to 10%.

Responsibilities and Duties:

Participate in protocol development;
Calculate sample sizes and/or perform power calculations for proposed studies as well as for alternative designs to evaluate the costs and timelines of various scenarios;
Propose methods for statistical analysis and write the statistical sections of study protocols;
 Experience with the statistical aspects of Analytical method development, qualification, validation, transfer, comparability and troubleshooting.
Experience with the statistical aspects of Process development, characterization, comparability, PPQ and troubleshooting.
Experience with the statistical aspects of translational development, stability analysis & shelf life determination and specification setting.
Review programming and analysis specifications;
Write statistical analysis plans;
Perform statistical analyses of CMC data using JMP / SAS and other statistical software packages as necessary. Oversee the work of scientists / engineers that are performing statistical analyses of CMC data;
Lead the study teams in the review, and discussion, of analysis plans;
Interpret statistical results and present study findings to the teams, senior management, and in various external forums;
Participate in organizing and writing results for primary publication; and
Maintain project files that ensure adequate and clear documentation of statistical analyses.
Other responsibilities as assigned.

Quality Requirements:
Play a key role in meeting cross-functional goals through commitment, quality standards, and a customer service orientation.
Contribute to a work environment that fosters professionalism, mutual respect, teamwork, and collaboration.

Knowledge, Skills, Abilities and Qualification Requirements:
Master’s degree or Ph.D. in statistics,Biostatistics, mathematics, or related field;
8+ years of prior experience in a CMC drug-development environment;
Experience or training with a wide-range of skills including JMP/ SAS programming and other relevant statistical software such as Minitab and / or R, statistical methodology and theories, and analysis;
Excellent computer skills in the following programs: MS Word, PowerPoint, and Excel;
Experience writing technical documents, reports, and presentations;
Ability to manage multiple and diverse issues;
Key Competencies:
Professionalism and customer service orientation
Communication skills - written and verbal
Planning, organizing and multi-tasking
Prioritizing and time management
Problem assessment and problem solving
Information gathering and information monitoring
Attention to detail and accuracy
Flexibility, adaptability and teamwork


About Us

COMMITTED TO IMPROVING THE LIVES OF PATIENTS WORLDWIDE

At Celgene, we seek to deliver truly innovative and life-changing drugs for our patients. Our vision as a company is to build a major global biopharmaceutical corporation while focusing on the discovery, the development, and the commercialization of products for the treatment of cancer and other severe, immune, inflammatory conditions.

""At Celgene, we seek to deliver truly innovative and life-changing drugs for our patients.""

There are more than 300 clinical trials at major medical centers using compounds from Celgene. Investigational compounds are being studied for patients with incurable hematological and solid tumor cancers, including multiple myeloma, myelodysplastic syndromes, chronic lymphocytic leukemia (CLL), non-Hodgkin’s lymphoma (NHL), triple-negative breast cancer and pancreatic cancer. As committed as we are to clinical accomplishment, we are equally committed to patient support, which is a guiding principle at Celgene. We believe all who can benefit from our discoveries should have the opportunity to do so. Celgene puts patients first with industry-leading programs that provide information, support and access to our innovative therapies."
6,19/20 - Coach - Assistant Gymnastics,"Mercer Island, WA 98040",Mercer Island,WA,98040,None Found,"
High school diploma or equivalent
Hold a current and valid First Aid and CPR card
Must be at least 21 years of age
Prior coaching experience preferred",None Found,None Found,None Found,None Found,"COACH POSITION: Gymnastics - Assistant Coach (Winter)

Salary: Per the negotiated agreement

General Functions:
Supports the High School in all of its athletic programs and demonstrates commitment to strengthen relations withthe educational system as well as the coaching profession.
Supports the head coach in conducting the athletic program of that particular sport.
Knowledgeable and aware of rules and regulations concerning his/her sport.
Assumes any duties assigned to him/her by the head coach pertaining to the overall athletic program of that particular sport and assumes responsibilities of the head coach in the absence of the head coach.
Assists and be accountable to the head coach, athletic director, and principal.
Accompanies and directs the assigned team to all games and practices.
Holds a current first aid and CPR card.
Keeps current on all clock hours depending on coaching level.
Exemplifies good sportsmanship and is held to the same sportsmanship expectations as the head coach.
Essential Functions
Instructs students in the fundamentals of the sport s/he is coaching.
Maintains facilities and equipment.
Supervises team players at practice, contests, in locker room and during travel.
Promotes sportsmanship and fair play among all teams and players by always setting a good example for participants and fans to follow, exemplifies the highest moral and ethical behavior; instructs participants in proper sportsmanship responsibilities and demands they make sportsmanship a high priority; respects judgment of contest officials, abides by rules of the event and displays no behavior that could incite fans; treats opposing coaches, participants, fans and media members with respect; develops and enforces penalties for participants who do not abide by sportsmanship standards; and develops a method to publicly recognize good sportsmanship.
Reports contest results to League Statistician as directed.
Minimum Qualifications
High school diploma or equivalent
Hold a current and valid First Aid and CPR card
Must be at least 21 years of age
Prior coaching experience preferred

If you need help with the online process please call (206) 236-3318 or use the District Job Kiosk in the District Administration Building located at 4160 86th Ave SE, Mercer Island."
7,"Survey Statistician, GS-1530-11/12, Census-DHA-SM","Seattle, WA",Seattle,WA,None Found,None Found,"
Skill in reviewing and/or writing presentations, working papers and/or publications presenting social science, economic, or demographic analysis to a variety of audiences.
Knowledge of tools used in quantitative social science research on a variety of social science topics.
Ability to analyze economic or household survey data to address research questions related to survey goals.
Knowledge of theories related to statistical research.
Knowledge of project management techniques to complete projects within specific time frames.
",None Found,"Coordinate a program using household and economic survey data.
Review and prepare analytic reports, working papers, articles in peer reviewed journals, or presentations at conferences and other professional meetings.
Respond to questions from and/or provide assistance to the internal/external data user community.
Manage multiple projects.
","
Skill in reviewing and/or writing presentations, working papers and/or publications presenting social science, economic, or demographic analysis to a variety of audiences.
Knowledge of tools used in quantitative social science research on a variety of social science topics.
Ability to analyze economic or household survey data to address research questions related to survey goals.
Knowledge of theories related to statistical research.
Knowledge of project management techniques to complete projects within specific time frames.
","U.S. Citizen.
Suitable for Federal Employment.
Registered for Selective Service, if applicable. (www.sss.gov)
You may be required to complete a Financial Disclosure (OGE-450).
","Duties
Summary
This vacancy is for a Survey Statistician position in the Federal Statistical Research Data Centers located in Seattle, WA.

This Job Opportunity Announcement may be used to fill other Survey Statistician GS-1530-11/12 FPL 12 positions within the Census Bureau in the same geographical location with the same qualifications and specialized experience.

Responsibilities
Coordinate a program using household and economic survey data.
Review and prepare analytic reports, working papers, articles in peer reviewed journals, or presentations at conferences and other professional meetings.
Respond to questions from and/or provide assistance to the internal/external data user community.
Manage multiple projects.
Travel Required
Not required
Supervisory status
No
Promotion Potential
12
Job family (Series)
1530 Statistics
Similar jobs
Statisticians
Statisticians, Survey
Survey Statisticians
Requirements

Requirements
Conditions of Employment
U.S. Citizen.
Suitable for Federal Employment.
Registered for Selective Service, if applicable. (www.sss.gov)
You may be required to complete a Financial Disclosure (OGE-450).
Applicants must meet all qualification requirements by the closing date of this announcement.

A probationary period may be required.

This position is ELIGIBLE for telework; additional criteria will be required (e.g., supervisory approval).

This is a NON-BARGAINING unit position.

Relocation expenses may be paid.
Qualifications
Minimum Education Requirement:
A. Degree: that included 15 semester hours in statistics (or in mathematics and statistics, provided at least 6 semester hours were in statistics), and 9 additional semester hours in one or more of the following: physical or biological sciences, medicine, education, or engineering; or in the social sciences including demography, history, economics, social welfare, geography, international relations, social or cultural anthropology, health sociology, political science, public administration, psychology, etc. Credit toward meeting statistical course requirements should be given for courses in which 50 percent of the course content appears to be statistical methods, e.g., courses that included studies in research methods in psychology or economics such as tests and measurements or business cycles, or courses in methods of processing mass statistical data such as tabulating methods or electronic data processing.

NOTE: Additionally, to receive credit for coursework that is not catalogued on the transcript as Statistics or contain 'statistics' in the course title, applicants must attach a copy of an official course description that clarifies the course has statistical content, or written documentation which must be on official school letterhead from a professor or a school official verifying that the content of the course has either met the 50 percent statistics course requirements or was a statistical course. If you do not submit sufficient academic documentation necessary to demonstrate that you meet the eligibility and minimum qualification requirements described in this announcement, your application will be deemed incomplete and you will be ineligible for further consideration for this vacancy.

OR

B. Combination of education and experience - courses as shown in A above, plus appropriate experience or additional education. The experience should have included a full range of professional statistical work such as (a) sampling, (b) collecting, computing, and analyzing statistical data, and (c) applying statistical techniques such as measurement of central tendency, dispersion, skewness, sampling error, simple and multiple correlation, analysis of variance, and tests of significance.

AND

In addition to the above requirements, you must also meet the following requirements.

Specialized Experience:

For the GS-11, you must have one year of experience at a level of difficulty and responsibility equivalent to the GS-09 in the Federal service.

Experience for this position includes: applying statistical techniques, methodology, and methods; meeting deadlines; evaluating critical factors and technical writing such as, reports of findings and methods; communicating with management and other staff to relate progress of data collection operations and resolve issues and propose recommendations; and interpreting, adapting and applying organizational regulations, policies, precedents, and practices.

OR

Education: 3 years of progressively higher level graduate education leading to a Ph.D. degree or Ph.D. or equivalent doctoral degree

Specialized Experience:

For the GS-12, you must have one year of experience at a level of difficulty and responsibility equivalent to the GS-11 in the Federal service.

Experience for this position includes: applying statistical techniques, methodology, and methods; meeting deadlines; evaluating critical factors and technical writing such as, reports of findings and methods; communicating with management and other staff to relate progress of data collection operations and resolve issues and propose recommendations; interpreting, adapting and applying organizational regulations, policies, precedents, and practices; and compiling data for technical reports analyzing and interpreting survey results.

Education may not be substituted for experience at this level.

Experience refers to paid and unpaid experience, including volunteer work done through National Service programs (e.g., Peace Corps, AmeriCorps) and other organizations (e.g., professional; philanthropic; religious; spiritual; community, student, social). Volunteer work helps build critical competencies, knowledge, and skills and can provide valuable training and experience that translates directly to paid employment. You will receive credit for all qualifying experience, including volunteer experience.
Education
Additional information
The Department of Commerce provides reasonable accommodations to applicants with disabilities. If you need a reasonable accommodation for any part of the application and hiring process, please notify the Human Resources Office. The decision on granting reasonable accommodation will be on a case-by-case basis. TTY users can contact the Human Resources Office via the Federal Relay Service, 1-800-877-8339.

How You Will Be Evaluated
You will be evaluated for this job based on how well you meet the qualifications above.
Your resume, optional cover letter and supporting documentation will be reviewed to determine if you meet the minimum qualification requirements for the position. Under the provisions of the Direct-Hire Authority (DHA), rating, ranking and veterans' preference does not apply; therefore, your responses to the questionnaire will not be used to determine a scored rating. All applicants who meet the minimum qualification requirements, as defined in the job opportunity announcement, will be referred for selection consideration. While veterans' preference does not apply in DHA, preference eligibles are encouraged to submit their supporting documentation (DD-214 stating disposition of discharge or character of service, VA letter, SF-15, etc.).

Applicants applying as CTAP or ICTAP candidates, and are determined CTAP or ICTAP eligible, must exceed the minimum qualification requirements to be referred under this selection priority placement program by attaining at least a rating of 85 out of 100. For those deemed eligible and who meet the minimum qualifications, we will compare your resume, optional cover letter and supporting documentation to your responses on the scored occupational questionnaire (True/False, Yes/No, Multiple Choice questions). Your resume and/or optional cover letter must support your responses to the scored occupational questionnaire, or your score may be lowered. CTAP/ICTAP eligibles who are not determined well-qualified by scoring at least 85 will not be referred under the CTAP/ICTAP selection priority placement program; however, will be referred for selection consideration with other minimally qualified applicants. The scored occupational questionnaire will evaluate you on the following competencies, please do not provide a separate written response.

The scored occupational questionnaire will evaluate you on the following competencies; please do not provide a separate written response:

Skill in reviewing and/or writing presentations, working papers and/or publications presenting social science, economic, or demographic analysis to a variety of audiences.
Knowledge of tools used in quantitative social science research on a variety of social science topics.
Ability to analyze economic or household survey data to address research questions related to survey goals.
Knowledge of theories related to statistical research.
Knowledge of project management techniques to complete projects within specific time frames.
We recommend that you preview the online questions for this announcement before you start the application process.

To preview questions please click here.

Background checks and security clearance
Security clearance
Other
Drug test required
No
Required Documents

Required Documents
A complete application consists of the following:

Resume showing relevant experience; cover letter optional. Your resume should also list your educational and work experience including the dates (mm/dd/yy) of each employment along with the number of hours worked per week. If applying under CTAP/ICTAP your resume may be used to validate your responses to the scored occupational questionnaire. Your resume should indicate your citizenship and if you are registered with the Selective Service System if you are a male born after 12/31/59.
Career Transition Assistance Plan (CTAP) and Interagency Career Transition Assistance Plan (ICTAP) documentation, if applicable (see other information).
Education Documentation: If this position requires proof of higher education, or you are substituting education for experience, you must submit an unofficial transcript or a list of courses that includes the following information: name of accredited institution, grades earned, completion dates, and quarter and semester hours earned. This also includes Census Bureau employees. Education completed in foreign colleges or universities may be used to meet the requirements. Please refer to http://www.opm.gov/qualifications/policy/ApplicationOfStds-04.asp for more information.
You are not required to submit official documents at this time; copies are sufficient.

Special Instructions for Foreign Education: Qualifying education from colleges and universities in foreign countries must be evaluated in terms of equivalency to that acquired in U.S. colleges and universities. Applicants educated in whole or in part in foreign countries must submit sufficient evidence, including transcripts, to an accredited private organization for an equivalency evaluation of course work and degree. A listing of these accredited organizations can be found on the Department of Education's website - http://www.ed.gov/international/usnei/us/workrecog.doc. You must provide a copy of the letter containing the results of the equivalency evaluation with a course by course listing along with your application. Failure to provide such documentation when requested will result in lost consideration.

CTAP and ICTAP Eligibles

CTAP and ICTAP candidates will be eligible for selection priority if it is determined that they have exceeded the minimum qualifications for the position by attaining at least a rating of 85 out of 100. Information about CTAP and ICTAP eligibility is on the Office of Personnel Management's Career Transition Resources website at: https://www.opm.gov/policy-data-oversight/workforce-restructuring/employee-guide-to-career-transition/ctap_guideline.pdf.

CTAP applicants MUST submit the following documents:

A copy of your RIF separation notice, notice of proposed removal for declining a directed geographic relocation outside of the local commuting area; a Certificate of Expected Separation (CES); or certification that you are in a surplus organization or occupation (this could be a position abolishment letter, a notice of eligibility for discontinued service retirement, or similar notice);
A copy of your SF-50 ""Notification of Personnel Action"", noting current position, grade/band level, and duty location;
A copy of your latest performance appraisal including your rating; and
Any documentation from your bureau/operating unit that shows your current promotion potential.
ICTAP applicants MUST submit the following documents:

A copy of your RIF separation notice, notice of proposed removal for declining a directed geographic relocation outside of the local commuting area, notice of disability annuity termination, certification from your former agency that it cannot place you after your recovery from a work-related compensable injury; or certification from the National Guard Bureau or Military Department that you are eligible for disability retirement.
A copy of your SF-50 ""Notification of Personnel Action"", documenting your RIF separation, noting your position, grade/band level, and duty location, and/or Agency certification of inability to place you through RPL, etc.;
A copy of your latest performance appraisal including your rating; and
Any documentation from your agency that shows your current promotion potential.
NOTE: You will not be considered if you fail to provide all required documents.
If you are relying on your education to meet qualification requirements:
Education must be accredited by an accrediting institution recognized by the U.S. Department of Education in order for it to be credited towards qualifications. Therefore, provide only the attendance and/or degrees from schools accredited by accrediting institutions recognized by the U.S. Department of Education.
Failure to provide all of the required information as stated in this vacancy announcement may result in an ineligible rating or may affect the overall rating.
Benefits

Benefits
A career with the U.S. Government provides employees with a comprehensive benefits package. As a federal employee, you and your family will have access to a range of benefits that are designed to make your federal career very rewarding. Learn more about federal benefits.
Census Bureau offers a comprehensive benefits package. Explore the benefits offered to most Federal employees at https://www.usa.gov/benefits-for-federal-employees.

Eligibility for benefits depends on the type of position you hold and whether your position is full-time, part-time, or intermittent. Contact the hiring agency for more information on the specific benefits offered."
8,Senior Biostatistician II,"Bothell, WA",Bothell,WA,None Found,None Found,None Found,None Found,None Found,None Found,None Found,"Summary:
Independently serve as clinical study statistician on multiple projects with limited supervision. Provide expertise in the design and development of study protocols and case report forms. Develop statistical analysis plans, perform statistical analyses, and interpret results. Develop SAS programs of varying complexity to analyze and report clinical data. Review programming specifications and outputs. Recognize inconsistencies and initiate resolution of data problems. Collaborate in the preparation and review of clinical study reports. Ensure adherence to regulatory and company standards.

Responsibilities:

Perform duties of a study statistician to support clinical trials. Oversee statistical aspects in the design of clinical trials
Provide statistical input to study protocols
Perform sample size and power calculations
Review CRFs and edit checks
Develop SAP and create table, listing, and figure shells
Review programming specifications and derived datasets
Perform or review statistical analysis as defined in SAP
Code complex statistical analyses as needed
Interpret results and write sections of documents; present results
Support program lead statisticians in preparations for interactions with regulatory agencies
Read and understand medical/clinical literature as required by duties
Develop and assist in maintenance of department tools, templates, guidelines, SOPs, and systems
Working knowledge of FDA regulations, ICH GCP guidelines, the drug development process
Work on problems of diverse scope in which analysis of data requires evaluation of identifiable factors
Exercise judgment within generally defined practices and policies in selecting methods and techniques for obtaining solutions

Qualifications:

MS in statistics, biostatistics, or related field with 4-7 years of experience, or PhD with 2-5 years of experience
Strong SAS programming skills
Working knowledge of clinical trial design
Knowledge of FDA regulations, ICH GCP guidelines, the drug development process
Excellent verbal and written communication skills
Demonstrated initiative and motivation
Good organizational skills with the ability to adapt and adjust to changing priorities
Experience working in an environment where knowledge of and adherence to SOPs and regulatory guidelines are required
Able to prioritize work and complete deliverables to timelines with limited supervision
Detail and process oriented

Preferred:

Oncology experience preferred
Knowledge of R
Simulation experience

As the leading employer in our industry in the Pacific Northwest, Seattle Genetics is proud to offer a competitive total compensation package as well as a comprehensive benefits program designed to support the whole lives of our employees and their families. Benefits include medical, vision and dental coverage, group and supplemental life insurance, 401(k) with company match, tuition reimbursement, relocation assistance and much more. To learn more about Seattle Genetics, please visit www.seattlegenetics.com.
Seattle Genetics is an equal opportunity employer. All qualified applications will receive consideration for employment without regard to race, age, gender identity, sexual orientation, color, religion, sex, marital status, national origin, protected veteran status, disability status, or any other status protected by federal, state, or local law."
9,Head Coach – Cross Country,"Redmond, WA 98053",Redmond,WA,98053,"
The head coach organizes, coordinates and promotes a comprehensive athletic program.
Teaching position may be available dependent on subject matter and grade level.",None Found,None Found,"
Provide instruction and training in the fundamentals of the sport/activity
Supervise the team during practice, contests and travel
Maintain facilities and equipment.
Promote sportsmanship and fair play among team members
Provide first aid as required
Recommend any equipment needed for training
Report contest results to league statistician",None Found,"
Some coaching experience preferred, but not required
CPR and First Aid Training","Job Description:
Job Title: Head Coach – Cross Country
Position Type: Non-Faculty, Non-exempt, Part time
Reports to: Athletic Director
Closing Date: When Filled
Start Date: May 28, 2019
Salary: Dependent on Experience
The Bear Creek School is a classical Christian School for Preschool – 12th grade. We are a nondenominational, private, day school accredited by the Northwest Association of Independent Schools (NWAIS) and AdvancED. Please see our website, www.tbcs.org, for additional information.
Head Coach – Cross Country - Job Summary
The head coach organizes, coordinates and promotes a comprehensive athletic program.
Teaching position may be available dependent on subject matter and grade level.
Required Experience:
Head Coach – Cross Country Job Requirements
Some coaching experience preferred, but not required
CPR and First Aid Training
Head Coach – Cross Country Primary Responsibilities
Provide instruction and training in the fundamentals of the sport/activity
Supervise the team during practice, contests and travel
Maintain facilities and equipment.
Promote sportsmanship and fair play among team members
Provide first aid as required
Recommend any equipment needed for training
Report contest results to league statistician
Head Coach – Cross Country Critical Performance Competencies
Positively support the school’s policies and practices and work collaboratively in a professional organization
Truthful, positive, and purposeful when communicating with others
Able to use strong written and oral communication skills to transfer thoughts and express ideas
Flexible and adaptable in dealing with new, different or changing requirements
Maintain confidentiality and security of information.
Hold self and others accountable to accomplish results
Effective in handling multiple concurrent tasks
Adhere to biblical standards in all areas of conduct
Head Coach – Cross Country Physical Requirements
Requires standing for long periods of time
Requires lifting and moving of items upwards of fifty pounds
Able to make visual and auditory evaluation of athletes performance
Disclaimers
The Bear Creek School is an equal opportunity employer and is required by law to perform background checks on selected qualified candidates. All employees of The Bear Creek School must agree to carry out their responsibilities in a manner that is consistent with The Bear Creek School’s Mission Statement, Statement of Faith, Employee Handbook, and conduct themselves in a manner consistent with Biblical standards.
The above job description is meant to describe the general nature and level of work being performed; it is not intended to be construed as an exhaustive list of all responsibilities, duties and skills required for the position. Employees will be required to follow any other job-related instructions and to perform other job-related duties requested by their supervisor in compliance with Federal and State Laws.
Requirements are representative of minimum levels of knowledge, skills and/or abilities. To perform this job successfully, the employee must possess the abilities or aptitudes to perform each duty proficiently. Continued employment remains on an “at-will” basis.
All job requirements are subject to possible modification to reasonably accommodate individuals with disabilities. Some requirements may exclude individuals who pose a direct threat or significant risk to the health and safety of themselves or other employees and students.
From: The Bear Creek School"
10,Data Scientist,"Seattle, WA",Seattle,WA,None Found,None Found,None Found,None Found,None Found,None Found,None Found,"Master's degree or higher in a quantitative/technical field (e.g. Computer Science, Economics, Mathematics, Statistics, Engineering) with 2+ years experience or Bachelors degree in a quantitative/technical field with 5+ years experience.2+ years experience with various machine learning/statistical modeling data analysis tools and techniques, and parameters that affect their performanceAbility to apply statistical techniques (i.e. hypothesis testing, A/B testing, linear regression).2+ years of experience in projects involving cross-functional teamsExpert-level proficiency in writing complex, highly-optimized SQL queries across large datasets.Comfort with big data tools so that you can extract the data you need from our different sources.Ability to build tools and automation to clean, transform, and merge your own data in a procedural language like Python or R.Ability to manage competing priorities simultaneously and drive projects to completion

Amazon Consumer Gift Cards is a fast-growing, multi-billion-dollar, worldwide business with a mission to provide the world’s most desired and convenient gift to customers.

We are looking for an outstanding Data Scientist to deliver on strategic analytical projects, define/produce end-to-end metrics that inform product and marketing decisions and identify new growth opportunities for the business through data-driven insights.

The Data Scientist, Amazon Gift Cards will initially focus efforts in three areas, in partnership with the Product Management team, Marketing team and various Tech teams: 1) Drive the Machine Learning capabilities of the GC organization in relation to Fraud and Abuse detection, 2) Drive Personalization of the customer experience i.e. showing the right product to the right customer at the right time, 3) Evaluating various Marketing campaigns and product launches through various statistical techniques.

The ideal candidate relishes working with large volumes of data, enjoys the challenge of highly complex business contexts, and, above all else, is passionate about data and analytics. The candidate is an expert with business intelligence tools and passionately partners with the business to identify strategic opportunities where data-backed insights drive value creation. An effective communicator, the candidate crisply translates analysis result into executive-facing business terms. The candidate works aptly with internal and external teams to push the projects across the finishing line. The candidate is a self-starter, comfortable with ambiguity, able to think big (while paying careful attention to detail), and enjoys working in a fast-paced and global team.

Core Responsibilities
Define and deliver on complex analytical deep dives to unlock insights that drive business growth.Build models that identify Gift Card Fraud and AbuseBuild models that elevate the customer experience and track impact over timeDefine and conduct experiments to validate/reject hypotheses, and communicate insights and recommendations to Product and Tech teamsAct as Subject Matter Expert for anything analytics related to gift cards as a payment instrument to customers to improve payment experience on Amazon.

Experience with AWS ML applicationsAdvanced degree in a quantitative/technical field, Masters, PhD2+ years of experience as a Data/Research Scientist, Statistician or Quantitative Analyst in an internet-based company with complex and Big Data sources.Ability to develop experimental and analytic plans for data modeling processes, use of strong baselines, ability to accurately determine cause and effect relationsAbility to present proposals and results in a clear manner backed by data and coupled with actionable conclusions
Amazon is an Equal Opportunity-Affirmative Action Employer – Minority / Female / Disability / Veteran / Gender Identity / Sexual Orientation"
11,Head Coach – Track & Field,"Redmond, WA 98053",Redmond,WA,98053,None Found,None Found,None Found,None Found,None Found,"
Some coaching experience preferred, but not required
CPR and First Aid Training","Job Description:
Job Title: Head Coach - Track & Field
Position Type: Non-Faculty, Non-exempt, Part time
Reports to: Athletic Director
Closing Date: When Filled
Start Date: May 28, 2019
Salary: Dependent on Experience
The Bear Creek School is a classical Christian School for Preschool - 12th grade. We are a nondenominational, private, day school accredited by the Northwest Association of Independent Schools (NWAIS) and AdvancED. Please see our website, www.tbcs.org, for additional information.
Head Coach - Track & Field - Job Summary
The head coach organizes, coordinates and promotes a comprehensive athletic program.
Teaching position may be available dependent on subject matter and grade level.
Primary Responsibilities
Provide instruction and training in the fundamentals of the sport/activity
Supervise the team during practice, contests and travel
Maintain facilities and equipment.
Promote sportsmanship and fair play among team members
Provide first aid as required
Recommend any equipment needed for training
Report contest results to league statistician
Required Experience:
Head Coach - Track & Field Job Requirements
Some coaching experience preferred, but not required
CPR and First Aid Training
Head Coach - Track & Field Critical Performance Competencies
Positively support the school’s policies and practices and work collaboratively in a professional organization
Truthful, positive, and purposeful when communicating with others
Able to use strong written and oral communication skills to transfer thoughts and express ideas
Flexible and adaptable in dealing with new, different or changing requirements
Maintain confidentiality and security of information.
Hold self and others accountable to accomplish results
Effective in handling multiple concurrent tasks
Adhere to biblical standards in all areas of conduct
Head Coach - Track & Field Physical Requirements
Requires standing for long periods of time
Requires lifting and moving of items upwards of fifty pounds
Able to make visual and auditory evaluation of athletes performance
Disclaimers
The Bear Creek School is an equal opportunity employer and is required by law to perform background checks on selected qualified candidates. All employees of The Bear Creek School must agree to carry out their responsibilities in a manner that is consistent with The Bear Creek School’s Mission Statement, Statement of Faith, Employee Handbook, and conduct themselves in a manner consistent with Biblical standards.
The above job description is meant to describe the general nature and level of work being performed; it is not intended to be construed as an exhaustive list of all responsibilities, duties and skills required for the position. Employees will be required to follow any other job-related instructions and to perform other job-related duties requested by their supervisor in compliance with Federal and State Laws.
Requirements are representative of minimum levels of knowledge, skills and/or abilities. To perform this job successfully, the employee must possess the abilities or aptitudes to perform each duty proficiently. Continued employment remains on an ""at-will"" basis.
All job requirements are subject to possible modification to reasonably accommodate individuals with disabilities. Some requirements may exclude individuals who pose a direct threat or significant risk to the health and safety of themselves or other employees and students.
From: The Bear Creek School"
12,"Senior Manager, Data Science and Statistician","Seattle, WA",Seattle,WA,None Found,None Found,"Required:

Master’s degree in statistics, manufacturing/industrial engineering, operations research, computer science, or a related field
Minimum of 5+ years with a PhD or 7 years with a MS of relevant industry experience in measuring and improving complex processes
Proficient in a statistical programming (R, Python, STATA, etc..)
Excellent written and spoken English
Preferred
Understanding of implementing statistical monitoring at scale / server based
Specific experience in Application Web Services (AWS)
Experience in healthcare
Peer reviewed publications demonstrating scientific leadership",None Found,None Found,None Found,None Found,"CSATS is recruiting for a Senior Manager, Data Science and Statistician located in Seattle, WA.

Johnson and Johnson Medical Device Companies
The Johnson & Johnson Medical Devices Companies have been working to make surgery better for more than a century. With substantial breadth and depth in surgical technologies, orthopedic and interventional solutions, we aspire to improve and enhance medical care for people worldwide. Together, we are working to shape the future of health through differentiated products and services.
CSATS is hiring a Senior Manager, Data Science and Statistician to work on measuring healthcare surgical outcome variability and the development and implementation of real-time monitoring focusing on surgeon and hospital clinical and economic improvement, learning curve, and outlier detection. Complex data sets include surgeon performance metrics extracted from operative video (e.g. operative time, task completion time, general performance metrics) along with hospital Electronic Health Records and big data Real-World Data (such as Medicare, private insurance claims, aggregate hospital billing data, and registry data) and ergonomic and clinical studies. Projects will include measuring the impact of surgeon improvement and healthcare improvement interventions including simulation, practice labs, and decision support solutions. In addition, he/she will evaluate the impact of the introduction of new technology such as decision support, medical devices, and new surgical approaches.
The candidate will be responsible for applying modern statistical techniques including statistics (Bayesian and frequentist), signal detection, novel visualization, and machine learning as applied to process measurement to create scalable implementation that can be interpreted by various levels of statistical experience. Responsibilities include:
Use a combination of state of the art statistical and other modern analytical techniques to create and implement a real-time measurement system for surgeon / hospital performance for both internal and external presentation
Translate point in time ‘causal inference’ outcomes research studies into real-time monitoring
Identify and connect new data sources to develop an improving learning measurement system
Measure the effect of training, educational content, and other quality improvement healthcare solutions
Implement an internal quality control system
Develop predictive models for forecasting, clinical and economic outcomes, and performance improvement
Collaborate with statisticians, surgeons, researchers, machine learning experts, and engineering to research and develop new statistical methods focusing on learning curve and measuring surgeon/hospital improvement

Qualifications
Required:

Master’s degree in statistics, manufacturing/industrial engineering, operations research, computer science, or a related field
Minimum of 5+ years with a PhD or 7 years with a MS of relevant industry experience in measuring and improving complex processes
Proficient in a statistical programming (R, Python, STATA, etc..)
Excellent written and spoken English
Preferred
Understanding of implementing statistical monitoring at scale / server based
Specific experience in Application Web Services (AWS)
Experience in healthcare
Peer reviewed publications demonstrating scientific leadership
Johnson & Johnson is an Affirmative Action and Equal Opportunity Employer. All qualified applicants will receive consideration for employment without regard to race, color, religion, sex, sexual orientation, gender identity, age, national origin, or protected veteran status and will not be discriminated against on the basis of disability

Primary Location
United States-Washington-Seattle-
Organization
CSATS Inc.(6261).
Job Function
Biostatistics
Requisition ID
4695191004"
13,19/20 Coach - Assistant Boys' Dive,"Mercer Island, WA 98040",Mercer Island,WA,98040,None Found,"
High school diploma or equivalent
Hold a current and valid First Aid and CPR card
Must be at least 21 years of age
Prior coaching experience preferred",None Found,None Found,None Found,None Found,"COACH POSITION: Boy's Dive Team - Assistant Coach (Winter Season, starting November 18th)

Salary: Per the negotiated agreement

General Functions:
Supports the High School in all of its athletic programs and demonstrates commitment to strengthen relations withthe educational system as well as the coaching profession.
Demonstrates loyalty and support the head coach in conducting the athletic program of that particular sport.
Knowledgeable and aware of rules and regulations concerning his/her sport.
Assumes any duties assigned to him/her by the head coach pertaining to the overall athletic program of that particular sport and assumes responsibilities of the head coach in the absence of the head coach.
Assists and be accountable to the head coach, athletic director, and principal.
Accompanies and directs the assigned team to all games and practices.
Holds a current first aid and CPR card.
Keeps current on all clock hours depending on coaching level.
Exemplifies good sportsmanship and is held to the same sportsmanship expectations as the head coach.
Essential Functions
Instructs students in the fundamentals of the sport s/he is coaching.
Maintains facilities and equipment.
Supervises team players at practice, contests, in locker room and during travel.
Promotes sportsmanship and fair play among all teams and players by always setting a good example for participants and fans to follow, exemplifies the highest moral and ethical behavior; instructs participants in proper sportsmanship responsibilities and demands they make sportsmanship a high priority; respects judgment of contest officials, abides by rules of the event and displays no behavior that could incite fans; treats opposing coaches, participants, fans and media members with respect; develops and enforces penalties for participants who do not abide by sportsmanship standards; and develops a method to publicly recognize good sportsmanship.
Reports contest results to League Statistician as directed.
Minimum Qualifications
High school diploma or equivalent
Hold a current and valid First Aid and CPR card
Must be at least 21 years of age
Prior coaching experience preferred

If you need help with the online process please call (206) 236-3318 or use the District Job Kiosk in the District Administration Building located at 4160 86th Ave SE, Mercer Island."
14,Statistician,"Seattle, WA",Seattle,WA,None Found,None Found,"Conducting studies requiring analysis of statistical data for program requirements; ANDUtilizing various software and computer platforms to prepare analytical data files, perform statistical data analyses and report findings.",None Found,"Serve as the OIG’s authoritative source in statistical areas with respect to all phases of study design, data analysis, and statistical interpretation of the results relating to projects under consideration.Lead the application of analytic techniques and defines study objectives and strategic direction where no clear precedence exists.Apply standard statistical and/or data management software package(s) to execute data processing, data modeling, and technically complicated data analysis with minimal or no supervision.Work in conjunction with the Director to ensure that statistical studies and priorities are in line with organizational objectives.Maintain control of full study design including assisting OIG staff in developing the generally stated project objectives into clearly defined specific study questions, study populations and/or samples and appropriately defined outcome measures; developing strategies to data collection, overseeing data collection, and statistical data analysis plan.","This is a Direct Hire Authority announcement; selections may be made from this announcement or any other source to fill one or more vacancies. Applicants who apply for this position may be considered for other positions within the Office of Inspector General that require the same knowledge, skills, and abilities.This is a non-bargaining unit position.A recruitment incentive may be offered.We offer opportunities for flexible work schedules.100% virtual position.","Please refer to ""Conditions of Employment.""
Click ""Print Preview"" to review the entire announcement before applying.
","Duties
Summary
OIG is organized into three line elements: the Offices of Investigations, Audits and Evaluations, and Healthcare Inspections; along with the Office of Contract Review, the Office of Management and Administration and the Office of Special Review. In addition to the Washington, DC, headquarters, OIG has offices located in more than 30 cities throughout the country.

Responsibilities
This position is 100% telework and can be filled in any city; the selected candidate will be expected to work remotely. Some travel will be expected.

The Statistician located in the Office of Inspector General (OIG) is responsible for provides statistical leadership to OIG staff on projects and initiatives that requires statistical expertise, as well as assisting on study design, data collection, and statistical data analysis and interpretation.

The following are the duties of this position at the GS-14. If you are selected at a lower grade level, you will have the opportunity to learn to perform all these duties, and will receive training to help you grow in this position.
Serve as the OIG’s authoritative source in statistical areas with respect to all phases of study design, data analysis, and statistical interpretation of the results relating to projects under consideration.Lead the application of analytic techniques and defines study objectives and strategic direction where no clear precedence exists.Apply standard statistical and/or data management software package(s) to execute data processing, data modeling, and technically complicated data analysis with minimal or no supervision.Work in conjunction with the Director to ensure that statistical studies and priorities are in line with organizational objectives.Maintain control of full study design including assisting OIG staff in developing the generally stated project objectives into clearly defined specific study questions, study populations and/or samples and appropriately defined outcome measures; developing strategies to data collection, overseeing data collection, and statistical data analysis plan.
Travel Required
25% or less - 1-5 Nights per month. Travel nationwide under tight deadlines. The incumbent should anticipate frequent walking and standing as a component of this travel.
Supervisory status
No
Promotion Potential
14
Job family (Series)
1530 Statistics
Similar jobs
Statisticians
Requirements

Requirements
Conditions of Employment
Please refer to ""Conditions of Employment.""
Click ""Print Preview"" to review the entire announcement before applying.
The experience may have been gained in either the public, private sector or volunteer service. One year of experience refers to full-time work; part-time work is considered on a prorated basis. To ensure full credit for your work experience, please indicate dates of employment by month/day/year, and indicate number of hours worked per week on your résumé.
Qualifications
You must meet the following requirements by the closing date of this announcement.

Specialized experience: For the GS-13, you must have one year of specialized experience at a level of difficulty and responsibility equivalent to the GS-12 grade level in the Federal Service. Specialized experience for this position includes:
Conducting studies requiring analysis of statistical data for program requirements; ANDUtilizing various software and computer platforms to prepare analytical data files, perform statistical data analyses and report findings.
Education
A. Degree: that included 15 semester hours in statistics (or in mathematics and statistics, provided at least 6 semester hours were in statistics), and 9 additional semester hours in one or more of the following: physical or biological sciences, medicine, education, or engineering; or in the social sciences including demography, history, economics, social welfare, geography, international relations, social or cultural anthropology, health sociology, political science, public administration, psychology, etc. Credit toward meeting statistical course requirements should be given for courses in which 50 percent of the course content appears to be statistical methods, e.g., courses that included studies in research methods in psychology or economics such as tests and measurements or business cycles, or courses in methods of processing mass statistical data such as tabulating methods or electronic data processing.
or


B. Combination of education and experience - courses as shown in A above, plus appropriate experience or additional education. The experience should have included a full range of professional statistical work such as (a) sampling, (b) collecting, computing, and analyzing statistical data, and (c) applying statistical techniques such as measurement of central tendency, dispersion, skewness, sampling error, simple and multiple correlation, analysis of variance, and tests of significance.
Additional information
This is a Direct Hire Authority announcement; selections may be made from this announcement or any other source to fill one or more vacancies. Applicants who apply for this position may be considered for other positions within the Office of Inspector General that require the same knowledge, skills, and abilities.This is a non-bargaining unit position.A recruitment incentive may be offered.We offer opportunities for flexible work schedules.100% virtual position.

CONDITIONS OF EMPLOYMENT:
- A one year probationary period may be required.- Must successfully complete a background investigation.
Public Trust – Background Investigation will be required.If you are a male applicant born after December 31, 1959, certify that you have registered with the Selective Service System or are exempt from having to do so.Have your salary sent to a financial institution of your choice by Direct Deposit/Electronic Funds Transfer.Go through a Personal Identity Verification (PIV) process that requires two forms of identification from the Form I-9. Federal law requires verification of the identity and employment eligibility of all new hires in the U.S.Complete a Declaration for Federal Employment to determine your suitability for Federal employment, at the time requested by the agency.Obtain and use a Government-issued purchase card for business-related travel.


How You Will Be Evaluated
You will be evaluated for this job based on how well you meet the qualifications above.
Your application includes your résumé, responses to the online questions, and required supporting documents. Please be sure that your résumé includes detailed information to support your qualifications for this position; failure to provide sufficient evidence in your resume may result in a “not qualified” determination.

Rating: This announcement is issued under ""direct-hire"" authority. Consistent with 5 U.S.C 3304(a)(3) and OPM regulations (5 CFR 337 Subpart B) on direct-hire: All candidates who meet all the qualification and other eligibility requirements may be referred for consideration. Competitive examining rules providing for rating and ranking, category rating, and veterans' preference do not apply. We will evaluate your application by comparing your description of your work experience, level of responsibility, and accomplishments, with the requirements of the position to determine whether you meet all the qualification requirements. You may be required to participate in a selection interview and/or a writing assessment. Applicants who are selected for an interview may ask questions about the evaluation process at the time they are contacted for an interview.

If you are a displaced or surplus Federal employee (eligible for the Career Transition Assistance Plan (CTAP)/Interagency Career Transition Assistance Plan (ICTAP)) you must be rated as well qualified to receive special selection priority. ""Well-qualified"" means that in addition to meeting all the basic qualification and eligibility requirements, you possess knowledge, skills, and abilities which clearly exceed the minimum qualification requirements for this position, and you would be able to satisfactorily perform the duties of this position upon entry.


To preview questions please click here.

Background checks and security clearance
Security clearance
Not Required
Drug test required
No
Required Documents

Required Documents
It is anticipated that there will be significant interest in the announcement. As a result, the announcement will close at 11:59 p.m. ET on the date of receipt of the 200th application or at 11:59 p.m. ET on 10/15/2019; whichever occurs first. Any required documents should be submitted at the time that you apply as documents will not be accepted after the vacancy closes.

A complete application includes 1. A résumé, 2. Vacancy question responses, and 3. Submission of any required documents. Please note that if you do not provide all required information, as specified in this announcement, you may not be considered for this position (or may not receive the special consideration for which you may be eligible).

All applicants are required to submit a résumé either by creating one in USAJOBS or uploading one of their own choosing. (Cover letters are optional.) To receive full credit for relevant experience, please list the month/date/year and number of hours worked for experience listed on your résumé. We suggest that you preview the online questions, as you may need to customize your résumé to ensure that it supports your responses to these questions. Please view résumé tips.

VETERANS' PREFERENCE DOCUMENTATION: Veteran's preference does not apply to announcements posted under Direct Hire Authority; however, you are encouraged to provide your documentation. Please see applicant guide for required documentation.

CAREER TRANSITION ASSISTANCE PLAN (CTAP) OR INTERAGENCY CAREER TRANSITION ASSISTANCE PLAN (ICTAP) DOCUMENTATION: If you are a displaced or surplus Federal employee, click CTAP/ICTAP for eligibility and a detailed list of required documents.

EDUCATION DOCUMENTATION: For positions with an education requirement, or if you are qualifying for this position by substituting education or training for experience, submit a copy of your transcripts or equivalent. An official transcript will be required if you are selected.

A college or university degree generally must be from an accredited (or pre-accredited) college or university recognized by the U.S. Department of Education. For a list of schools which meet these criteria, please refer to Department of Education Accreditation page. If you are qualifying based on foreign education, you must submit proof of creditability of education as evaluated by a credentialing agency. Refer to the OPM instructions.
If you are relying on your education to meet qualification requirements:
Education must be accredited by an accrediting institution recognized by the U.S. Department of Education in order for it to be credited towards qualifications. Therefore, provide only the attendance and/or degrees from schools accredited by accrediting institutions recognized by the U.S. Department of Education.
Failure to provide all of the required information as stated in this vacancy announcement may result in an ineligible rating or may affect the overall rating.
Benefits

Benefits
A career with the U.S. Government provides employees with a comprehensive benefits package. As a federal employee, you and your family will have access to a range of benefits that are designed to make your federal career very rewarding. Learn more about federal benefits.
Our comprehensive benefits are very generous. Our benefits package includes:

Challenging work, opportunities for advancement, competitive salaries, bonuses and incentive awards.Ten paid holidays, 13 days of sick leave, and 13 to 26 days of vacation time each year.Access to insurance programs that may be continued after you retire.A wide choice of health insurance plans, coverage for pre-existing conditions, and no waiting periods. We pay a substantial amount (up to 75%) of the health insurance premiums.A retirement program which includes employer-matching contributions.Learn more about Federal benefits programs at: https://help.usajobs.gov/index.php/Pay_and_Benefits
Eligibility for benefits depends on the type of position you hold and whether your position is full-time, part-time, or intermittent. Contact the hiring agency for more information on the specific benefits offered."
15,"Project Director, Statsitical (Biostatistican)","Seattle, WA 98121",Seattle,WA,98121,None Found,None Found,None Found,"
Plans project schedules and timelines to meet terms of contract and ensures timely completion of contract deliverables.
May serve as the primary statistician, as needed.
Monitors, tracks and reports project progress to clients and interested parties.
Coordinates and/or participates in client meetings and conference calls, as required.
Provides leadership, resources, mentoring, training, guidance, direction, and oversight for assigned project team members.
Provides guidance and oversight in producing statistical analysis and reports, including statistical sections of regulatory submissions, Data Monitoring Committee reports, and analyses for publication.
Facilitates project team meetings on a regular basis.
Ensures overall quality of all project deliverables.
Provides input to the department leadership in developing long-range strategic plans.
Serves as primary liaison with clients and interfaces with potential clients, as applicable.","
PhD or Master's degree in Biostatsitics, Statistics, or related fields
3+ years of DMC experience
3+ years of Clinical trial experience
Expert level knowledge of statistical concepts and knowledge of medical/scientific terminology
Experience leading projects or teams strongly preferred
Oncology experience preferred.",None Found,"We have an immediate opening for a Project Director, Biostatistician to be a part of our rapidly growing biostatistics team responsible for overseeing Clinical Trial Projects, providing statistical interpretation of results, and collaborating on the reporting of clinical trial results to clients and monitoring committees, while ensuring adherence to regulatory and company standards. The successful candidate must be self-motivated in a quickly paced environment and willing to provide leadership. This is a full time position with great career development and advancement opportunities.
Axio Research is specialized in providing services to a diverse portfolio of clients in the planning and management of Data Monitoring Committees for clinical trials in all major therapeutic areas. Axio also provides a full range of statistical analysis and programming capabilities spanning preclinical through Phase 4 clinical development.
Responsibilities:
Plans project schedules and timelines to meet terms of contract and ensures timely completion of contract deliverables.
May serve as the primary statistician, as needed.
Monitors, tracks and reports project progress to clients and interested parties.
Coordinates and/or participates in client meetings and conference calls, as required.
Provides leadership, resources, mentoring, training, guidance, direction, and oversight for assigned project team members.
Provides guidance and oversight in producing statistical analysis and reports, including statistical sections of regulatory submissions, Data Monitoring Committee reports, and analyses for publication.
Facilitates project team meetings on a regular basis.
Ensures overall quality of all project deliverables.
Provides input to the department leadership in developing long-range strategic plans.
Serves as primary liaison with clients and interfaces with potential clients, as applicable.
Preferred Education and Experience:
PhD or Master's degree in Biostatsitics, Statistics, or related fields
3+ years of DMC experience
3+ years of Clinical trial experience
Expert level knowledge of statistical concepts and knowledge of medical/scientific terminology
Experience leading projects or teams strongly preferred
Oncology experience preferred.
What We Have to Offer:
No Cost Health, dental, and vision insurance
Generous Vacation, Sick and Personal Day time
Recognition, Bonuses, & Promotions for Outstanding Performance based on merit
Professional development
401k-retirement savings plan with employer match
A casual, fun and supportive work environment
Various company events throughout the year
Opportunity to grow with a rising company
Axio Research is an equal opportunity employer."
16,19/20 - Assistant Coach - Boys' Swim & Dive,"Mercer Island, WA 98040",Mercer Island,WA,98040,None Found,"
High school diploma or equivalent
Hold a current and valid First Aid and CPR card
Must be at least 21 years of age
Prior coaching experience preferred",None Found,None Found,None Found,None Found,"COACH POSITION: Assistant Boy's Swim & Dive Coach (Winter Season)

Salary: Per the negotiated agreement

General Functions:
Supports the High School in all of its athletic programs and demonstrates commitment to strengthen relations withthe educational system as well as the coaching profession.
Supports the head coach in conducting the athletic program of that particular sport.
Knowledgeable and aware of rules and regulations concerning his/her sport.
Assumes any duties assigned to him/her by the head coach pertaining to the overall athletic program of that particular sport and assumes responsibilities of the head coach in the absence of the head coach.
Assists and be accountable to the head coach, athletic director, and principal.
Accompanies and directs the assigned team to all games and practices.
Holds a current first aid and CPR card.
Keeps current on all clock hours depending on coaching level.
Exemplifies good sportsmanship and is held to the same sportsmanship expectations as the head coach.
Essential Functions
Instructs students in the fundamentals of the sport s/he is coaching.
Maintains facilities and equipment.
Supervises team players at practice, contests, in locker room and during travel.
Promotes sportsmanship and fair play among all teams and players by always setting a good example for participants and fans to follow, exemplifies the highest moral and ethical behavior; instructs participants in proper sportsmanship responsibilities and demands they make sportsmanship a high priority; respects judgment of contest officials, abides by rules of the event and displays no behavior that could incite fans; treats opposing coaches, participants, fans and media members with respect; develops and enforces penalties for participants who do not abide by sportsmanship standards; and develops a method to publicly recognize good sportsmanship.
Reports contest results to League Statistician as directed.
Minimum Qualifications
High school diploma or equivalent
Hold a current and valid First Aid and CPR card
Must be at least 21 years of age
Prior coaching experience preferred

If you need help with the online process please call (206) 236-3318 or use the District Job Kiosk in the District Administration Building located at 4160 86th Ave SE, Mercer Island."
17,19/20 - Coach - Assistant Girls' Golf,"Mercer Island, WA 98040",Mercer Island,WA,98040,None Found,"
High school diploma or equivalent
Hold a current and valid First Aid and CPR card
Must be at least 21 years of age
Prior coaching experience preferred",None Found,None Found,None Found,None Found,"COACH POSITION: Girls' Golf - Assistant Coach (Spring)

Salary: Per the negotiated agreement

General Functions:
Supports the High School in all of its athletic programs and demonstrates commitment to strengthen relations withthe educational system as well as the coaching profession.
Supports the head coach in conducting the athletic program of that particular sport.
Knowledgeable and aware of rules and regulations concerning his/her sport.
Assumes any duties assigned to him/her by the head coach pertaining to the overall athletic program of that particular sport and assumes responsibilities of the head coach in the absence of the head coach.
Assists and be accountable to the head coach, athletic director, and principal.
Accompanies and directs the assigned team to all games and practices.
Holds a current first aid and CPR card.
Keeps current on all clock hours depending on coaching level.
Exemplifies good sportsmanship and is held to the same sportsmanship expectations as the head coach.
Essential Functions
Instructs students in the fundamentals of the sport s/he is coaching.
Maintains facilities and equipment.
Supervises team players at practice, contests, in locker room and during travel.
Promotes sportsmanship and fair play among all teams and players by always setting a good example for participants and fans to follow, exemplifies the highest moral and ethical behavior; instructs participants in proper sportsmanship responsibilities and demands they make sportsmanship a high priority; respects judgment of contest officials, abides by rules of the event and displays no behavior that could incite fans; treats opposing coaches, participants, fans and media members with respect; develops and enforces penalties for participants who do not abide by sportsmanship standards; and develops a method to publicly recognize good sportsmanship.
Reports contest results to League Statistician as directed.
Minimum Qualifications
High school diploma or equivalent
Hold a current and valid First Aid and CPR card
Must be at least 21 years of age
Prior coaching experience preferred

If you need help with the online process please call (206) 236-3318 or use the District Job Kiosk in the District Administration Building located at 4160 86th Ave SE, Mercer Island.

The stipend amounts listed are from the 2018-19 coach salary schedule and will be updated for 2019-20 if changes occur."
18,19/20 - Coach - Assistant Softball Coach,"Mercer Island, WA 98040",Mercer Island,WA,98040,None Found,"
High school diploma or equivalent
Hold a current and valid First Aid and CPR card
Must be at least 21 years of age
Prior coaching experience preferred",None Found,None Found,None Found,None Found,"COACH POSITION: Softball - Assistant Coach -JV Team (Spring Season)

Salary: Per the negotiated agreement

General Functions:
Supports the High School in all of its athletic programs and demonstrates commitment to strengthen relations withthe educational system as well as the coaching profession.
Supports the head coach in conducting the athletic program of that particular sport.
Knowledgeable and aware of rules and regulations concerning his/her sport.
Assumes any duties assigned to him/her by the head coach pertaining to the overall athletic program of that particular sport and assumes responsibilities of the head coach in the absence of the head coach.
Assists and be accountable to the head coach, athletic director, and principal.
Accompanies and directs the assigned team to all games and practices.
Holds a current first aid and CPR card.
Keeps current on all clock hours depending on coaching level.
Exemplifies good sportsmanship and is held to the same sportsmanship expectations as the head coach.
Essential Functions
Instructs students in the fundamentals of the sport s/he is coaching.
Maintains facilities and equipment.
Supervises team players at practice, contests, in locker room and during travel.
Promotes sportsmanship and fair play among all teams and players by always setting a good example for participants and fans to follow, exemplifies the highest moral and ethical behavior; instructs participants in proper sportsmanship responsibilities and demands they make sportsmanship a high priority; respects judgment of contest officials, abides by rules of the event and displays no behavior that could incite fans; treats opposing coaches, participants, fans and media members with respect; develops and enforces penalties for participants who do not abide by sportsmanship standards; and develops a method to publicly recognize good sportsmanship.
Reports contest results to League Statistician as directed.
Minimum Qualifications
High school diploma or equivalent
Hold a current and valid First Aid and CPR card
Must be at least 21 years of age
Prior coaching experience preferred

If you need help with the online process please call (206) 236-3318 or use the District Job Kiosk in the District Administration Building located at 4160 86th Ave SE, Mercer Island."
19,Principal Biostatistician,"Seattle, WA",Seattle,WA,None Found,None Found,None Found,None Found,None Found,None Found,None Found,"Summary:
Provide statistical/strategic inputs to the clinical development plans while supporting clinical trials within a program. Key contributor to clinical protocols for statistical concept as well as broader drug development concepts. Perform or oversee the analysis of clinical trial data, provide statistical interpretation of results, and collaborate on the reporting of clinical trial results to regulatory authorities and scientific community. Ensure adherence to regulatory and company standards.
Responsibilities:
Provide leadership to the Biometrics team on one or more clinical programs or key studies; review work of statisticians supporting this work
Provide update to management on program progress with focus on Biometrics
Collaborate with medical monitors and other study personnel on the creation of clinical development plans and clinical trial designs
Perform or oversee power/sample size calculations to determine appropriate trial size; run simulations to assess operating characteristics of a design
Provide statistically sound experimental design and data analysis inputs to meet project objectives and regulatory requirements
Design and write statistical sections for clinical trial protocols or oversee this work
Generate study randomizations and provide inputs on maintaining study blinding
Develop statistical analysis plans for clinical trials or oversee this work
Write statistical sections of regulatory submissions or oversee this work
Design and conduct statistical analysis of clinical data or oversee this work
Work with medical monitors to develop ad hoc analysis plans and ensure analyses are performed appropriately by programming staff
Represent Seattle Genetics statistical position to regulatory agencies
Key contributor in project planning
Keep abreast of new developments in statistics, drug development, and regulatory guidance through literature review and attendance at workshops and professional meetings
Become knowledgeable in disease areas under study (e.g. available treatments, course of disease, endpoints, analyses used for previous submissions)
Develop and assist in maintenance of department tools, templates, guidelines, SOPs, and systems.
Knowledge of FDA regulations, ICH GCP guidelines, the drug development process
Requirements:
MS with 6+ years or PhD with 4+ years of experience as a study statistician with high independence on complicated studies
Previous experience providing leadership to Biometrics staff within a clinical team
Knowledge and experience to exercise independent judgment and provide oversight to programmers, data managers, and junior statisticians.
Excellent communication and presentation skills, both written and verbal
Knowledge of FDA regulations, ICH guidelines, the drug development process
Proficiency with SAS® procedures and programming language
Preferred:
Submission experience a plus
Strong simulations experience/skills
Oncology experience preferred
Proficiency with S-Plus or R a benefit

As the leading employer in our industry in the Pacific Northwest, Seattle Genetics is proud to offer a competitive total compensation package as well as a comprehensive benefits program designed to support the whole lives of our employees and their families. Benefits include medical, vision and dental coverage, group and supplemental life insurance, 401(k) with company match, tuition reimbursement, relocation assistance and much more. To learn more about Seattle Genetics, please visit www.seattlegenetics.com.
Seattle Genetics is an equal opportunity employer. All qualified applications will receive consideration for employment without regard to race, age, gender identity, sexual orientation, color, religion, sex, marital status, national origin, protected veteran status, disability status, or any other status protected by federal, state, or local law."
20,"Data Scientist, AWS Training & Certification","Seattle, WA",Seattle,WA,None Found,None Found,None Found,None Found,None Found,None Found,None Found,"Bachelor’s degree in Mathematics, Computer Science, Technology, or a similar discipline with analytical bias3+ years of relevant work experience as a data scientist, statistician, or similar position requiring analysis, statistics, machine learning, and data science.Proficient with mathematical programming libraries (e.g. R, Python)2+ years of experience wiring SQL and working within databases (e.g. Redshift or similar)Advanced proficiency with advanced data analyticsExperience with business intelligence and data visualization and reporting tools (e.g. Tableau)Experience creating white papers and documents describing model outputExperience developing and managing data science platform and toolsAbility to perform root cause analysis to uncover issues within dataAbility to distill problem definitions, models, and constraints from informal business requirements

The Amazon Web Services (AWS) Training and Certification organization educates customers, partners, and AWS Employees globally on AWS products, solutions, and best practices. We are seeking a talented and experienced Data Scientist to perform data analytics and create forecasting processes to influence business strategies and better understand a customer’s training & certification journey.

As part of the AWS Training and Certification (T&C) Business Intelligence and Data Analytics team you will analyze data provide insights using statistical methods and processes. We are looking for someone who is comfortable getting into data and understanding patterns and performance that can be leveraged in business strategies. The right candidate will be passionate about working with large datasets and should be someone who loves to bring data together to answer complex business questions that deepen our understanding of our business drivers. As a Data Scientist within AWS, you will have the exciting opportunity to help analyze and deliver data driven insights that will broaden AWS’s penetration in the cloud computing market.

The ideal candidate will have a background in analyzing and deriving insights from data by using SQL (e.g. Redshift), analytics (e.g. R, Python), statistical processes (e.g. machine learning, forecasting, and predictive analytics), and business intelligence tools (e.g. Tableau). A successful candidate should have the technical proficiency to develop code to produce processes that analyze our data and the business proficiency to summarize their findings and report to the AWS Training and Certification leadership team. This role will work closely with Business Intelligence Engineers, Business Analyst, Economists, Program Managers, and AWS T&C Leadership.

Responsibilities:
Serve as a key member of the AWS Training & Certification Business Intelligence and Data Analytics team by turning data into actionable insights and providing support for strategic initiatives.Conduct analysis of existing metrics and create new metrics that will be shared with the Global Operations Team and executive stakeholders.Recommend, develop, and manage machine learning/statistical processes and tools.Conducts data analyses with the appropriate statistical approach (regressions, linear and non-linear correlation, entropy, t-test, F-test, etc.)Identify needed data for projects and understand underlying structure (distribution, variable independence, outliers, etc.), and develop process to help improve data qualityInfluence the decisions of senior business leaders through effective verbal and written communication and logical reasoning.Able to discuss and present data science processes to business leaders and provide support to help with understanding of processes to non-tech individuals.Manage numerous requests concurrently and strategically, prioritizing when necessary.Drive and support projects that help build AWS into the most customer-centric technology platform

Master’s degree or PhD in Mathematics, Computer Science, Technology, or a similar discipline with analytical bias5+ years of relevant work experience as a data scientist, statistician, or similar position requiring analysis, statistics, machine learning, and data science.3+ years of experience writing SQL2+ years of experience with Tableau DesktopExpert proficiency with advanced data analyticsExperience forecasting large organizational goals and revenueExperience modeling customer journey throughout multiple systems, websites, and productsExperience developing and managing data science platform and tools within AWSExcellent communications skills including, presenting, editing, and writing as well as accuracy and attention to detail required.
Amazon.com is an Equal Opportunity Employer – Minority / Women / Disability / Veteran / Gender Identity / Sexual Orientation / Age."
21,Statistician,"Seattle, WA",Seattle,WA,None Found,None Found,None Found,None Found,None Found,None Found,"
Doctoral degree in a quantitative discipline, such as statistics, biostatistics, applied mathematics, or a related field
Expertise in statistical methods such as program evaluation, experimental design, natural language processing, Bayesian inference, hierarchical/multilevel modeling, longitudinal data analysis, quality measurement, and/or predictive modeling
Fluency in one or more of the following statistical programming languages: R, Python, Stan, SAS, Stata, and/or Julia
Excellent written and oral communication skills, including an ability to translate statistical methods and findings for a non-technical audience
Experience contributing to proposals preferred
Subject-matter knowledge in the health policy field preferred","Position Description:

Mathematica is a nationally recognized, nonpartisan research organization that conducts social policy research on health care, disability, education, welfare, nutrition, and other topics. Our mission is to improve public well-being by bringing the highest standards of quality, objectivity, and excellence to bear on the work we do for our clients, which include federal, state, and local government agencies, as well as private foundations. Mathematica’s workforce of more than 1200 social scientists, data analytics professionals, support staff and administrators is committed to providing the policymaking community with the evidence to build better social programs. We offer our employees a stimulating team-oriented work environment, competitive salaries, and a comprehensive benefits package, as well as the advantages of employee ownership.
We are looking for PhD-level statisticians to join our vibrant group of over 50 statisticians and data scientists. The contributions of our statisticians underpin our ability to produce crucial evidence and information for policy and decision makers. We provide support for staff to engage in professional activities such as journal publications and conference participation.
Position Responsibilities:
Analysis. Apply a wide array of statistical methods to evaluate social programs and policies, by designing rigorous studies, conducting analyses, visualizing results, interpreting findings, drafting reports, and presenting inferences to policymakers and other stakeholders
Methods development. Leverage deep technical expertise in statistical methodology to improve upon existing analytic methods for policy research
Mentorship. Oversee the analyses of junior statisticians and data scientists, and support their professional development
Business development. Author the quantitative methods sections of proposals for new research projects
Teamwork. Participate actively and thoughtfully in multidisciplinary teams
Position Requirements:

Doctoral degree in a quantitative discipline, such as statistics, biostatistics, applied mathematics, or a related field
Expertise in statistical methods such as program evaluation, experimental design, natural language processing, Bayesian inference, hierarchical/multilevel modeling, longitudinal data analysis, quality measurement, and/or predictive modeling
Fluency in one or more of the following statistical programming languages: R, Python, Stan, SAS, Stata, and/or Julia
Excellent written and oral communication skills, including an ability to translate statistical methods and findings for a non-technical audience
Experience contributing to proposals preferred
Subject-matter knowledge in the health policy field preferred
To apply, please submit a cover letter, resume, writing sample, and coding sample at the time of application. Review of applications will start in May 2019, applications completed before June 2019 will receive priority in consideration.
Various federal agencies with whom we contract require that staff successfully undergo a background investigation or security clearance as a condition of working on the project. If you work on such a project, you will be required to obtain the requisite security clearance.
Available Locations: Cambridge, MA; Washington, DC;

Other locations (Princeton, NJ; Chicago, IL; Oakland, CA; Seattle, WA; Woodlawn, MD) will be considered.
We are an Equal Opportunity Employer and do not discriminate against any employee or applicant for employment because of race, color, sex, age, national origin, religion, sexual orientation, gender identity, status as a veteran, and basis of disability or any other federal, state or local protected class."
22,INSTITUTIONAL ANALYST,"Seattle, WA",Seattle,WA,None Found,None Found,None Found,None Found,None Found,None Found,None Found,"Notes: For priority consideration, please apply by August 15, 2019.


As a UW employee, you will enjoy generous benefits and work/life programs. For detailed information on Benefits for this position, click here.


As a UW employee, you have a unique opportunity to change lives on our campuses, in our state and around the world. UW employees offer their boundless energy, creative problem solving skills and dedication to build stronger minds and a healthier world.


UW faculty and staff also enjoy outstanding benefits, professional growth opportunities and unique resources in an environment noted for diversity, intellectual excitement, artistic pursuits and natural beauty. All of which has allowed the UW to be nationally recognized as a “Great College to Work For” for five consecutive years.


The Graduate School has an outstanding full time opportunity for an Institutional Analyst who will help provide instrumental services to UW graduate programs, faculty and students while championing the enterprise of graduate education itself.


The Graduate School Computing and Information Resources (CAIR) unit provides University of Washington (UW) leaders with reporting and analyses for decision-making regarding UW graduate education policies, priorities, operational metrics and long-range planning. Reporting to the Director of CAIR, the Institutional Analyst combines the role of data analyst and statistician while incorporating elements of project management and business intelligence. This position will assist the director of CAIR with ad-hoc and regular reporting requests but will also undertake topical analyses. In addition, this role will provide guidance and instruction to campus partners on how best to leverage existing data sources and will support the Director of CAIR in determining the priority of reporting and analysis projects. The position is also responsible for development and administration of institutional surveys including the Graduate School’s admissions and exit surveys.


This position requires complex data analyses with institution-wide impact and requires the ability to model data, design data sets, create database queries, apply basic statistical procedures, work with business intelligence, analytic and data visualization tools. The position is responsible for interacting with external agencies for matters related to institutional data, reporting, and UW activity, and collaborates with UW and external colleagues to define data and develop methods in support of the analyses of graduate education. The role must be able to conceptualize and communicate results of complex analyses to campus partners and external constituents. The position will be responsible for conveying such results to a broad audience with varying analytical and technical skill sets and will often partner with the Graduate School Communications Director in this regard. The position must be able to work effectively in a small team and will often have project management responsibility for projects such as implementation of surveys and report production.


The Institutional Analyst supports decision-making at the school/college and university level which could impact students, faculty, staff and programs. The position is responsible for ensuring end-to-end quality control in data analyses and reports. The position also interacts with analysts at other U.S. universities via the American Association of Universities Data Exchange.


RESPONSIBILITIES:


Produce data analyses and reports, complete government reports, and satisfy ad-hoc requests. While doing so, contribute to the development, capture, and documentation of standardized approaches to responding to questions that are asked repeatedly

Design, conduct, and outline complex statistical institutional analyses of quantitative and qualitative data to support University, College, or Division- level strategic and tactical planning, including the design, administration and analysis of survey instruments

Research policy and present information in support of graduate admission, enrollment, completion, and financial support planning. This requires collaboration with Graduate School and other University faculty and staff, and utilizing Graduate School databases, the UW Enterprise Data Warehouse, and other institutional, web, and library resources

Provide conclusions and recommendations to policy makers based on data analysis and policy research

Coordination with the CAIR business analyst to develop and implement operational metrics

Assess data needs and fulfill data requirements for institutional grant proposals and report requests from federal and other external constituents

Organize and lead focus groups as needed

Serve on institutional committees or otherwise contribute to the development of institutional data definitions, analytic methods, and reporting procedures


REQUIREMENTS:


Bachelor's Degree and four years of experience to include:


Data analysis for a large organization

Compiling analytic data-rich reports for a variety of constituents

Intermediate level proficiency in database use and SQL queries

Survey design and administration experience

Excellent oral and written skills

Proficiency in data visualizations and presenting technical information

Ability to work independently and in close team coordination


Equivalent education/experience will substitute for all minimum qualifications except when there are legal requirements, such as a license/certification/registration.


DESIRED:


Master’s degree

Data analysis in a college or university setting

Knowledge and experience with UW data resources

Experience with business intelligence tools

Experience with Qualtrics Research Core

Query experience with Microsoft SQL Server

Basic proficiency in statistical methods

Data transformation skills

Experience developing dashboards and other visualizations using Tableau

Excel Power Pivot

:


Application Process:

The application process for UW positions may include completion of a variety of online assessments to obtain additional information that will be used in the evaluation process. These assessments may include Work Authorization, Cover Letter and/or others. Any assessments that you need to complete will appear on your screen as soon as you select “Apply to this position”. Once you begin an assessment, it must be completed at that time; if you do not complete the assessment you will be prompted to do so the next time you access your “My Jobs” page. If you select to take it later, it will appear on your ""My Jobs"" page to take when you are ready. Please note that your application will not be reviewed, and you will not be considered for this position until all required assessments have been completed.

Committed to attracting and retaining a diverse staff, the University of Washington will honor your experiences, perspectives and unique identity. Together, our community strives to create and maintain working and learning environments that are inclusive, equitable and welcoming.
The University of Washington is a leader in environmental stewardship & sustainability, and committed to becoming climate neutral.
The University of Washington is an equal opportunity, affirmative action employer. To request disability accommodation in the application process, contact the Disability Services Office at 206-543-6450 / 206-543-6452 (tty) or dso@uw.edu."
23,Senior Biostatistician II,"Seattle, WA",Seattle,WA,None Found,None Found,None Found,None Found,None Found,None Found,None Found,"Summary:
Independently serve as clinical study statistician on multiple projects with limited supervision. Provide expertise in the design and development of study protocols and case report forms. Develop statistical analysis plans, perform statistical analyses, and interpret results. Develop SAS programs of varying complexity to analyze and report clinical data. Review programming specifications and outputs. Recognize inconsistencies and initiate resolution of data problems. Collaborate in the preparation and review of clinical study reports. Ensure adherence to regulatory and company standards.

Responsibilities:

Perform duties of a study statistician to support clinical trials. Oversee statistical aspects in the design of clinical trials
Provide statistical input to study protocols
Perform sample size and power calculations
Review CRFs and edit checks
Develop SAP and create table, listing, and figure shells
Review programming specifications and derived datasets
Perform or review statistical analysis as defined in SAP
Code complex statistical analyses as needed
Interpret results and write sections of documents; present results
Support program lead statisticians in preparations for interactions with regulatory agencies
Read and understand medical/clinical literature as required by duties
Develop and assist in maintenance of department tools, templates, guidelines, SOPs, and systems
Working knowledge of FDA regulations, ICH GCP guidelines, the drug development process
Work on problems of diverse scope in which analysis of data requires evaluation of identifiable factors
Exercise judgment within generally defined practices and policies in selecting methods and techniques for obtaining solutions

Qualifications:

MS in statistics, biostatistics, or related field with 4-7 years of experience, or PhD with 2-5 years of experience
Strong SAS programming skills
Working knowledge of clinical trial design
Knowledge of FDA regulations, ICH GCP guidelines, the drug development process
Excellent verbal and written communication skills
Demonstrated initiative and motivation
Good organizational skills with the ability to adapt and adjust to changing priorities
Experience working in an environment where knowledge of and adherence to SOPs and regulatory guidelines are required
Able to prioritize work and complete deliverables to timelines with limited supervision
Detail and process oriented

Preferred:

Oncology experience preferred
Knowledge of R
Simulation experience

As the leading employer in our industry in the Pacific Northwest, Seattle Genetics is proud to offer a competitive total compensation package as well as a comprehensive benefits program designed to support the whole lives of our employees and their families. Benefits include medical, vision and dental coverage, group and supplemental life insurance, 401(k) with company match, tuition reimbursement, relocation assistance and much more. To learn more about Seattle Genetics, please visit www.seattlegenetics.com.
Seattle Genetics is an equal opportunity employer. All qualified applications will receive consideration for employment without regard to race, age, gender identity, sexual orientation, color, religion, sex, marital status, national origin, protected veteran status, disability status, or any other status protected by federal, state, or local law."
