,Title,Location,City,State,Zip,Country,Qualifications,Skills,Responsibilities,Education,Requirement,FullDescriptions
0,"Consulting Statistician, Manager – US Research & Insights, Deloitte Services LP","Atlanta, GA 30303",Atlanta,GA,30303,None Found,"PhD in statistics or one of the quantitative social sciences
5+ years of experience doing hands-on, statistics-intensive work
Solid experience working in a consulting statistician capacity: ideating with clients, manifesting good communication skills, balancing multiple projects
Broad, solid knowledge of statistics with depth in one or more areas such as survey design/analysis, econometrics, or causal inference
Flair for Exploratory Data Analysis
Knowledge of core machine learning methods
Ability and eagerness to keep abreast of data-intensive developments in such fields as text analysis, social network analysis, Computational Social Science

To apply
Apply with a letter explaining why you are interested in this role and expanding upon your qualifications. Please include a full CV and two writing samples, ideally sole- or first-authored. One sample should be shorter (i.e., <1000 words) and one longer (i.e., >2000 words).",None Found,"Participates in discussions of research agendas of other R&I centers; help ideate project ideas
Help articulate the art of the possible; translate high-level research goals into the design of analytical projects
Help establish timelines; assist in the management of the data science group’s portfolio of projects
Peer review and help ensure the scientific quality and business relevance of the team’s work products
Review team members’ code as appropriate
Coach analysts in how to effectively communicate the results of their work in written and visual form
Help mentor junior data scientists; help them cultivate analytical and statistical skills
Serve as one of the group’s senior “sounding boards”, helping think through business, conceptual, and technical issues
Assist the team leader triage or refine project ideas based on feasibility, resource requirements, generalizability, relevance, etc
Suggest refinements of requests from other R&I leaders
Monitor project work for quality assurance and call attention to coding or methodological issues
Ensure that analytical results are being appropriately interpreted, communicated, and documented
Coach non-data science R&I members on the ‘art of the possible’ to address their ‘problem statement’ and derive insights
Help foster a culture of creativity & experimentation

Qualifications and Work Experience",None Found,None Found,"Consulting Statistician, Manager – US Research & Insights, Deloitte Services LP
The Manager, Consulting Statistician [SCS] of the Deloitte Research & Insights [R&I] Data Science group will help cultivate and manage a pipeline of data science and analytics projects. A primary focus of the projects will be to support the research goals of the rest of R&I, and other parts of the firm. The SCS will regularly ideate projects with other R&I industry and research leaders; help translate broad research goals into well-designed analytics projects; help oversee and ensure the scientific integrity of the team’s work; and help communicate findings to stakeholders. The SCS will also help cultivate talent and serve as a scientific mentor to other members of the data science team. The role is intended to add both significant statistical sophistication and consulting orientation to the data science group.

Role Responsibilities:

Participates in discussions of research agendas of other R&I centers; help ideate project ideas
Help articulate the art of the possible; translate high-level research goals into the design of analytical projects
Help establish timelines; assist in the management of the data science group’s portfolio of projects
Peer review and help ensure the scientific quality and business relevance of the team’s work products
Review team members’ code as appropriate
Coach analysts in how to effectively communicate the results of their work in written and visual form
Help mentor junior data scientists; help them cultivate analytical and statistical skills
Serve as one of the group’s senior “sounding boards”, helping think through business, conceptual, and technical issues
Assist the team leader triage or refine project ideas based on feasibility, resource requirements, generalizability, relevance, etc
Suggest refinements of requests from other R&I leaders
Monitor project work for quality assurance and call attention to coding or methodological issues
Ensure that analytical results are being appropriately interpreted, communicated, and documented
Coach non-data science R&I members on the ‘art of the possible’ to address their ‘problem statement’ and derive insights
Help foster a culture of creativity & experimentation

Qualifications and Work Experience
PhD in statistics or one of the quantitative social sciences
5+ years of experience doing hands-on, statistics-intensive work
Solid experience working in a consulting statistician capacity: ideating with clients, manifesting good communication skills, balancing multiple projects
Broad, solid knowledge of statistics with depth in one or more areas such as survey design/analysis, econometrics, or causal inference
Flair for Exploratory Data Analysis
Knowledge of core machine learning methods
Ability and eagerness to keep abreast of data-intensive developments in such fields as text analysis, social network analysis, Computational Social Science

To apply
Apply with a letter explaining why you are interested in this role and expanding upon your qualifications. Please include a full CV and two writing samples, ideally sole- or first-authored. One sample should be shorter (i.e., <1000 words) and one longer (i.e., >2000 words).
How you’ll grow
At Deloitte, our professional development plan focuses on helping people at every level of their career to identify and use their strengths to do their best work every day. From entry-level employees to senior leaders, we believe there’s always room to learn. We offer opportunities to help sharpen skills in addition to hands-on experience in the global, fast-changing business world. From on-the-job learning experiences to formal development programs, our professionals have a variety of opportunities to continue to grow throughout their career.

Benefits
At Deloitte, we know that great people make a great organization. We value our people and offer employees a broad range of benefits. Learn more about what working at Deloitte can mean for you.

Deloitte’s culture
Our positive and supportive culture encourages our people to do their best work every day. We celebrate individuals by recognizing their uniqueness and offering them the flexibility to make daily choices that can help them to be healthy, centered, confident, and aware. We offer well-being programs and are continuously looking for new ways to maintain a culture where our people excel and lead healthy, happy lives. Learn more about Life at Deloitte.

Corporate citizenship
Deloitte is led by a purpose: to make an impact that matters. This purpose defines who we are and extends to relationships with our clients, our people and our communities. We believe that business has the power to inspire and transform. We focus on education, giving, skill-based volunteerism, and leadership to help drive positive social impact in our communities. Learn more about Deloitte’s impact on the world.

Recruiter tips
We want job seekers exploring opportunities at Deloitte to feel prepared and confident. To help you with your interview, we suggest that you do your research: know some background about the organization and the business area you’re applying to. Check out recruiting tips from Deloitte professionals.

As used in this posting, “Deloitte” means Deloitte Services LP, a subsidiary of Deloitte LLP. Please see www.deloitte.com/us/about for a detailed description of the legal structure of Deloitte LLP and its subsidiaries.

All qualified applicants will receive consideration for employment without regard to race, color, religion, sex, sexual orientation, gender identity, national origin, age, disability or protected veteran status, or any other legally protected basis, in accordance with applicable law."
1,Statistician (Health),"Atlanta, GA 30305",Atlanta,GA,30305,None Found,None Found,None Found,None Found,None Found,None Found,"Department: Department of Health And Human Services
Agency: Centers for Disease Control and Prevention
Job Announcement Number: HHS-CDC-M2-19-10530864
SALARY RANGE: $77382.00 to $128920.00/Per Year
OPEN PERIOD: 2019-07-10 to 2019-12-13
SERIES & GRADE: GS-12/13

AGENCY MARKETING STATEMENT:
The Centers for Disease Control and Prevention (CDC) is the agency Americans trust with their lives. As a global leader in public health, CDC is the nation's premier health promotion, prevention, and preparedness agency. Whether we are protecting the American people from public health threats, researching emerging diseases, or mobilizing public health programs with our domestic and international partners, we rely on our employees to make a real difference in the health and well-being of people here and around the world. This position is located in the Department of Health and Human Services (DHHS), Centers for Disease Control and Prevention (CDC), National Center for Health Statistics (NCHS), in Hyattsville, MD; Atlanta, GA and RTP-Durham, NC. Salaries:
Hyattsville, MD: $83,398 to $128,920 Atlanta, GS: $78,446 to $126,264 RTP/Durham, NC: $77,382 to $119,619 CDC is an Equal Opportunity Employer.

JOB SUMMARY:
Incumbent plans and conducts multiple research studies focused on the causes, incidence and cost of accidents, disease and disabling illness. Studies are designed for the purpose of identifying, analyzing, and reporting on emerging public health issues and problems.

DUTIES:
[
""As a Statistician (Health) at the full performance level you will: Identify specific statistical research areas that merit investigation, develop new hypotheses and approaches for studies, and evaluate the feasibility of such endeavors. Conduct research and statistical studies or projects related to statistical computation in the preparation of public health programs. Develop guidelines and provide interpretations of statistical policies that conform to HHS requirements. Collaborate with other scientists on aspects of study design, analysis, and interpretation. Provide technical advice to peers and senior managers within and outside of organization on statistical methods and techniques. May serve as a project leader, assuming responsibility for the development of project planning, coordination of overall team efforts, and maintaining appropriate lines of communication. Evaluate new statistical procedures and software and adapts them if necessary. Develop and implement methods and procedures for the collection, processing, compilation, editing and analysis of statistical data. Perform other duties as assigned."" ]

REQUIREMENTS:
US Citizenship is required. Background Investigation is required. E-Verify: If you are selected for this position, the documentation that you present for purposes of completing the Department of Homeland Security (DHS) Form I-9 will be verified through the DHS ""E-Verify"" System. Federal law requires DHS to use the E-Verify System to verify employment eligibility of all new hires, and as a condition of continued employment obligates the new hire to take affirmative steps to resolve any discrepancies identified by the system. The U.S. Department of Health and Human Services is an E-Verify Participant. Direct Deposit: All Federal employees are required to have Federal salary payments made by direct deposit to a financial institution of their choosing. One-year probationary period may be required. Travel, transportation, and moving expenses will be paid: No Bargaining Unit Position: Yes Drug Screening Required: No Recruitment Incentive may be authorized: No Annual Leave for non-federal service may be authorized: No Research position: No Promotion potential: Yes. This position has promotion potential to GS-13. Promotion to the next grade level is at management's discretion and is based on your meeting qualifications and time-in-grade requirements, demonstrated ability to perform the higher level duties, the continuing need for the higher level duties, and administrative approval. Promotion to the next grade level is not guaranteed and no promise of promotion is implied. Supervisory position: No Time in grade (TIG) must be met. Current or Former Political Appointees: Agencies must seek prior approval from the Office of Personnel Management (OPM) before they can appoint a current or recent political appointee to a competitive or non-political excepted service position at any level under the provisions of title 5, United States Code. If you are currently, or have been within the last 5 years, a political Schedule A, Schedule C, or Non-career SES employee in the executive branch, you MUST disclose that to the Human Resources Office. Failure to disclose this information could result in disciplinary action including removal from Federal Service. Current or Former Political Appointees: Submit SF-50. All qualification requirements must be met by the closing date of the announcement. Position Sensitivity: 1-Nonsensitive to 5-Public Trust/Moderate based on work assignment.

QUALIFICATIONS REQUIRED:
BASIC QUALIFICATION:A. Applicants must have successfully completed a full four-year course of study at an accredited college or university leading to a bachelor's or higher degree that includes 15 semester hours in statistics (or in math and statistics, provided at least 6 semester hours were in statistics), and 9 additional semester hours in one or more of the following: physical/biological sciences, medicine, education, or engineering; or in the social sciences including demography, history, economics, social welfare, geography, international relations, social or cultural anthropology, health sociology, political science, public administration, psychology, etc.
-OR- B. Have a combination of education and experience - courses as described in ""A"" above, plus appropriate experience or additional education. The experience should have included a full range of professional statistical work such as (a) sampling, (b) collecting, computing, and analyzing statistical data, and (c) applying statistical techniques such as measurement of central tendency, dispersion, skewness, sampling error, simple and multiple correlation, analysis of variance, and tests of significance. In addition to meeting the basic qualifications requirement, applicants must meet the specialized experience as stated below. ADDITIONAL REQUIREMENT: Applicants must have at least one year of specialized experience at or equivalent to the GS-11 in the Federal service as defined in the next paragraph. Specialized Experience: Specialized experience is experience which is directly related to the position which has equipped the applicant with the particular knowledge, skills and abilities (KSAs) to successfully perform the duties of the position to include experience planning and conducting data collections such as surveys; planning, producing and documenting analytic data files; conducting data quality evaluations and documenting the results of these evaluations; and/or designing and conducting statistical analyses of population, clinical, health, or administrative data related to health topics for publication. ADDITIONAL REQUIREMENT: Applicants must have at least one year of specialized experience at or equivalent to the GS-12 in the Federal service as defined in the next paragraph. Specialized Experience: Specialized experience is experience which is directly related to the position which has equipped the applicant with the particular knowledge, skills and abilities (KSAs) to successfully perform the duties of the position to include experience planning and conducting Complex data collections involving surveys and/or other data sources; planning, producing or evaluating analytic data files; conducting In-depth data quality evaluations and documenting the results of the evaluations; and/or designing and conducting complex statistical and research analyses using scientific data from national surveys and/or other data systems for the purpose of identifying, analyzing, and reporting on health topics and preparing comprehensive reports from the results of these analyses.

HOW YOU WILL BE EVALUATED:
Once the application process is complete, a review of resume and supporting documentation will be made and compared against your responses to the assessment questionnaire to determine if you are qualified for this job. If, after reviewing your resume and or supporting documentation, a determination is made that you have inflated your qualifications and or experience, you may lose consideration for this position. Please follow all instructions carefully. Errors or omissions may affect your eligibility.

BENEFITS:

OTHER INFORMATION:
This vacancy is also being announced concurrently with vacancy announcement HHS-CDC-DH-19-10530863 under competitive procedures. Please review that announcement to see if you are eligible for consideration under competitive procedures. NOTE: Applicants must apply separately for each announcement in order to be considered. PHS Commissioned Corps Officers interested in performing the duties of this position within the Commissioned Corps may apply through this announcement. Candidates will be referred as Commissioned Corps personnel and not as candidates for conversion to a permanent career or career-conditional appointment. This job opportunity announcement has a first cut-off date of 7/31/2019. Applications received by 11:59 PM Eastern Standard Time (EST) on the cut-off date of 7/31/2019 will receive first consideration for this vacancy. Candidates who apply after may be referred on a periodic basis depending on staffing needs. Additional selections may be made within the same geographical location CDC-wide. If you are a veteran with preference eligibility and you are claiming 5-points veterans' preference, you must submit a copy of your DD-214 or other proof of eligibility. If you are claiming 10-point veterans' preference, you must also submit an SF-15, ""Application for 10-Point Veterans' Preference"" plus the proof required by that form. For more information on veterans' preference see http://www.usajobs.gov/Veterans Males born after December 31, 1959 must be registered or exempt from Selective Service, www.sss.gov. For information on ""People with Disabilities"" please visit http://opm.gov/disability/PeopleWithDisabilities.asp Interagency Career Transition Assistance Program (ICTAP): For information on how to apply as an ICTAP eligible see http://opm.gov/rif/employee_guides/career_transition.asp#ictap. To be well-qualified and exercise selection priority for this vacancy, displaced Federal employees must be rated at 85.0 or above on the rating criteria for this position. To view the questionnaire, click on the following link: https://apply.usastaffing.gov/ViewQuestionnaire/10530864 If you are unable to apply online or need to fax a document(s), view the following link for information regarding an Alternate Application.

HOW TO APPLY:

To apply for this position, you must complete the online application and submit the documentation specified in the Required Documents section below. A complete application package must be submitted by 11:59 PM (EST) on 12/13/2019 of this announcement to receive consideration.
To begin, click Apply to access the online application. You will need to be logged into your USAJOBS account to apply. If you do not have a USAJOBS account, you will need to create one before beginning the application. Follow the prompts to select your résumé and/or other supporting documents to be included with your application package. You will have the opportunity to upload additional documents to include in your application before it is submitted. Your uploaded documents may take several hours to clear the virus scan process. After acknowledging you have reviewed your application package, complete the Include Personal Information section as you deem appropriate and click to continue with the application process. You will be taken to the online application which you must complete in order to apply for the position. Complete the online application, verify the required documentation is included with your application package, and submit the application.To verify the status of your application, log into your USAJOBS account (https://my.usajobs.gov/Account/Login), all of your applications will appear on the Welcome screen. The Application Status will appear along with the date your application was last updated. For information on what each Application Status means, visit: https://www.usajobs.gov/Help/how-to/application/status/. If you cannot apply online: You are encouraged to apply online. If you are unable to apply online, please use the Alternate Application link listed in the Additional Information section of this vacancy announcement. Applicants are strongly encouraged to apply online if at all possible. Applying online, through your USAJOBS account, will expedite the application process and allow you to check your application. If you utilize the Alternate Application method, your USAJOBS account will not display this application and you will not receive status updates.

REQUIRED DOCUMENTS:
To apply for this position, you must submit a complete Application Package which includes: Your résumé showing work schedule, hours worked per week, dates of employment and duties performed. Other supporting documents: Cover Letter, optional Veterans Preference Documentation, if applicable SF-50 (if you are a federal employee or have reinstatement rights as a federal employee) Transcripts* Schedule A Eligibility Letter, if you are applying as a Schedule A candidate Career Transition Assistance Program documentation, if applicable (e.g., Certification of Expected Separation, Reduction-In-Force Separation Notice, or Notice of Proposed Removal; SF-50 that documents the RIF separation action; and most recent performance appraisal). *Note: You may submit an unofficial transcript or a list of college courses completed indicating course titles, credit hours, and grades received. An official transcript from an accredited educational institution is required if you are selected for the position. Failure to submit any of the above mentioned required documents may result in loss of consideration due to an incomplete application package. It is your responsibility to ensure all required documents have been submitted. For Résumé and Application Tips visit: https://help.usajobs.gov/index.php/Tips.

WHAT TO EXPECT NEXT:
Once the online questionnaire is received you will receive an acknowledgement email that your submission was successful. The most highly qualified candidates will be referred to the hiring manager for further consideration and possible interview. We expect to make a selection within 45 days of the closing date of this announcement. You will receive notice via email once this process is completed (generally 4-6 weeks).

AGENCY CONTACT INFO:
CDC HELPDESK
1600 Clifton Road NE
Atlanta GA US 30333
Telephone: (770) 488-1725
Email: HRCS@CDC.GOV"
2,Senior Loyalty Statistician (Data Analytics),"Atlanta, GA 30346",Atlanta,GA,30346,None Found,None Found,"
Demonstrated programming experience with statistical and database software (SQL and Tableau required, SAS preferred). Exposure to Alteryx, R or Python a plus.
Demonstrated strategic agility and problem solving abilities using a hypothesis led approach.
Experience conducting complex analysis by aggregating large data sets from multiple sources to deliver insights on business/program performance and/or opportunities
Experience developing dynamic models or dashboards in Tableau and MS Excel
Experience conducting quantitative analyses including some or all of the following: market segmentation, product positioning, product pricing, concept testing or market sizing.
Strong communication skills, both oral and written, and proficiency with MS Word and PowerPoint for the purpose of translating technical and statistical information into actionable business insights for senior management.
Familiarity with financial concepts preferred: ROI, NPV, pro forma modeling.
Demonstrated critical thinking abilities and curiosity to find the underlying causes/drivers of performance
Self-motived with ability to manage multiple projects and priorities","Thoroughly investigates ways in which business questions can be answered by diligently and precisely overseeing consumer insights / analytics work
Consults with Loyalty functional experts to establish analytical support objectives.
Coordinates with Market Research and Analytics teams to establish proactive analytic programs and projects to derive consumer insights and formulate business recommendations.
Creates complex statistical models of member behavior and program costs to support development of optimal structures for the loyalty program, reward night reimbursements, partnerships, etc.
Designs complex performance tracking methods for loyalty programs and translate insights into action.
Supports creation of powerful presentations of points of view to upper management
Collaborate with the broader analytics team to leverage best practices and deliver efficiencies
Make recommendations for enhancements to the loyalty database from an information needs perspective including internal and external data sources.
May lead and review the work of less experienced staff by providing mentoring, technical guidance and training in daily activities.","
Demonstrated programming experience with statistical and database software (SQL and Tableau required, SAS preferred). Exposure to Alteryx, R or Python a plus.
Demonstrated strategic agility and problem solving abilities using a hypothesis led approach.
Experience conducting complex analysis by aggregating large data sets from multiple sources to deliver insights on business/program performance and/or opportunities
Experience developing dynamic models or dashboards in Tableau and MS Excel
Experience conducting quantitative analyses including some or all of the following: market segmentation, product positioning, product pricing, concept testing or market sizing.
Strong communication skills, both oral and written, and proficiency with MS Word and PowerPoint for the purpose of translating technical and statistical information into actionable business insights for senior management.
Familiarity with financial concepts preferred: ROI, NPV, pro forma modeling.
Demonstrated critical thinking abilities and curiosity to find the underlying causes/drivers of performance
Self-motived with ability to manage multiple projects and priorities",None Found,"Description
About us
Bringing True Hospitality to the world.
We want to welcome you to a world of bringing True Hospitality to everyone. When you join us at IHG®, you become part of our global family. A welcoming culture of warmth, honesty, and a passion for providing True Hospitality.
We pride ourselves on letting your personality and passions shine, recognizing the individual contribution you make and supporting your ambition to learn and create your own career path. In making a difference to our guests and owners, colleagues and communities, every day is a chance to create great and unique experiences, in your own way.
With over 370,000 colleagues in nearly 100 countries sharing our values, there’s countless opportunities at your fingertips.
We’re growing; grow with us as a Senior Loyalty Statistician (Data Analytics)

Your day to day
Provide analytical support and strategic insights to Loyalty and Partnership team. Create solid recommendations on Loyalty program economics through the modeling of customer stay behavior, program costs and competitive structures. Interpret and explain technical findings to business stakeholders in practical non-technical language, and consistently follow up to ensure that business decisions are based on those findings moving forward. Work well independently, as part of a global team with many differing regions, and as a strong leader and motivator of an insights-oriented team.
Essential Duties and Responsibilities
Thoroughly investigates ways in which business questions can be answered by diligently and precisely overseeing consumer insights / analytics work
Consults with Loyalty functional experts to establish analytical support objectives.
Coordinates with Market Research and Analytics teams to establish proactive analytic programs and projects to derive consumer insights and formulate business recommendations.
Creates complex statistical models of member behavior and program costs to support development of optimal structures for the loyalty program, reward night reimbursements, partnerships, etc.
Designs complex performance tracking methods for loyalty programs and translate insights into action.
Supports creation of powerful presentations of points of view to upper management
Collaborate with the broader analytics team to leverage best practices and deliver efficiencies
Make recommendations for enhancements to the loyalty database from an information needs perspective including internal and external data sources.
May lead and review the work of less experienced staff by providing mentoring, technical guidance and training in daily activities.

What you need to bring
Education
Bachelors or Master’s degree in business, economics, or statistics, or an equivalent combination of education and work related experience.
Experience

The ideal candidate will have 8+ years progressive work experience, with emphasis on business or loyalty program analysis.
Technical Skills and Knowledge
Demonstrated programming experience with statistical and database software (SQL and Tableau required, SAS preferred). Exposure to Alteryx, R or Python a plus.
Demonstrated strategic agility and problem solving abilities using a hypothesis led approach.
Experience conducting complex analysis by aggregating large data sets from multiple sources to deliver insights on business/program performance and/or opportunities
Experience developing dynamic models or dashboards in Tableau and MS Excel
Experience conducting quantitative analyses including some or all of the following: market segmentation, product positioning, product pricing, concept testing or market sizing.
Strong communication skills, both oral and written, and proficiency with MS Word and PowerPoint for the purpose of translating technical and statistical information into actionable business insights for senior management.
Familiarity with financial concepts preferred: ROI, NPV, pro forma modeling.
Demonstrated critical thinking abilities and curiosity to find the underlying causes/drivers of performance
Self-motived with ability to manage multiple projects and priorities

What we offer
We’ll reward all your hard work with a great salary and benefits – including great room discount and superb training.
Join us and you’ll become part of the global IHG family – and like all families, all our individual team members share some winning characteristics. As a team, we work better together – we trust and support each other, we do the right thing and we welcome different perspectives. You need to show us you care, that you notice the little things that make a difference to guests as well as always looking for ways to improve - click here to find out more about us.
IHG is an equal opportunity employer. Minorities/Females/Disabled/Veterans"
3,Epidemiologist/Statistical Programmer,"Atlanta, GA 30330",Atlanta,GA,30330,None Found,None Found,None Found,None Found,None Found,None Found,"Description
Job Description:
Leidos is hiring to fulfill the National Center for Immunization and Respiratory Diseases requirement for a self-motivated and detail-oriented epidemiologist/statistical programmer to produce estimates in real time for influenza vaccination coverage in the United States, by state, age groups, risk groups and race/ethnicities and create interactive online reports and maintain web content. In addition, tasks will include ad hoc analyses of survey data, analyses to support programmatic activities, and preparation of research papers or reports for publication and presentation.
This project requires strong epidemiological, statistical, and SAS programming expertise, experience using SUDAAN, and experience with web applications and website management.

This task requires 1) understanding and application of general statistical approaches including multivariate techniques (logistic regression, generalized linear models, proportional hazards modeling), and use of Kaplan-Meier survival analysis; 2) strong SAS programming skills; 3) orderly management of microcomputer files in a Windows environment to develop databases and analysis programs for data analysis; 4) statistical analysis of large, complex survey data requiring the use of SUDAAN; 5) developing statistical reports and presenting data in Excel, particularly the ability to efficiently produce large complex Excel tables efficiently and reports from SAS in customized formats to fit the needs of periodic reports; 6) using PROC REPORT and other report production features of SAS to produce excel files of influenza vaccination coverage estimates; 7) importing, exporting, and manipulating data files (SAS, SUDAAN), including recoding, transforming, and creating variables to accommodate analytic needs; 8) using web applications to create interactive online reports and manage web content; 9) preparing written reports and presenting at sectional or national meetings; and 10) performing other analytical and data related duties, as needed.

Education: MS, MPH, MSPH in Epidemiology, Statistics, Biostatistics, or Math

Required Skills: applicants must have 3-5 years of statistical programming experience using SAS and SUDAAN with complex survey data, including SAS macro programming and design of data management systems for error checking and SAS report writing *Technical experience with data management, dataset creation, data analysis and report generation. * Experience with BRFSS data, or similar large data set, longitudinal data analysis, and large public health datasets. * Experience in survey methods and survey design. * Experience developing analysis plans and statistical reports. *Must be able to work independently, with minimal direction. * Excellent spoken and written communication skills in English.

Desired Skills: Prior experience with the analysis of influenza and public health epidemiologic data

External Referral Bonus:
Eligible
Potential for Telework:
Yes
Clearance Level Required:
NACI
Travel:
No
Scheduled Weekly Hours:
40
Shift:
Day
Requisition Category:
Professional
Job Family:
Statistician
Leidos is a Fortune 500® information technology, engineering, and science solutions and services leader working to solve the world's toughest challenges in the defense, intelligence, homeland security, civil, and health markets. The company's 33,000 employees support vital missions for government and commercial customers. Headquartered in Reston, Virginia, Leidos reported annual revenues of approximately $10.19 billion for the fiscal year ended December 28, 2018. For more information, visit www.Leidos.com.
Pay and benefits are fundamental to any career decision. That's why we craft compensation packages that reflect the importance of the work we do for our customers. Employment benefits include competitive compensation, Health and Wellness programs, Income Protection, Paid Leave and Retirement. More details are available here.
Leidos will never ask you to provide payment-related information at any part of the employment application process. And Leidos will communicate with you only through emails that are sent from a Leidos.com email address. If you receive an email purporting to be from Leidos that asks for payment-related information or any other personal information, please report the email to spam.leidos@leidos.com.
All qualified applicants will receive consideration for employment without regard to sex, race, ethnicity, age, national origin, citizenship, religion, physical or mental disability, medical condition, genetic information, pregnancy, family structure, marital status, ancestry, domestic partner status, sexual orientation, gender identity or expression, veteran or military status, or any other basis prohibited by law. Leidos will also consider for employment qualified applicants with criminal histories consistent with relevant laws."
4,Biostatistician,"Atlanta, GA",Atlanta,GA,None Found,None Found,None Found,None Found,None Found,None Found,None Found,"Description

Seeking a highly motivated statistician with significant experience in biostatistics and bioinformatics to join an interdisciplinary collaborative research group of highly successful investigators that span psychiatry, neurology, biostatistics, bioinformatics, genetics, biochemistry, and neuroscience.
The candidate will work on NIH-funded and other projects analyzing longitudinal/time-series data and multi-omics data (transcriptomic, epigenetic, and proteomic data) to uncover new insights into Alzheimer’s disease and psychological well-being. The candidate will help prepare scientific manuscripts under the direction of the Principal Investigators and other tasks not limited to:

Develops and analyzes a variety of research data using statistical methods.
Assists researchers in developing appropriate study protocols and computer analyses.
Manages computer systems, writes programs, and trains others in the use of systems.
Provides statistical expertise in the areas of study design and data analysis to investigators/researchers interested in conducting clinical or experimental studies.
Works effectively within a group setting in areas of design of data collection instruments, study design, database management, statistical programming, analysis of data, statistical graphics, and writing of reports which include explanations of methods used and interpretation of results obtained.
Consults with investigators to determine questions of interest and data needed to address those questions.
Determines and carries out appropriate statistical analyses.
Interprets and presents data descriptions and analysis results including the explanation of statistical techniques used, the assumptions made and the generalization of results.
Documents methods and results through preparation of interdepartmental memoranda and reports.
Performs related responsibilities as assigned.

MINIMUM QUALIFICATIONS:

A bachelor's degree in statistics, biostatistics, computer science, or a related field and two years related experience, OR an equivalent combination of education, training, and/or experience.

PEREFERRED QUALIFICATIONS:

A master's degree in statistics, biostatistics, bioinformatics, or a related field
Demonstrable experience analyzing longitudinal data and genomic data.
Proficiency in using R or SAS.
Excellent scientific writing ability and oral presentation skills.
Ability to work effectively and collegially with colleagues.
Experience using git version control.
Experience using Amazon web services for distributed computing or a local computing cluster
Additional Details"
5,Fellowship in Lower Anogenital Screening & Treatment,"Atlanta, GA",Atlanta,GA,None Found,None Found,None Found,None Found,None Found,None Found,None Found,"Description
The Emory University School of Medicine, Department of Gynecology and Obstetrics, Division of Gynecologic Specialties is seeking applicants for a newly developed 1-year fellowship in Lower Anogenital Screening & Treatment. The fellowship is accepting applications for its third fellow, to begin in July 2020.
This new program is designed to provide in-depth training to obstetrician-gynecologists in colposcopy and anoscopy techniques for female and male patients. Fellows will be trained in colposcopy and high-resolution anoscopy by experienced, credentialed faculty. Fellows will develop skills in the evaluation and treatment of cervical and anal dysplasia, as well as other complex conditions affecting the lower female genital tract.
The fellow will have an appointment at the Associate level, will receive clinical and surgical training, and will provide inpatient (including Labor and Delivery) and outpatient services. The fellow will participate in patient care at Emory University Hospitals, Clinics, Grady Memorial Hospital, and other affiliated sites. Fellows will attend didactics and weekly Grand Rounds, and they will actively participate in teaching residents and medical students.
The fellow is expected to be engaged in their own active research project, which will culminate in a presentation during the Department’s Resident and Fellow Research Day at the end of the year. Twenty percent of the fellowship will be dedicated to research time with ample opportunity for mentorship. The fellow will also have access to a team of researchers and a statistician to assist with their research project. If interested, the fellow can enroll in public health courses at the Rollins School of Public Health as part of the fellowship. Through the Georgia Clinical & Translational Science Alliance, Emory also offers an NIH-supported Clinical and Translational Science Award that the fellow can apply to and receive their Master of Science in Clinical Research.
The fellow will have the opportunity to be involved in international outreach and education around cervical cancer in Latin America. Specifically, they will be engaged in a cervical cancer screening program in a rural setting in Latin America early in the fellowship, followed by anal cancer screening program via high resolution anoscopy in the Caribbean or Latin American. The fellow will be expected to attend the High Resolution Anoscopy Course in order to become HRA certified. The fellow will be able to present at several meetings including ASCCP, International Anal Neoplasia Society (IANS), International Papillomavirus Conference, ACOG, and/or SGO. Finally, the fellow will have the opportunity to participate in clinical trials, specifically the Anal Cancer/HSIL Outcomes Research (ANCHOR), Women’s Interagency HIV Study (WIHS), and Multicenter AIDS Cohort Study (MACS) protocols.
Interested candidates must be eligible for medical licensure in the State of Georgia and be board eligible/board certified in Obstetrics and Gynecology. Salary and benefits are competitive at the appropriate PGY level.
For consideration, applicants must submit an online application at the Emory University Career Website. This application should include a CV, cover letter, and the names of three professional references. Follow this link to apply:
For more information, email Program Coordinator Kinsey McMurtry at Kinsey.mcmurtry@emory.edu"
6,Statistician (Health) (Direct Hire),"Atlanta, GA 30305",Atlanta,GA,30305,None Found,None Found,None Found,None Found,None Found,None Found,"Department: Department of Health And Human Services
Agency: Centers for Disease Control and Prevention
Job Announcement Number: HHS-CDC-DH-19-10530863
SALARY RANGE: $77382.00 to $128920.00/Per Year
OPEN PERIOD: 2019-07-10 to 2019-12-13
SERIES & GRADE: GS-12/13

AGENCY MARKETING STATEMENT:
The Centers for Disease Control and Prevention (CDC) is the agency Americans trust with their lives. As a global leader in public health, CDC is the nation's premier health promotion, prevention, and preparedness agency. Whether we are protecting the American people from public health threats, researching emerging diseases, or mobilizing public health programs with our domestic and international partners, we rely on our employees to make a real difference in the health and well-being of people here and around the world. These positions are located in the Department of Health and Human Services (DHHS), Centers for Disease Control and Prevention (CDC), National Center for Health Statistics (NCHS), in Hyattsville, MD; Atlanta, GA and RTP-Durham, NC. Salaries:
Hyattsville, MD: $83,398 to $128,920 Atlanta, GS: $78,446 to $121,264 RTP/Durham, NC: $77,382 to $119,619 CDC is an Equal Opportunity Employer.

JOB SUMMARY:
Incumbent plans and conducts multiple research studies focused on the causes, incidence and cost of accidents, disease and disabling illness. Studies are designed for the purpose of identifying, analyzing, and reporting on emerging public health issues and problems.

DUTIES:
[
""As a Statistician (Health) (Direct Hire), at the full performance level, you will: Identify specific statistical research areas that merit investigation, develop new hypotheses and approaches for studies, and evaluate the feasibility of such endeavors. Conduct research and statistical studies or projects related to statistical computation in the preparation of public health programs. Develop guidelines and provide interpretations of statistical policies that conform to HHS requirements. Collaborate with other scientists on aspects of study design, analysis, and interpretation. Provide technical advice to peers and senior managers within and outside of organization on statistical methods and techniques. May serve as a project leader, assuming responsibility for the development of project planning, coordination of overall team efforts, and maintaining appropriate lines of communication. Evaluate new statistical procedures and software and adapts them if necessary. Develop and implement methods and procedures for the collection, processing, compilation, editing and analysis of statistical data. Perform other duties as assigned."" ]

REQUIREMENTS:
US Citizenship is required. Background Investigation is required. E-Verify: If you are selected for this position, the documentation that you present for purposes of completing the Department of Homeland Security (DHS) Form I-9 will be verified through the DHS ""E-Verify"" System. Federal law requires DHS to use the E-Verify System to verify employment eligibility of all new hires, and as a condition of continued employment obligates the new hire to take affirmative steps to resolve any discrepancies identified by the system. The U.S. Department of Health and Human Services is an E-Verify Participant. Direct Deposit: All Federal employees are required to have Federal salary payments made by direct deposit to a financial institution of their choosing. All qualification requirements must be met by the closing date of the announcement. One-year probationary period may be required. Travel, transportation, and moving expenses will be paid: No Bargaining Unit Position: Yes Drug Screening Required: No Recruitment Incentive may be authorized: No Annual Leave for non-federal service may be authorized: No Research position: No Promotion potential: Yes. This position has promotion potential to GS-13. Promotion to the next grade level is at management's discretion and is based on your meeting qualifications and time-in-grade requirements, demonstrated ability to perform the higher level duties, the continuing need for the higher level duties, and administrative approval. Promotion to the next grade level is not guaranteed and no promise of promotion is implied. Supervisory position: No Position Sensitivity: Nonsensitive to 5-Public Trust/Moderate based on work assignment.

QUALIFICATIONS REQUIRED:
BASIC QUALIFICATION:A. Applicants must have successfully completed a full four-year course of study at an accredited college or university leading to a bachelor's or higher degree that includes 15 semester hours in statistics (or in math and statistics, provided at least 6 semester hours were in statistics), and 9 additional semester hours in one or more of the following: physical/biological sciences, medicine, education, or engineering; or in the social sciences including demography, history, economics, social welfare, geography, international relations, social or cultural anthropology, health sociology, political science, public administration, psychology, etc.
-OR- B. Have a combination of education and experience - courses as described in ""A"" above, plus appropriate experience or additional education. The experience should have included a full range of professional statistical work such as (a) sampling, (b) collecting, computing, and analyzing statistical data, and (c) applying statistical techniques such as measurement of central tendency, dispersion, skewness, sampling error, simple and multiple correlation, analysis of variance, and tests of significance. In addition to meeting the basic qualifications requirement, applicants must meet the specialized experience as stated below. ADDITIONAL REQUIREMENT: Applicants must have at least one year of specialized experience at or equivalent to the GS-11 in the Federal service as defined in the next paragraph. Specialized Experience: Specialized experience is experience which is directly related to the position which has equipped the applicant with the particular knowledge, skills and abilities (KSAs) to successfully perform the duties of the position to include experience planning and conducting data collections such as surveys; planning, producing and documenting analytic data files; conducting data quality evaluations and documenting the results of these evaluations; and/or designing and conducting statistical analyses of population, clinical, health, or administrative data related to health topics for publication. ADDITIONAL REQUIREMENT: Applicants must have at least one year of specialized experience at or equivalent to the GS-12 in the Federal service as defined in the next paragraph. Specialized Experience: Specialized experience is experience which is directly related to the position which has equipped the applicant with the particular knowledge, skills and abilities (KSAs) to successfully perform the duties of the position to include experience planning and conducting Complex data collections involving surveys and/or other data sources; planning, producing or evaluating analytic data files; conducting In-depth data quality evaluations and documenting the results of the evaluations; and/or designing and conducting complex statistical and research analyses using scientific data from national surveys and/or other data systems for the purpose of identifying, analyzing, and reporting on health topics and preparing comprehensive reports from the results of these analyses.

HOW YOU WILL BE EVALUATED:
Once the application process is complete, a review of the resume and supporting documentation will be made and compared against your responses to the assessment questionnaire to determine if you are qualified for this job. If, after reviewing your resume and/or supporting documentation, a determination is made that you have inflated your qualifications and/or experience, you may lose consideration for this position. Please follow all instructions carefully. Errors or omissions may affect your eligibility.

BENEFITS:

OTHER INFORMATION:
These positions are being filled through Direct Hire Authority for this occupation and are open to all US Citizens. Vacancies will be filled through OPM's Direct Hire Authority. Veterans' preference and traditional rating and ranking of applicants do not apply to positions filled under this announcement. All applicants who meet the minimum qualification requirements will be forwarded to the selecting official for consideration. Applications received as a result of job fairs, recruitment events, and emergency hiring mechanisms in support of this hiring initiative will also be accepted during the duration of the direct-hire authority. However, applicants are strongly encouraged to apply through USAJOBS. For more information on OPM's authorization of Direct Hire Authority, please visit: https://www.opm.gov/policy-data-oversight/hiring-information/direct-hire-authority/ This job opportunity announcement has a first cut-off date of 7/31/2019. Applications received by 11:59 PM Eastern Standard Time (EST) on the cut-off date of 7/31/2019 will receive first consideration for this vacancy. Candidates who apply after may be referred on a periodic basis depending on staffing needs. Additional selections may be made within the same geographical location CDC-wide. This vacancy is also being announced concurrently with vacancy announcement HHS-CDC-M2-19-10530864 under competitive procedures. Please review that announcement to see if you are eligible for consideration under competitive procedures. If you are a veteran with preference eligibility and you are claiming 5-points veterans' preference, you must submit a copy of your DD-214 or other proof of eligibility. If you are claiming 10-point veterans' preference, you must also submit an SF-15, ""Application for 10-Point Veterans' Preference"" plus the proof required by that form. For more information on veterans' preference see http://www.fedshirevets.gov/job/vetpref/index.aspx. Males born after December 31, 1959 must be registered or exempt from Selective Service (see http://www.sss.gov). For information on ""People with Disabilities"" please visit http://opm.gov/disability/PeopleWithDisabilities.asp Interagency Career Transition Assistance Program/ Career Transition Assistance Plan (ICTAP/CTAP): For information on how to apply as an ICTAP/CTAP eligible see http://opm.gov/rif/employee_guides/career_transition.asp#ictap. To be well-qualified and exercise selection priority for this vacancy, displaced Federal employees must be rated at 85.0 or above on the rating criteria for this position. To view the assessment questionnaire, click on the following link:
https://apply.usastaffing.gov/ViewQuestionnaire/10530863 If you are unable to apply online or need to fax a document(s), view the following link for information regarding an alternative application https://help.usastaffing.gov/Apply/index.php?title=Alternate_Application_Information .

HOW TO APPLY:

To apply for this position, you must complete the online application and submit the documentation specified in the Required Documents section.
A complete application package must be submitted by 11:59 PM (EST) on12/13/2019 of this announcement to receive consideration. To begin, click Apply to access the online application. You will need to be logged into your USAJOBS account to apply. If you do not have a USAJOBS account, you will need to create one before beginning the application. Follow the prompts to select your résumé and/or other supporting documents to be included with your application package. You will have the opportunity to upload additional documents to include in your application before it is submitted. Your uploaded documents may take several hours to clear the virus scan process. After acknowledging you have reviewed your application package, complete the Include Personal Information section as you deem appropriate and click to continue with the application process. You will be taken to the online application which you must complete in order to apply for the position. Complete the online application, verify the required documentation is included with your application package, and submit the application. To verify the status of your application, log into your USAJOBS account (https://my.usajobs.gov/Account/Login), all of your applications will appear on the Welcome screen. The Application Status will appear along with the date your application was last updated. For information on what each Application Status means, visit: https://www.usajobs.gov/Help/how-to/application/status/. If you cannot apply online: You are encouraged to apply online. If you are unable to apply online, please use the Alternate Application link listed in the Additional Information section of this vacancy announcement. Applicants are strongly encouraged to apply online if at all possible. Applying online, through your USAJOBS account, will expedite the application process and allow you to check your application. If you utilize the Alternate Application method, your USAJOBS account will not display this application and you will not receive status updates.

REQUIRED DOCUMENTS:
To apply for these positions, you must submit a complete Application Package which includes: Your résumé showing work schedule, hours worked per week, dates of employment and duties performed. Other supporting documents: Cover Letter, optional Veterans Preference Documentation, if applicable Transcripts* Schedule A Eligibility Letter, if you are applying as a Schedule A candidate Career Transition Assistance Program documentation, if applicable (e.g., Certification of Expected Separation, Reduction-In-Force Separation Notice, or Notice of Proposed Removal; SF-50 that documents the RIF separation action; and most recent performance appraisal). *Note: You may submit an unofficial transcript or a list of college courses completed indicating course titles, credit hours, and grades received. An official transcript from an accredited educational institution is required if you are selected for the position. Failure to submit any of the above mentioned required documents may result in loss of consideration due to an incomplete application package. It is your responsibility to ensure all required documents have been submitted. For Résumé and Application Tips visit: https://help.usajobs.gov/index.php/Tips.

WHAT TO EXPECT NEXT:
Once the online questionnaire is received you will receive an acknowledgement email that your submission was successful.

AGENCY CONTACT INFO:
CDC HELPDESK
1600 Clifton Road NE
Atlanta GA US 30333
Telephone: (770) 488-1725
Email: HRCS@CDC.GOV"
7,GIS Public Health Analyst I,"Atlanta, GA 30330",Atlanta,GA,30330,None Found,None Found,None Found,None Found,None Found,None Found,"Description
Job Description:
Leidos has an immediate opening to fulfill the National Center for Immunization and Respiratory Diseases requirement for a self-motivated and detail-oriented GIS Data Analyst I to create interactive online reports and maintain web content for dissemination of influenza and other vaccination coverage in the United States, by state, age groups, risk groups and race/ethnicities.. In addition, tasks will include ad hoc analyses of survey data, analyses to support programmatic activities, and preparation of research papers or reports for publication and presentation.
This project requires experience with web applications, website management, and statistical programming expertise.

This task requires:
1) providing website support, including management of website content and working with CDC website staff to ensure proper implementation of requested website updates
2) providing orderly management of microcomputer files in a Windows environment to develop databases and analysis programs for data analysis
3) importing, exporting, and manipulating data files (SAS, SUDAAN), including recoding, transforming, and creating variables to accommodate analytic needs
4) providing support in developing and disseminating vaccination coverage findings through data visualization and web-based applications
5) using web applications to create interactive online reports
6) providing support in preparing research papers and reports for publication and presentation
7) performing other analytical and data related duties, as needed.

Required Education: BS with 2 years related experience or MS in Public Health, Informatics, Statistics, Math, or related field.

Required Skills: * 2-3 years of experience using ArcView GIS or related software applications. * Website applications, programming and website management. * Systems analysis, development, and implementation using a variety of information technology resources. * Web-based data visualization and information dissemination, such as through a dashboard * Experience with data management, data analysis and report generation. * Must be able to work independently, with minimal direction. * Excellent spoken and written communication skills in English.
Desired Skills: Prior experience with the analysis of public health epidemiologic data; statistical programming experience using SAS.
External Referral Bonus:
Eligible
Potential for Telework:
No
Clearance Level Required:
NACI
Travel:
No
Scheduled Weekly Hours:
40
Shift:
Day
Requisition Category:
Professional
Job Family:
Statistician
Leidos is a Fortune 500® information technology, engineering, and science solutions and services leader working to solve the world's toughest challenges in the defense, intelligence, homeland security, civil, and health markets. The company's 33,000 employees support vital missions for government and commercial customers. Headquartered in Reston, Virginia, Leidos reported annual revenues of approximately $10.19 billion for the fiscal year ended December 28, 2018. For more information, visit www.Leidos.com.
Pay and benefits are fundamental to any career decision. That's why we craft compensation packages that reflect the importance of the work we do for our customers. Employment benefits include competitive compensation, Health and Wellness programs, Income Protection, Paid Leave and Retirement. More details are available here.
Leidos will never ask you to provide payment-related information at any part of the employment application process. And Leidos will communicate with you only through emails that are sent from a Leidos.com email address. If you receive an email purporting to be from Leidos that asks for payment-related information or any other personal information, please report the email to spam.leidos@leidos.com.
All qualified applicants will receive consideration for employment without regard to sex, race, ethnicity, age, national origin, citizenship, religion, physical or mental disability, medical condition, genetic information, pregnancy, family structure, marital status, ancestry, domestic partner status, sexual orientation, gender identity or expression, veteran or military status, or any other basis prohibited by law. Leidos will also consider for employment qualified applicants with criminal histories consistent with relevant laws."
8,Senior Data Scientist,"Atlanta, GA 30309",Atlanta,GA,30309,None Found,None Found,None Found,"Lead statistical analysis and build scorecards for various and complex business problems
Lead the analytical design for complex problem solution, taking input from others
Lead the development projects with multiple statistical deliverables leveraging business and technical expertise
Lead statistician on business or technical domain
Contributes to code repository and improves the coding of others
Able to analyze and prepare complex and new data sources and incorporate into analytical solutions.
Evaluates the technical work of peer statistical analysts guiding them on deliverable quality and accuracy
Communicates results to external stakeholders and mid-level leadership, able to communicate business impact of work",None Found,"5-7 years working in a similar capacity
Bachelor's degree and/or similar work experience
Prior experience in hands on data and analytics is required. Experience in banking analytics is desired.","The Senior Data Scientist responsibilities include the design, management and delivery of analytical insights and solutions through data analysis and data science. Primary activities include delivering technical, business strategic expertise and ensuring proper governance of data sources, models, attributes and analytic platforms. Accountable for the data and insights strategy and its execution for the company. Providing thought leadership both internally and externally regarding the use and application of data and analytics for competitive advantage.
Job Responsibilities:
Lead statistical analysis and build scorecards for various and complex business problems
Lead the analytical design for complex problem solution, taking input from others
Lead the development projects with multiple statistical deliverables leveraging business and technical expertise
Lead statistician on business or technical domain
Contributes to code repository and improves the coding of others
Able to analyze and prepare complex and new data sources and incorporate into analytical solutions.
Evaluates the technical work of peer statistical analysts guiding them on deliverable quality and accuracy
Communicates results to external stakeholders and mid-level leadership, able to communicate business impact of work
Requirements:
5-7 years working in a similar capacity
Bachelor's degree and/or similar work experience
Prior experience in hands on data and analytics is required. Experience in banking analytics is desired.
#LI-CH1
Primary Location:
USA-Atlanta-One-Atlantic-Center
USA-Atlanta JV White
Function:
Function - Data and Analytics
Schedule:
Full time"
9,Senior Statistician,"Atlanta, GA",Atlanta,GA,None Found,None Found,None Found,None Found,None Found,None Found,None Found,"The Analytic Consulting Group partners with both internal and external clients, and data providers, leveraging predictive analytics and advanced statistical techniques to drive strategic thought and effective decision making. The Senior Statistician is responsible for applying and interpreting various statistical and data analysis techniques in support of a variety of analytic solutions.

Responsibilities:
Provide quality, statistically valid analysis and related outputEmploy and interpret appropriate data analysis techniques and statistical methodologies such as regression analysis (both linear and non-linear), cluster analysis, CHAID, factor analysis/principal component analysis, time series, survival models, experimental designs using SAS and other statistical software independentlyTake a proactive role in analysis design and executionAppropriately account for the timeliness and quality of all assignmentsCollaborate with cross-functional internal resourcesQA/QC data and analysis output to ensure accuracyManage multiple projects concurrentlyMonitor project progress relative to timeline and scopePresent statistical results to both technical and non-technical audience in a clear manner
Minimum Qualifications:
Bachelor’s degree in a quantitative discipline (e.g., statistics, economics, mathematics, marketing analytics) or significant relevant coursework preferredMinimum of 4 years of related experience.Proficiency with various statistical methodologies such as regression analysis (both linear and non-linear), cluster analysis, CHAID, factor analysis/principal component analysis, time series, survival models, experimental designs using SAS and other statistical softwareDemonstrated proficiency in SAS/SQL programmingProficiency in MS Office; including PowerPoint, Word, Excel and OutlookFamiliarity and basic knowledge of open source statistical programs like R, Python and KNimeStrong analytic thought process and ability to interpret findingsAbility to work on multiple assignments concurrentlyExcellent verbal and written communication skillsHighly motivated and collaborative team player with strong interpersonal skillsAcute attention to detail (QA/QC)Effective organization and time management skillsProfessional judgment
Desirable Qualifications:

Advanced degree (Master’s/PhD) in Statistics, Economics or other quantitative discipline preferredDatabase marketing experience/knowledgeWorking knowledge of Hadoop and other big data technologies


Conditions of Employment
All job offers are contingent upon successful completion of certain background checks which unless prohibited by applicable law may include criminal history checks, employment verification, education verification, drug screens, credit checks, DMV checks (for driving positions only) and fingerprinting.

Great People, Deserve Great Benefits
We know that we have some of the brightest and most talented associates in the world, and we believe in rewarding them accordingly. If you work here, expect competitive pay, comprehensive health coverage, and endless opportunities to advance your career.

About Epsilon
Epsilon® is an all-encompassing global marketing innovator. We provide unrivaled data intelligence and customer insights, world-class technology including loyalty, email and CRM platforms and data-driven creative, activation and execution. Epsilon’s digital media arm, Conversant, is a leader in personalized digital advertising and insights through its proprietary technology and trove of consumer marketing data, delivering digital marketing with unprecedented scale, accuracy and reach through personalized media programs. Together, we bring personalized marketing to consumers across offline and online channels, at moments of interest that help drive business growth for brands. Epsilon employs over 8,000 associates in 70 offices worldwide. For more information, visit www.epsilon.com and follow us on Twitter @EpsilonMktg.

Epsilon provides equal employment opportunities without regard to race, color, religion, gender, age, national origin, disability, sexual orientation, gender identity, veteran status or any other characteristic protected by law.
Epsilon is an Equal Opportunity Employer. Epsilon participates in E-Verify.
Epsilon will provide accommodations to applicants needing accommodations to complete the application process.
Any applicant offered employment will be required to establish that they are legally authorized to work in the United States for Epsilon.

Epsilon will consider for employment qualified applicants with criminal and credit histories in a manner consistent with the requirements of all applicable laws, including the City of Los Angeles’ Fair Chance Initiative for Hiring Ordinance.

For San Francisco Bay Area:
Epsilon will consider for employment-qualified applicants with criminal histories in a manner consistent with the requirements of San Francisco Police Code Sections 4901 - 4919, commonly referred to as the San Francisco Fair Chance Ordinance.

#LI-AN1


Primary Location: USA - United States-3085 - Georgia-50070 - Atlanta-D3-Atlanta, GA - Concourse
Work Locations: D3-Atlanta, GA - Concourse Atlanta 30328
Job: Consulting & Analytics
Organization: Epsilon
Schedule: Regular
Job Type: Full-time
Job Posting: Sep 27, 2019, 2:28:45 PM
Division: Epsilon
RI: AN"
10,"Statistician (Data Scientist), GS-1530-13, Census-MP-TST","Atlanta, GA 30308",Atlanta,GA,30308,None Found,"
VRA (GS-11 or below)
VEOA (permanent positions)
30% or more disabled
Persons with Disabilities
CTAP
ICTAP
",None Found,"Leverage analytical, statistical, and programming techniques to collect, combine, analyze and interpret large and/or complex data sets to develop data-driven organizational solutions.
Advise management of the advantages and disadvantages of various data science approaches, as well as potential applicability of new techniques, including applications of analytic tools, computer languages and methodologies.
Identify and utilize a wide variety of internal and external data sources and collaborate with Census Bureau directorates to develop data driven solutions across the organization.
Engage in outreach and partnership inter-and intra-agency activities.
","
VRA (GS-11 or below)
VEOA (permanent positions)
30% or more disabled
Persons with Disabilities
CTAP
ICTAP
","U.S. citizen.
Suitable for Federal employment.
Registered for Selective Service, if applicable. (www.sss.gov)
You may be required to complete a financial disclosure (OGE-450).
Time-in-grade requirements must be met by the announcement closing date.
","Duties
Summary
This vacancy is for a Statistician (Data Scientist) position in the Office of Survey and Census Analytics located at the U.S. Census Bureau Headquarters in various locations. The Census Bureau is accessible from the Metro Rail Green Line - Suitland Station.

This Job Opportunity Announcement may be used to fill other Statistician (Data Scientist), 1530-13, FPL13 positions within the Census Bureau in the same geographical location with the same qualifications and specialized experience.

Responsibilities
Leverage analytical, statistical, and programming techniques to collect, combine, analyze and interpret large and/or complex data sets to develop data-driven organizational solutions.
Advise management of the advantages and disadvantages of various data science approaches, as well as potential applicability of new techniques, including applications of analytic tools, computer languages and methodologies.
Identify and utilize a wide variety of internal and external data sources and collaborate with Census Bureau directorates to develop data driven solutions across the organization.
Engage in outreach and partnership inter-and intra-agency activities.
Supervisory status
No
Promotion Potential
13
Job family (Series)
1530 Statistics
Similar jobs
Statisticians
Requirements

Requirements
Conditions of Employment
U.S. citizen.
Suitable for Federal employment.
Registered for Selective Service, if applicable. (www.sss.gov)
You may be required to complete a financial disclosure (OGE-450).
Time-in-grade requirements must be met by the announcement closing date.
Applicants must meet all qualification requirements by the closing date of this announcement.

A probationary period may be required.

This position is ELIGIBLE for telework; additional criteria will be required (e.g., supervisory approval).

This is a BARGAINING unit position for the Suitland, MD location only.
Qualifications
Minimum Education Requirement:
Degree: that included 15 semester hours in statistics (or in mathematics and statistics, provided at least 6 semester hours were in statistics), and 9 additional semester hours in one or more of the following: physical or biological sciences, medicine, education, or engineering; or in the social sciences including demography, history, economics, social welfare, geography, international relations, social or cultural anthropology, health sociology, political science, public administration, psychology, etc. Credit toward meeting statistical course requirements should be given for courses in which 50 percent of the course content appears to be statistical methods, e.g., courses that included studies in research methods in psychology or economics such as tests and measurements or business cycles, or courses in methods of processing mass statistical data such as tabulating methods or electronic data processing.

or

Combination of education and experience - courses as shown in A above, plus appropriate experience or additional education. The experience should have included a full range of professional statistical work such as (a) sampling, (b) collecting, computing, and analyzing statistical data, and (c) applying statistical techniques such as measurement of central tendency, dispersion, skewness, sampling error, simple and multiple correlation, analysis of variance, and tests of significance.

AND

Specialized Experience: For the GS-13, you must have one year of experience at a level of difficulty and responsibility equivalent to the GS-12 in the Federal service. Experience for this position includes: conducting and researching the following: regression analysis, statistical analysis, modeling, machine learning, data engineering, mathematical programming, Natural Language Processing, auto coding and data visualization to successfully accomplish tasks associated with department and/or organizational goals; developing presentation on technical topics and presenting information to a variety of audiences in a comprehensible manner; working with complex or big datasets to develop data driven solutions.

OR

Education: Can not be substituted at this grade level.

Experience refers to paid and unpaid experience, including volunteer work done through National Service programs (e.g., Peace Corps, AmeriCorps) and other organizations (e.g., professional; philanthropic; religious; spiritual; community, student, social). Volunteer work helps build critical competencies, knowledge, and skills and can provide valuable training and experience that translates directly to paid employment. You will receive credit for all qualifying experience, including volunteer experience.
Education
Additional information
The following links provide information on various hiring authorities that may enable you to apply through merit assignment procedures, or be eligible for a non-competitive appointment.

VRA (GS-11 or below)
VEOA (permanent positions)
30% or more disabled
Persons with Disabilities
CTAP
ICTAP
The Department of Commerce provides reasonable accommodations to applicants with disabilities. If you need a reasonable accommodation for any part of the application and hiring process, please notify the Human Resources Office. The decision on granting reasonable accommodation will be on a case-by-case basis. TTY users can contact the Human Resources Office via the Federal Relay Service, 1-800-877-8339.


How You Will Be Evaluated
You will be evaluated for this job based on how well you meet the qualifications above.
Your resume, optional cover letter and supporting documentation will be reviewed to determine if you meet the minimum qualifications for the position. If you meet the minimum qualifications stated in the job opportunity announcement, we will compare your resume, optional cover letter and supporting documentation to your responses on the scored occupational questionnaire (True/False, Yes/No, Multiple Choice questions). Your resume and/or optional cover letter must support your responses to the scored occupational questionnaire, or your score may be lowered. The best-qualified candidates will be identified for referral to the hiring manager and may be invited for an interview.

Due weight shall be given to performance appraisals and awards in accordance with 5 CFR § 335.103(b)(3), during the interview/selection process conducted by the hiring manager.

The scored occupational questionnaire will evaluate you on the following competencies; please do not provide a separate written response:

Skill in using data visualization, data manipulation, or data engineering software (i.e. Tableau, SAS, R, Python, Qlikview)
Knowledge creating and using advanced machine learning algorithms, statistics, and big data platforms
Ability to identify and convey high-level information pertaining to data science research
Ability to convey information in a collaborative and cooperative manner
Ability to develop and present information at technical seminars or professional meetings
We recommend that you preview the online questions for this announcement before you start the application process.

Do NOT include the following types of information in your application:
Social Security Number (SSN)
Date of Birth (DOB)
Photos of yourself (if included on your resume you will not be considered for this position)
Personal information: such as age, gender, religious affiliation, etc.


To preview questions please click here.

Background checks and security clearance
Security clearance
Not Required
Drug test required
No
Required Documents

Required Documents
A complete application consists of the following:

Resume showing relevant experience; cover letter optional. Your resume should list your educational and work experience including the dates (mm/dd/yy) of each employment along with the number of hours worked per week. For work in the Federal service, please include the grade level for the position(s). Your resume may be used to validate your responses to the scored occupational questionnaire. Your resume should also indicate your citizenship and if you are registered with the Selective Service System if you are a male born after 12/31/59.
SF-50, ""Notification of Personnel Action,"" supporting your eligibility, with the exception of current Census Bureau employees.
Veterans Employment Opportunities Act (VEOA) documentation, if applicable. For more information, please go to https://www.fedshirevets.gov/hire/hrp/vetguide/index.aspx.
Career Transition Assistance Plan (CTAP) and Interagency Career Transition Assistance Plan (ICTAP) documentation, if applicable (see other information).
Documentation supporting eligibility for non-competitive appointment, (Schedule A disability, 30 percent disabled veteran, certain military spouses, etc).
Education Documentation: If this position requires proof of higher education, or you are substituting education for experience, you must submit an unofficial transcript or a list of courses that includes the following information: name of accredited institution, grades earned, completion dates, and quarter and semester hours earned. This also includes Census Bureau employees. Education completed in foreign colleges or universities may be used to meet the requirements. Please refer to http://www.opm.gov/qualifications/policy/ApplicationOfStds-04.asp for more information.
You are not required to submit official documents at this time; copies are sufficient.

Special Instructions for Foreign Education: Qualifying education from colleges and universities in foreign countries must be evaluated in terms of equivalency to that acquired in U.S. colleges and universities. Applicants educated in whole or in part in foreign countries must submit sufficient evidence, including transcripts, to an accredited private organization for an equivalency evaluation of course work and degree. A listing of these accredited organizations can be found on the Department of Education's website - http://www.ed.gov/international/usnei/us/workrecog.doc. You must provide a copy of the letter containing the results of the equivalency evaluation with a course by course listing along with your application. Failure to provide such documentation when requested will result in lost consideration.

CTAP and ICTAP candidates:
CTAP and ICTAP candidates will be eligible for selection priority if it is determined that they have exceeded the minimum qualifications for the position by attaining at least a rating of 85 out of 100. Information about CTAP and ICTAP eligibility is on the Office of Personnel Management's Career Transition Resources website at: https://www.opm.gov/policy-data-oversight/workforce-restructuring/employee-guide-to-career-transition/ctap_guideline.pdf.

CTAP applicants MUST submit the following documents:

A copy of your RIF separation notice; notice of proposed removal for declining a directed geographic relocation outside of the local commuting area; a Certificate of Expected Separation (CES); or certification that you are in a surplus organization or occupation (this could be a position abolishment letter, a notice of eligibility for discontinued service retirement, or similar notice).
A copy of your SF-50 ""Notification of Personnel Action"" noting current position, grade/band level, and duty location;
A copy of your latest performance appraisal including your rating; and
Any documentation from your bureau/operating unit that shows your current promotion potential.
ICTAP applicants MUST submit the following documents:

A copy of your RIF separation notice; notice of proposed removal for declining a directed geographic relocation outside of the local commuting area; notice of disability annuity termination; certification from your former agency that it cannot place you after your recovery from a work-related compensable injury; or certification from the National Guard Bureau or Military Department that you are eligible for disability retirement.
A copy of your SF-50 ""Notification of Personnel Action"", documenting your RIF separation, noting your position, grade/band level, and duty location, and/or Agency certification of inability to place you through RPL, etc.;
A copy of your latest performance appraisal including your rating; and
Any documentation from your agency that shows your current promotion potential.
NOTE: You will not be considered if you fail to provide all required documents.
If you are relying on your education to meet qualification requirements:
Education must be accredited by an accrediting institution recognized by the U.S. Department of Education in order for it to be credited towards qualifications. Therefore, provide only the attendance and/or degrees from schools accredited by accrediting institutions recognized by the U.S. Department of Education.
Failure to provide all of the required information as stated in this vacancy announcement may result in an ineligible rating or may affect the overall rating.
Benefits

Benefits
A career with the U.S. Government provides employees with a comprehensive benefits package. As a federal employee, you and your family will have access to a range of benefits that are designed to make your federal career very rewarding. Learn more about federal benefits.
U.S. Census Bureau offers a comprehensive benefits package. Explore the benefits offered to most Federal employees at https://www.usa.gov/benefits-for-federal-employees.

Additional benefits available at Census Headquarters located in Suitland, MD, include: fitness center; child-care facility; credit union; free parking; convenient access to Metrorail and Metrobus transit services in Washington, DC, Maryland and Virginia communities; car pools/van pools; etc.

Eligibility for benefits depends on the type of position you hold and whether your position is full-time, part-time, or intermittent. Contact the hiring agency for more information on the specific benefits offered."
11,Health Statistician,"Atlanta, GA 30303",Atlanta,GA,30303,None Found,None Found,None Found,None Found,None Found,None Found,"Key Role:
Provide consulting services focused on supporting the analytical planning and execution of health and healthcare data for government agencies. Maintain responsibility for analysis design and statistical programming in SAS and R, code optimization and efficiency, quality control via appropriate application of statistical theory, modeling, including parametric and non-parametric for interpretation of results, and objective development for descriptive statistics to refine hypothesis. Perform clear and concise report writing, display oral expertise, and present to satisfying client needs for highly visible government agencies. Assist with monitoring and assessing data integrity and accuracy using commonly accepted reliability and validity assurance practices appropriate for quantitative and qualitative data. Assist with a growing market that seeks to use quantitative and qualitative data analyses to assess the return on investment to guide the allocation of health and healthcare funds through the federal budget.
Basic Qualifications:Experience with data mining and statistical modeling, including descriptive statistics, traditional modeling, and interpretationExperience with data manipulation using statistical softwareExperience with using SAS, including macros, arrays, and soft-coding at an intermediary levelAbility to be flexible and organized, prioritize and multi-task, and thrive with asking questionsAbility to obtain a security clearanceBA or BS degree
Additional Qualifications:Experience with database management or ITExperience in working with R, including package use, program creation, and data exportationExperience with analyzing large-scale data setsExperience with working in team environments where not all members are professionally trained in statistical and quantitative studiesExperience with program documentation and code commentingExperience with data visualizations for broad audiencesAbility to work independently and as a member of a teamAbility to pay strict attention to detailPossession of excellent data gathering, analytical, and problem-solving skillsPossession of excellent oral and written communication skillsSecret clearance
Clearance:
Applicants selected will be subject to a security investigation and may need to meet eligibility requirements for access to classified information.
We’re an EOE that empowers our people—no matter their race, color, religion, sex, gender identity, sexual orientation, national origin, disability, veteran status, or other protected characteristic—to fearlessly drive change."
12,"Senior Director, Analytics – Global Identity and Fraud","Atlanta, GA 30309",Atlanta,GA,30309,None Found,None Found,None Found,"Represent as Data Science Leader for Global Identity & Fraud Capabilities and work with cross-functional teams to develop ideas and execute on product road-maps
Collaborate with various internal and external business partners and triage and prioritize potential engagements
Provide timely progress updates, manage projects, define business objectives and oversee workflow and quality as it relates to definition, management and assessment of data science inputs and outputs
Use data and insights to identify Core, Adjacent and Disruptive opportunities and support business growth and transformation
Design, run and analyze experiments to scale and improve product features and performance
Advocate for opportunities to improve the richness of our strategic data to help accelerate business growth and long term customer success
Coach and develop team members on technical and business skills
Provide a fun and collaborative work environment that fosters innovation",None Found,None Found,"Equifax empowers businesses and consumers with information they can trust. With a strong heritage of innovation and leadership, we leverage our unique data, advanced analytics and proprietary technology to enrich the performance of businesses and the lives of consumers.
Equifax is looking for a Sr. Director, Analytics to join our world-class Global Identity and Fraud Capabilities team. You will be working in a dynamic environment, where we embrace moving quickly to build the core capabilities of our global platform. In this exciting role, you will lead a team of data scientists to architect and build global and scalable data science intelligence for our Identity and Fraud platform. A successful candidate will exhibit data and process curiosity, have a strong customer focus and ‘product sense’ along with experience in building data products using superior data science skills and collaboration with cross-functional teams.
Key Responsibilities:
Represent as Data Science Leader for Global Identity & Fraud Capabilities and work with cross-functional teams to develop ideas and execute on product road-maps
Collaborate with various internal and external business partners and triage and prioritize potential engagements
Provide timely progress updates, manage projects, define business objectives and oversee workflow and quality as it relates to definition, management and assessment of data science inputs and outputs
Use data and insights to identify Core, Adjacent and Disruptive opportunities and support business growth and transformation
Design, run and analyze experiments to scale and improve product features and performance
Advocate for opportunities to improve the richness of our strategic data to help accelerate business growth and long term customer success
Coach and develop team members on technical and business skills
Provide a fun and collaborative work environment that fosters innovation
Characteristics we’re looking for:
Efficiently operate within matrix organization and effectively communicate with highly technical and business team members alike
A bias toward action and a proven track record of delivering minimum viable products and business models to market at rapid speed
Ability to proactively identify areas where we can leverage ML to solve difficult problems
Excellent communication skills to engage an organization of multiple specialties, and tell compelling value-driven stories with ease to senior executives
A structured problem-solving approach to help a team work through a wide range of issues
Intellectual curiosity and domain expertise in Machine Learning
Ability to prioritize across competing priorities and quickly-changing landscape
Ability to actively seek out multiple opinions, yet make independent decisions and influence positive outcomes
Comfortable with working on problems not fully defined yet
Ability to play as a conduit between data scientists and business partners, enabling and fostering collaborative work
Strong customer-focused design and systems thinking skills (internal and external)
Experience managing cross-functional teams and ambiguous environment
Experience delivering data products in a global enterprise environment
Experience evaluating in-market performance of delivered product
Experience working as a data scientist or statistician
What you will need:
7+ years of professional experience applying analytics in identity and fraud risk in financial services, payment, e-commerce, or related arena
Master’s degree or higher in Machine Learning, Computer Science, Engineering, Operations Research, Statistics, Mathematics or other related discipline
3+ years of hands-on experience managing and mentoring teams of data science and technical teams
3+ years working with business and product executives
Experience leading design and development of innovative analytic solutions from Feasibility analysis and prototypes to Business case development through to Full product launch
Broad knowledge of Machine Learning, Algorithm design and Software Engineering concepts
Analytical experience in applying AI and ML algorithms and techniques using Python, Scala, R and other statistical and AI/ML packages and willingness to learn new tools
Experience with big data platforms such as Hadoop, Spark and streaming services
Experience with Cloud technologies and platforms: Google Cloud, AWS, Azure etc.
Strong oral and written communication skills, and influencing skills
#LI-CH1
Primary Location:
USA-Atlanta-One-Atlantic-Center
USA-Atlanta JV White
Function:
Function - Data and Analytics
Schedule:
Full time"
13,Infection Preventionist,"Atlanta, GA 30330",Atlanta,GA,30330,None Found,"BA/BS/BSN degree. Degree should be in a health related disciplineRequires a minimum of 10 years of related experience, of which approximately five (5) years must be specialized in the area of Infection Prevention and Control.US Citizen or US Person (Green Card Holder) with the ability to obtain a NACI clearanceInfection Control Certification is highly desirable.",None Found,"In response to inquiries, provides NHSN user support regarding procedures for correctly applying CDC HAI definitions and criteria and data entry. Identifies user/system issues requiring system modifications and prioritizes, escalates and contributes to response.Prepares and presents educational trainings about NHSN to professional organizations and governmental bodies at national, state and local levels.Assists/leads the development of new NHSN modules, providing subject matter expertise related to HAI surveillance.",None Found,None Found,"Description
Job Requisition:
Infection Preventionist
Job Description:
The Health Group of Leidos is seeking an Infection Preventionist in Atlanta, GA in support of our work with the National Healthcare Safety Network (NHSN) contract at the CDC.
The candidate will work with the healthcare associated infection (HAI) surveillance program to monitor programmatic quality; communicate with project areas regarding study activities and protocols; analyze data for reports, presentations and publications; assist in the review of study data for data quality; organizes study files, including data and correspondence files; perform scientific, medical and research literature searches in fields including but not limited to Behavioral and Social Sciences, Epidemiology, and Laboratory and prepares slides for scientific presentations; provides analytic support to multi-disciplinary teams in order to accomplish public health research and program goals.

Duties and Responsibilities:
In response to inquiries, provides NHSN user support regarding procedures for correctly applying CDC HAI definitions and criteria and data entry. Identifies user/system issues requiring system modifications and prioritizes, escalates and contributes to response.Prepares and presents educational trainings about NHSN to professional organizations and governmental bodies at national, state and local levels.Assists/leads the development of new NHSN modules, providing subject matter expertise related to HAI surveillance.
- Identifies and creates necessary NHSN module/manual updates resulting from technological advancements, infection/disease trends, changing or broadening IP/nursing responsibilities or yearly updates of system components (International Classification of Diseases 9th Revision Clinical Modifications [ICD-9-CM]).
Works with appropriate CDC staff to provide the infection preventionist (IP)/nursing perspective related to HAI policy and guideline development. Writes/reviews new training/educational documents, including the NHSN Newsletter. Ensures consistency of training documents with CDC, Association for Practitioners in Infection Control (APIC), and other related organizations/governmental bodies.Provides consultation and technical assistance to national infection prevention/nursing organizations in order to support their HAI prevention/control activities and to promote DHQP policies and initiatives.Leads/assists in NHSN data cleaning projects to improve the quality of NHSN product.When requested, participates in temporary details as part of epidemiological investigation, research and other technical assistance teams.Reviews current published literature on HAI IP/nursing-related issues and notifies appropriate staff when new significant developments or issues appear. Prepares articles/abstracts or critiques on articles on HAI prevention/control and surveillance in medical, nursing and infection prevention and control journals, public health journals, MMWR, newsletters of national IP/nursing organizations, and other publications.Participates, as requested, in special DHQP studies or projects.

Qualifications:
Required Qualifications:
BA/BS/BSN degree. Degree should be in a health related disciplineRequires a minimum of 10 years of related experience, of which approximately five (5) years must be specialized in the area of Infection Prevention and Control.US Citizen or US Person (Green Card Holder) with the ability to obtain a NACI clearanceInfection Control Certification is highly desirable.
External Referral Bonus:
Ineligible
Potential for Telework:
No
Clearance Level Required:
NACI
Travel:
No
Scheduled Weekly Hours:
40
Shift:
Day
Requisition Category:
Professional
Job Family:
Statistician
2000
Health
Leidos is a Fortune 500® information technology, engineering, and science solutions and services leader working to solve the world's toughest challenges in the defense, intelligence, homeland security, civil, and health markets. The company's 33,000 employees support vital missions for government and commercial customers. Headquartered in Reston, Virginia, Leidos reported annual revenues of approximately $10.19 billion for the fiscal year ended December 28, 2018. For more information, visit www.Leidos.com.
Pay and benefits are fundamental to any career decision. That's why we craft compensation packages that reflect the importance of the work we do for our customers. Employment benefits include competitive compensation, Health and Wellness programs, Income Protection, Paid Leave and Retirement. More details are available here.
Leidos will never ask you to provide payment-related information at any part of the employment application process. And Leidos will communicate with you only through emails that are sent from a Leidos.com email address. If you receive an email purporting to be from Leidos that asks for payment-related information or any other personal information, please report the email to spam.leidos@leidos.com.
All qualified applicants will receive consideration for employment without regard to sex, race, ethnicity, age, national origin, citizenship, religion, physical or mental disability, medical condition, genetic information, pregnancy, family structure, marital status, ancestry, domestic partner status, sexual orientation, gender identity or expression, veteran or military status, or any other basis prohibited by law. Leidos will also consider for employment qualified applicants with criminal histories consistent with relevant laws."
14,Statistician (Health) (Direct Hire),"Atlanta, GA 30305",Atlanta,GA,30305,None Found,None Found,None Found,None Found,None Found,None Found,"Department: Department of Health And Human Services
Agency: Centers for Disease Control and Prevention
Job Announcement Number: HHS-CDC-DH-19-10529872
SALARY RANGE: $64561.00 to $108422.00/Per Year
OPEN PERIOD: 2019-07-10 to 2019-12-13
SERIES & GRADE: GS-11/12

AGENCY MARKETING STATEMENT:
The Centers for Disease Control and Prevention (CDC) is the agency Americans trust with their lives. As a global leader in public health, CDC is the nation's premier health promotion, prevention, and preparedness agency. Whether we are protecting the American people from public health threats, researching emerging diseases, or mobilizing public health programs with our domestic and international partners, we rely on our employees to make a real difference in the health and well-being of people here and around the world. These positions are located in the Department of Health and Human Services (DHHS), Centers for Disease Control and Prevention (CDC), National Center for Health Statistics (NCHS), in Hyattsville, MD; Atlanta, GA and RTP-Durham, NC. Salaries:
Hyattsville, MD: $69,581 to $108,422 Atlanta, GS: $65,448 to $101,983 RTP/Durham, NC: $64,561 to $100,600 CDC is an Equal Opportunity Employer.

JOB SUMMARY:
Incumbent performs assignments in support of statistical research studies which are focused on the causes, incidence and cost of accidents, disease and disabling illness. Assignments, which may either cover recurring or continuing studies or relate to special investigations, are characteristically clearly defined units or parts of major projects assigned higher-graded statisticians.

DUTIES:
[
""As a Statistician (Health) (Direct Hire), at the full performance level, you will: Develop specifications for and monitors data tabulations ensuring accuracy and quality of data. Develop the analytical plan incorporating appropriate statistical methods and techniques, executes the analysis of data, and interprets results. Responsible for ensuring the statistical validity of study activities by solving problems occurring in the data collection process or analysis of data. Prepare comprehensive reports of study results and disseminates results of research projects in a wide range of venues including publications, peer reviewed journals, summaries, manuscripts, and special reports. Develop and implements methods and procedures for the collection, processing, editing and analysis of data. Provide technical leadership, consultation, and advice on statistical analysis and methods, and techniques of assigned studies. Performs other duties as assigned."" ]

REQUIREMENTS:
US Citizenship is required. Background Investigation is required. E-Verify: If you are selected for this position, the documentation that you present for purposes of completing the Department of Homeland Security (DHS) Form I-9 will be verified through the DHS ""E-Verify"" System. Federal law requires DHS to use the E-Verify System to verify employment eligibility of all new hires, and as a condition of continued employment obligates the new hire to take affirmative steps to resolve any discrepancies identified by the system. The U.S. Department of Health and Human Services is an E-Verify Participant. Direct Deposit: All Federal employees are required to have Federal salary payments made by direct deposit to a financial institution of their choosing. All qualification requirements must be met by the closing date of the announcement. One-year probationary period may be required. Travel, transportation, and moving expenses will be paid: No Bargaining Unit Position: Yes Drug Screening Required: No Recruitment Incentive may be authorized: No Annual Leave for non-federal service may be authorized: No Research position: No. Promotion potential: Yes. This position has promotion potential to GS-12. Promotion to the next grade level is at management's discretion and is based on your meeting qualifications and time-in-grade requirements, demonstrated ability to perform the higher level duties, the continuing need for the higher level duties, and administrative approval. Promotion to the next grade level is not guaranteed and no promise of promotion is implied. Supervisory position: No Position Sensitivity: 1-Nonsensitive to 5-Public Trust/Moderate based on work assignment.

QUALIFICATIONS REQUIRED:
Basic Qualifications: A. Applicants must have successfully completed a full four-year course of study at an accredited college or university leading to a bachelor's or higher degree that includes 15 semester hours in statistics (or in math and statistics, provided at least 6 semester hours were in statistics), and 9 additional semester hours in one or more of the following: physical/biological sciences, medicine, education, or engineering; or in the social sciences including demography, history, economics, social welfare, geography, international relations, social or cultural anthropology, health sociology, political science, public administration, psychology, etc.
OR B. Have a combination of education and experience - courses as described in ""A"" above, plus appropriate experience or additional education. The experience should have included a full range of professional statistical work such as (a) sampling, (b) collecting, computing, and analyzing statistical data, and (c) applying statistical techniques such as measurement of central tendency, dispersion, skewness, sampling error, simple and multiple correlation, analysis of variance, and tests of significance. In addition to meeting the basic qualifications requirement, applicants must meet the specialized experience as stated below. Minimum Qualifications GS-11: Applicants must have at least one year of specialized experience at or equivalent to the GS-09 in the Federal service as defined in the next paragraph. Specialized Experience: Specialized experience is experience which is directly related to the position which has equipped the applicant with the particular knowledge, skills and abilities (KSAs) to successfully perform the duties of the position to include experience assisting in the implementation of data collection systems; producing and documenting analytic data files; and/or conducting basic statistical analyses of population, clinical, health, or administrative data. OR Have completed 3 years of progressively higher level graduate education leading to a Ph.D. degree or Ph.D. or equivalent doctoral degree. OR Have a combination of graduate level education and experience that meets 100% of the qualification requirements for this position. Minimum Qualifications GS-12: Applicants must have at least one year of specialized experience at or equivalent to the GS-11 in the Federal service as defined in the next paragraph. Specialized Experience: Specialized experience is experience which is directly related to the position which has equipped the applicant with the particular knowledge, skills and abilities (KSAs) to successfully perform the duties of the position to include experience planning and conducting data collections such as surveys; planning, producing and documenting analytic data files; conducting data quality evaluations and documenting the results of these evaluations; and/or designing and conducting statistical analyses of population, clinical, health, or administrative data related to health topics for publication.

HOW YOU WILL BE EVALUATED:
Once the application process is complete, a review of the resume and supporting documentation will be made and compared against your responses to the assessment questionnaire to determine if you are qualified for this job. If, after reviewing your resume and/or supporting documentation, a determination is made that you have inflated your qualifications and/or experience, you may lose consideration for this position. Please follow all instructions carefully. Errors or omissions may affect your eligibility.

BENEFITS:

OTHER INFORMATION:
These positions are being filled through Direct Hire Authority for this occupation and are open to all US Citizens. Vacancies will be filled through OPM's Direct Hire Authority. Veterans' preference and traditional rating and ranking of applicants do not apply to positions filled under this announcement. All applicants who meet the minimum qualification requirements will be forwarded to the selecting official for consideration. Applications received as a result of job fairs, recruitment events, and emergency hiring mechanisms in support of this hiring initiative will also be accepted during the duration of the direct-hire authority. For more information on OPM's authorization of Direct Hire Authority, please visit: https://www.opm.gov/policy-data-oversight/hiring-information/direct-hire-authority/ PHS Commissioned Corps Officers interested in performing the duties of this position within the Commissioned Corps (not as a career/career-conditional employee) are encouraged to apply under the merit promotion announcement indicated above. This vacancy is also being announced concurrently with vacancy announcement HHS-CDC-M2-19-10529873 under competitive procedures. Please review that announcement to see if you are eligible for consideration under competitive procedures. NOTE: Applicants must apply separately for each announcement in order to be considered under each individual announcement. Additional selections may be made within the same geographical location CDC-wide. This job opportunity announcement has a first cut-off date of 7/31/2019. Applications received by 11:59 PM Eastern Standard Time (EST) on the cut-off date of 7/31/2019 will receive first consideration for this vacancy. Candidates who apply after may be referred on a periodic basis depending on staffing needs. If you are a veteran with preference eligibility and you are claiming 5-points veterans' preference, you must submit a copy of your DD-214 or other proof of eligibility. If you are claiming 10-point veterans' preference, you must also submit an SF-15, ""Application for 10-Point Veterans' Preference"" plus the proof required by that form. For more information on veterans' preference see http://www.fedshirevets.gov/job/vetpref/index.aspx. Males born after December 31, 1959 must be registered or exempt from Selective Service (see http://www.sss.gov). For information on ""People with Disabilities"" please visit http://opm.gov/disability/PeopleWithDisabilities.asp Interagency Career Transition Assistance Program/Career Transition Assistance Plan (ICTAP/CTAP): For information on how to apply as an ICTAP/CTAP eligible see http://opm.gov/rif/employee_guides/career_transition.asp#ictap. To be well-qualified and exercise selection priority for this vacancy, displaced Federal employees must be rated at 85.0 or above on the rating criteria for this position. To view the questionnaire, click on the following link:
https://apply.usastaffing.gov/ViewQuestionnaire/10529872 If you are unable to apply online or need to fax a document(s), view the following link for information regarding an alternative application https://help.usastaffing.gov/Apply/index.php?title=Alternate_Application_Information.

HOW TO APPLY:

To apply for this position, you must complete the online application and submit the documentation specified in the Required Documents section.
A complete application package must be submitted by 11:59 PM (EST) on12/13/2019 of this announcement to receive consideration. To begin, click Apply to access the online application. You will need to be logged into your USAJOBS account to apply. If you do not have a USAJOBS account, you will need to create one before beginning the application. Follow the prompts to select your résumé and/or other supporting documents to be included with your application package. You will have the opportunity to upload additional documents to include in your application before it is submitted. Your uploaded documents may take several hours to clear the virus scan process. After acknowledging you have reviewed your application package, complete the Include Personal Information section as you deem appropriate and click to continue with the application process. You will be taken to the online application which you must complete in order to apply for the position. Complete the online application, verify the required documentation is included with your application package, and submit the application. To verify the status of your application, log into your USAJOBS account (https://my.usajobs.gov/Account/Login), all of your applications will appear on the Welcome screen. The Application Status will appear along with the date your application was last updated. For information on what each Application Status means, visit: https://www.usajobs.gov/Help/how-to/application/status/. If you cannot apply online: You are encouraged to apply online. If you are unable to apply online, please use the Alternate Application link listed in the Additional Information section of this vacancy announcement. Applicants are strongly encouraged to apply online if at all possible. Applying online, through your USAJOBS account, will expedite the application process and allow you to check your application. If you utilize the Alternate Application method, your USAJOBS account will not display this application and you will not receive status updates.

REQUIRED DOCUMENTS:
To apply for these positions, you must submit a complete Application Package which includes: Your résumé showing work schedule, hours worked per week, dates of employment and duties performed. Other supporting documents: Cover Letter, optional Veterans Preference Documentation, if applicable Transcripts* Schedule A Eligibility Letter, if you are applying as a Schedule A candidate Career Transition Assistance Program documentation, if applicable (e.g., Certification of Expected Separation, Reduction-In-Force Separation Notice, or Notice of Proposed Removal; SF-50 that documents the RIF separation action; and most recent performance appraisal). *Note: You may submit an unofficial transcript or a list of college courses completed indicating course titles, credit hours, and grades received. An official transcript from an accredited educational institution is required if you are selected for the position. Failure to submit any of the above mentioned required documents may result in loss of consideration due to an incomplete application package. It is your responsibility to ensure all required documents have been submitted. For Résumé and Application Tips visit: https://help.usajobs.gov/index.php/Tips.

WHAT TO EXPECT NEXT:
Once the online questionnaire is received you will receive an acknowledgement email that your submission was successful. The most highly qualified candidates will be referred to the hiring manager for further consideration and possible interview. We expect to make a selection within 45 days of the closing date of this announcement. You will receive notice via email once this process is completed (generally 4-6 weeks).

AGENCY CONTACT INFO:
CDC HELPDESK
1600 Clifton Road NE
Atlanta GA US 30333
Telephone: (770) 488-1725
Email: HRCS@CDC.GOV"
15,AI Model Development Lead For Marketing (Analytics Manager 5),"Atlanta, GA",Atlanta,GA,None Found,None Found,"
8+ years of experience in analytics, modeling, or a combination of both
6+ years of management experience; or 6+ years of leadership experience in an advanced quantitative analytics function
A Master's degree or higher
5 + years of experience using quantitative machine learning techniques
4+ years of experience working with digital data science including analyzing cookie-level data",None Found,None Found,None Found,None Found,"Overview:
Wells Fargo technology teams drive innovation to create a more powerful and fulfilling financial experience for our customers and team members. You will join more than 24,000 team members supporting 95 billion transactions annually in 10 countries. Our career opportunities span the technology spectrum: advanced analytics, big data, information security, application development, cloud enablement, project management and more.

SUCCESS PROFILE
Check out the top traits we're looking for and see if you have the right mix. Additional related traits listed below.

Analytical
Detail-oriented
Insightful
Inventive
Problem Solver
Curious
Benefits
Wells Fargo wants to help you get more out of life and take care of things outside the office to make life a little easier. We provide:

Medical, Dental and Vision
Employer Matching 401(k)
Tuition Reimbursment
Maternity and Paternity Leave
Paid Time Off
Responsibilties
Job Description
At Wells Fargo, we want to satisfy our customers’ financial needs and help them succeed financially. We’re looking for talented people who will put our customers at the center of everything we do. Join our diverse and inclusive team where you’ll feel valued and inspired to contribute your unique skills and experience.
Help us build a better Wells Fargo. It all begins with outstanding talent. It all begins with you.
Enterprise Finance drives financial management for the company and maintains and enhances risk and financial controls. Key functions within Enterprise Finance include finance and accounting; Treasury; corporate development, mergers, and acquisitions; Data Management and Insights, the Customer Remediation Center of Excellence, Enterprise Shared Services, Business Process Management, and Corporate Strategy. Enterprise Finance informs shareholders, regulators, taxing authorities, team members, and leaders of the company’s financial performance through earnings releases, investor meetings and conferences, and meetings with regulators and credit rating agencies, following appropriate reporting guidelines. They also maintain and enhance risk and financial controls and lead many of the company’s shared services functions including corporate properties, security, and global services.
As part of the newly formed AI Model Development COE in Enterprise Analytics and Data Science (EADS), which focuses on building, implementing, and monitoring AI models for the enterprise, the AI model development team for personalization, marketing, and virtual channels is looking for an experienced AI leader to manage the development of AI models for marketing.

This leader will be responsible for building and managing a team of data scientists to design, develop, and implement AI models focused on marketing’s AI priorities. Partnering with Wells Fargo AI technology team, Wells Fargo AI business solution team, and marketing executives, you and your team will deliver and deploy AI models on the Well Fargo AI open source platform to scale these solutions and embed them in our operational processes.
KEY RESPONSIBILITIES INCLUDE:
Build and grow a team of data scientists responsible for AI model development in support of marketing
Design, develop, and deploy AI models using state of the art AI techniques available in the open stack and/or vendor solutions
Partner with marketing executives to frame the problem, manage the model development process, and business relationship
Manage a portfolio of the data science projects including the following responsibilities:
Help finalize project scope working with business partners
On-going touch-base with business partners and governance stakeholders
Define priorities in partnership with the business partners during on-going development
Work with AI technology and production teams to operationalize models
May be called upon to review vendor models and solutions and/or models developed outside of EADS
Divisional Information:
Data Management and Insights (DMI) is transforming the way that Wells Fargo uses and manages data. Our work enables Wells Fargo to empower and inform our team members, deliver exceptional experiences for our customers, and meet the elevated expectations of our regulators. The team is responsible for designing the future data environment, defining data governance and oversight, and partnering with technology to operate the data infrastructure for the company. This team also provides next generation analytic insights to drive business strategies and help meet our commitment to satisfy our customers’ financial needs.
As a Team Member Manager, you are expected to achieve success by leading yourself, your team, and the business. Specifically you will:
Lead your team with integrity and create an environment where your team members feel included, valued, and supported to do work that energizes them.
Accomplish management responsibilities which include sourcing and hiring talented team members, providing ongoing coaching and feedback, recognizing and developing team members, identifying and managing risks, and completing daily management tasks.

Required Qualifications

8+ years of experience in analytics, modeling, or a combination of both
6+ years of management experience; or 6+ years of leadership experience in an advanced quantitative analytics function
A Master's degree or higher
5 + years of experience using quantitative machine learning techniques
4+ years of experience working with digital data science including analyzing cookie-level data


Desired Qualifications

Strong analytical skills with high attention to detail and accuracy
Ability to work and influence successfully within a matrix environment and build effective business partnerships with all levels of team members
Meeting facilitation experience in leading discussions that result in consensus and commitment


Other Desired Qualifications
Data science experience in the ad tech space (DMPs, DSPs, Google and/or Adobe Cloud, digital attribution)
4+ years managing or directing data scientist/ statistician/ data engineer teams
Hands on experience with deep learning toolkits such as Tensorflow, Keras, PyTorch, Dynet
Detail oriented. Experience with model governance requirements. Able to de-mystify AI models to make them transparent and explainable
Experience with agile project management methodologies for data science

Disclaimer

All offers for employment with Wells Fargo are contingent upon the candidate having successfully completed a criminal background check. Wells Fargo will consider qualified candidates with criminal histories in a manner consistent with the requirements of applicable local, state and Federal law, including Section 19 of the Federal Deposit Insurance Act.

Relevant military experience is considered for veterans and transitioning service men and women.

Wells Fargo is an Affirmative Action and Equal Opportunity Employer, Minority/Female/Disabled/Veteran/Gender Identity/Sexual Orientation.

ENT FINANCE"
16,"Senior Director, Bank Analytics","Atlanta, GA 30307",Atlanta,GA,30307,None Found,None Found,None Found,None Found,None Found,None Found,"The big picture

Cardlytics makes marketing more relevant and measurable through our Purchase Intelligence™ platform. Partnering with financial institutions (FIs) to run their banking rewards programs, Cardlytics has a secure view into where and when consumers are spending their money. By applying advanced analytics to this massive aggregation of purchase data, we make it actionable, helping marketers/ advertisers identify, reach and influence likely buyers at scale, and measure the true sales impact of their marketing spend.

About the role

As the leader of our Bank Analytics and Program Strategy team, you will be guiding strategies to leveraging data to help provide actionable insights around consumer engagement and card usage. You'll be knee deep in data at times, and other times you'll be crafting the story and presenting your findings to executives within Cardlytics and at our bank partners.


Play a key leadership role at Cardlytics as we continue to evolve our relationships with our bank partners and grow our advertising platform
Build and lead a team of managers and analysts, serving as a coach, mentor and subject matter expert for your group
Work on problems impacting some of the largest banks in the U.S. often presenting complex custom projects to executive audiences
Lead our Program Strategy function to learn and act on the key trends and drivers of our advertising platform performance
Work with internal teams to develop new product strategies and analytic methodologies
Mine purchase data to understand consumer spending habits, competitive landscapes, and customer journeys

What you will accomplish


You and your team will work with Cardlytics Bank Account Managers and our bank partners to:
Understand what various changes to user experience will do to engagement and company economics
Teach the company about what drives engagement on the Cardlytics Network
Provide relevant data points to inform stakeholders of what is happening at our banks
Inform future bank marketing campaigns
Work across disparate teams throughout the organization to grow our Program Strategy function:
Develop strategies for new products and analytic methodologies
Build the organization's understanding of drivers of consumer engagement and network performance across all bank partners through rigorous testing and experimental design
Lead analytic efforts to ensure we deliver a personalized experience to bank consumers – the right offer to the right person at the right time
Develop and standardize new analytic approaches and tools for use by the broader organization team
Craft engaging analytic stories using PowerPoint and Tableau that answer client specific business questions
Present to executive leaders at major financial institutions
Prioritize workload across multiple initiatives and distribute to your team based on skillset and availability
Manage and develop members of the analytics team to augment their technical skills and refine their client facing soft skills
Find opportunities for streamlining and automation of existing processes
10% travel for client meetings

Skills and experiences that will make you successful


Skills
Strong ability to interpret complex analytical results and transform into a client ready deliverable
Proven ability to lead and influence strategic and tactical business decisions based on statistical and quantitative analysis
Knowledge of advanced statistical modeling, testing design and data mining techniques
Advanced Excel and PowerPoint skills required
Proficient in SQL and R
Ability to present to a non-technical marketer or a statistician
Strong team and project/workstream management skills
Ability to juggle multiple projects & clients at a time
Strong critical thinking ability and proactive problem-solving capabilities
Outstanding communication, presentation and interpersonal skills
Patient and adaptable
Entrepreneurial and team-oriented spirit

Experience


8 + years relevant experience in a Senior Manager/Director function
Experience with Tableau and data visualization
Experience Python a plus
Experience working with Financial Institutions a plus
Extensive client-facing presentation experience required
Experience training, mentoring, and developing analytic talent required
Master's degree in Statistics, Engineering, Mathematics, Decision Sciences, Marketing Research or similar field

"
17,Statistician,"Atlanta, GA 30318",Atlanta,GA,30318,None Found,None Found,None Found,None Found,None Found,None Found,"Job Duties: Responsible for the collation, evaluation, interpretation, and presentation of quality data. Provides insight and recommendations for improvement.
Leads and conducts analytics projects to support various quality and process improvement initiatives involving data collection and statistical analysis, data visualization, as well as preparing and updating score cards, benchmarking, and progress reports. Develops decision supporting tools, including MIS, Tableau and Epic dashboards, balanced scorecards and drill-down/roll-up type reporting.
Provides analytical and statistical expertise to Quality Department by creating and demonstrating templates and other statistical tools. Assists team members with their data analysis and shares knowledge and expertise. Trains and mentors more junior members of the team in process improvement, data analysis, and statistical
methods. Researches statistical modeling & analytical tools and how it can be applied to healthcare to drive improvement within the organization.

Requirements
Education and Experience: Bachelor’s degree in Industrial Engineering, Health Systems Engineering, Statistics or Operations Research, plus two years of experience in data analytics and statistics."
18,AI Model Development Lead for Virtual Channels (Analytic Manager 5),"Atlanta, GA",Atlanta,GA,None Found,None Found,"
8+ years of experience in analytics, modeling, or a combination of both
6+ years of management experience; or 6+ years of leadership experience in an advanced quantitative analytics function
A Master's degree or higher
5 + years of experience using quantitative machine learning techniques",None Found,None Found,None Found,None Found,"Overview:
Wells Fargo technology teams drive innovation to create a more powerful and fulfilling financial experience for our customers and team members. You will join more than 24,000 team members supporting 95 billion transactions annually in 10 countries. Our career opportunities span the technology spectrum: advanced analytics, big data, information security, application development, cloud enablement, project management and more.

SUCCESS PROFILE
Check out the top traits we're looking for and see if you have the right mix. Additional related traits listed below.

Analytical
Detail-oriented
Insightful
Inventive
Problem Solver
Curious
Benefits
Wells Fargo wants to help you get more out of life and take care of things outside the office to make life a little easier. We provide:

Medical, Dental and Vision
Employer Matching 401(k)
Tuition Reimbursment
Maternity and Paternity Leave
Paid Time Off
Responsibilties
Job Description
At Wells Fargo, we want to satisfy our customers’ financial needs and help them succeed financially. We’re looking for talented people who will put our customers at the center of everything we do. Join our diverse and inclusive team where you’ll feel valued and inspired to contribute your unique skills and experience.
Help us build a better Wells Fargo. It all begins with outstanding talent. It all begins with you.
Enterprise Finance drives financial management for the company and maintains and enhances risk and financial controls. Key functions within Enterprise Finance include finance and accounting; Treasury; corporate development, mergers, and acquisitions; Data Management and Insights, the Customer Remediation Center of Excellence, Enterprise Shared Services, Business Process Management, and Corporate Strategy. Enterprise Finance informs shareholders, regulators, taxing authorities, team members, and leaders of the company’s financial performance through earnings releases, investor meetings and conferences, and meetings with regulators and credit rating agencies, following appropriate reporting guidelines. They also maintain and enhance risk and financial controls and lead many of the company’s shared services functions including corporate properties, security, and global services.
As part of the newly formed AI Model Development COE in Enterprise Analytics and Data Science (EADS), which focuses on building, implementing, and monitoring AI models for the enterprise, the AI model development team for personalization, Virtual Channels, and virtual channels is looking for an experienced AI leader to manage the development of AI models for Virtual Channels.

This leader will be responsible for building and managing a team of data scientists to design, develop, and implement AI models focused on Virtual Channels’ AI priorities. Partnering with Wells Fargo AI technology team, Wells Fargo AI business solution team, and Virtual Channels executives, you and your team will deliver and deploy AI models on the Well Fargo AI open source platform to scale these solutions and embed them in our operational processes.

KEY RESPONSIBILITIES INCLUDE:
Build and grow a team of data scientists responsible for AI model development in support of Virtual Channels
Design, develop, and deploy AI models using state of the art AI techniques available in the open stack and/or vendor solutions
Partner with Virtual Channels executives to frame the problem, manage the model development process, and business relationship
Manage a portfolio of the data science projects including the following responsibilities:
Help finalize project scope working with business partners
On-going touch-base with business partners and governance stakeholders
Define priorities in partnership with the business partners during on-going development
Work with AI technology and production teams to operationalize models
Will be called upon to review vendor models and solutions and/or models developed outside of EADS
Divisional Information:
Data Management and Insights (DMI) is transforming the way that Wells Fargo uses and manages data. Our work enables Wells Fargo to empower and inform our team members, deliver exceptional experiences for our customers, and meet the elevated expectations of our regulators. The team is responsible for designing the future data environment, defining data governance and oversight, and partnering with technology to operate the data infrastructure for the company. This team also provides next generation analytic insights to drive business strategies and help meet our commitment to satisfy our customers’ financial needs.
As a Team Member Manager, you are expected to achieve success by leading yourself, your team, and the business. Specifically you will:
Lead your team with integrity and create an environment where your team members feel included, valued, and supported to do work that energizes them.
Accomplish management responsibilities which include sourcing and hiring talented team members, providing ongoing coaching and feedback, recognizing and developing team members, identifying and managing risks, and completing daily management tasks.

Required Qualifications

8+ years of experience in analytics, modeling, or a combination of both
6+ years of management experience; or 6+ years of leadership experience in an advanced quantitative analytics function
A Master's degree or higher
5 + years of experience using quantitative machine learning techniques


Desired Qualifications

Strong analytical skills with high attention to detail and accuracy
Ability to work and influence successfully within a matrix environment and build effective business partnerships with all levels of team members
Meeting facilitation experience in leading discussions that result in consensus and commitment


Other Desired Qualifications
4+ years managing or directing data scientist/ statistician/ data engineer teams
Hands on experience with deep learning toolkits such as Tensorflow, Keras, PyTorch, Dynet
Detail oriented. Experience with model governance requirements. Able to de-mystify AI models to make them transparent and explainable
Experience with agile project management methodologies for data science
Experience with Big Data or Hadoop tools such as Spark, Hive, Kafka and Map

Street Address
NC-Charlotte: 401 S Tryon St - Charlotte, NC
MN-Minneapolis: 600 S 4th St - Minneapolis, MN
NC-Charlotte: 11625 N Community House Road - Charlotte, NC
SC-Fort Mill: 3480 State View Blvd - Fort Mill, SC
TX-Addison: 5080 Spectrum Dr - Addison, TX
TX-DAL-Downtown Dallas: 1445 Ross Ave - Dallas, TX
TX-Irving: 5000 Riverside Drive - Irving, TX
AZ-Tempe: 1150 W Washington St - Tempe, AZ
IA-Des Moines: 6200 Park Ave - Des Moines, IA
IA-Des Moines: 800 Walnut St - Des Moines, IA
GA-Atlanta: 3579 Atlanta Ave - Atlanta, GA


Disclaimer

All offers for employment with Wells Fargo are contingent upon the candidate having successfully completed a criminal background check. Wells Fargo will consider qualified candidates with criminal histories in a manner consistent with the requirements of applicable local, state and Federal law, including Section 19 of the Federal Deposit Insurance Act.

Relevant military experience is considered for veterans and transitioning service men and women.

Wells Fargo is an Affirmative Action and Equal Opportunity Employer, Minority/Female/Disabled/Veteran/Gender Identity/Sexual Orientation.

ENT FINANCE"
