,Title,Location,City,State,Zip,Country,Qualifications,Skills,Responsibilities,Education,Requirement,FullDescriptions
0,Data Scientist,"San Francisco, CA",San Francisco,CA,None Found,None Found,None Found,None Found,None Found,None Found,None Found,"As a Data Scientist at BICP your role is to analyze, visualize, and model data. You’ll build and implement machine learning models to make more efficient and effective decisions. We are looking for a mixture between a statistician, scientist, machine learning expert and engineer: someone who has passion for building and improving Internet-scale products informed by data. Bachelor’s degree required and Master’s is preferred."
1,"Senior Medical Director, Global Clinical Development","Novato, CA 94949",Novato,CA,94949,None Found,None Found,"
MD degree or MD, PhD degrees, graduating from a high quality medical school.
Minimum of 4 years of industry experience (rare disease experience preferred but not required)
Translational research and early development experience (preferred but not required)
Must be originally boarded in a medical specialty; optimally in medical genetics, pediatric or adult neurology or other complex clinical fields dealing with chronic diseases and complex pathophysiology, or relevant experience.
Must be trained in GCP regulations, and be familiar with relevant ICH and FDA guidelines relevant to clinical development. Must have experience designing successful clinical studies in complex diseases requiring the management of patient variation, chronic irreversible disease and related complexities. Must be facile with statistical issues and be able to manage working with a statistician to design the analysis of clinical studies
Experience across all phases of clinical studies required, understanding and/or experience with post-approval commitments is an advantage
Ability to write clinical study reports and summaries for regulatory purposes","
Manage the process for the company's translational research and early development clinical studies effort to ensure the highest level of success, efficiency of clinical protocols, FDA review and successful product launches
Successfully lead cross-functional teams focusing on clinical development strategy
Be an effective manager of physician scientists and/or clinical science specialists
Direct and oversee phase one and two clinical studies, including clinical strategy and design, protocol writing, Institutional Review Board (IRB) applications, training, monitoring, documentation and data analysis
Work with current and future partners to initiate and monitor clinical studies including evaluation
Reviews and Approves procedures for the design and implementation of clinical protocols, data collection systems and final reports
Ensure that all clinical studies are appropriately designed and effectively executed and monitored
Provides safety surveillance guidance, acts as a medical monitor, and ensures adherence to cGCP requirements and all applicable regulatory references and guidelines
Participate in pre-submission, pre-market and other meetings with the FDA and other regulatory agencies, as needed
Manage outside consultants (consultants, etc.) to ensure data is accurately collected and analyzed in a cost effective fashion
Exhibits leadership skills within and outside of the organization (including people skills, mentoring, presentation skills and professional interaction)
Take a leadership role in proposal development to identify effective clinical and regulatory implementation strategies that are efficient in time and money, and hedge risk as needed.
Review and approve proposals for appropriate personnel assignments, time allocations, and budgets",None Found,"
MD degree or MD, PhD degrees, graduating from a high quality medical school.
Minimum of 4 years of industry experience (rare disease experience preferred but not required)
Translational research and early development experience (preferred but not required)
Must be originally boarded in a medical specialty; optimally in medical genetics, pediatric or adult neurology or other complex clinical fields dealing with chronic diseases and complex pathophysiology, or relevant experience.
Must be trained in GCP regulations, and be familiar with relevant ICH and FDA guidelines relevant to clinical development. Must have experience designing successful clinical studies in complex diseases requiring the management of patient variation, chronic irreversible disease and related complexities. Must be facile with statistical issues and be able to manage working with a statistician to design the analysis of clinical studies
Experience across all phases of clinical studies required, understanding and/or experience with post-approval commitments is an advantage
Ability to write clinical study reports and summaries for regulatory purposes","Why Join Us?
Be a hero for our rare disease patients

Ultragenyx is a biopharmaceutical company committed to developing treatments for rare and ultra-rare diseases. Founded in 2010, the company has rapidly built a diverse portfolio of small molecule, monoclonal antibody, mRNA and gene therapy candidates with the potential to address debilitating genetic diseases for which the unmet medical need is high, the biology for treatment is clear, and for which there are no approved therapies.

Developing new treatments for rare genetic diseases is challenging work. It takes courage, talent, and dedication to look past the easy answers and uncover new solutions that can make a meaningful impact. At Ultragenyx we push each other to perform at our very best because we never lose sight of our mission – to make a difference in our patients’ lives.
Come join our team during this exciting time of growth and opportunities!

Position Summary
ultracurious – Apply your biggest ideas in courageous ways

Ultragenyx is looking for an experienced physician with the passion and creativity to develop great medicines for rare and ultra-rare diseases. The individual will be a self-starter with excellent clinical capabilities and who is seeking to be part of an innovative team that will drive the drug development processes from start to finish. The successful candidate will be ready for a career defining experience and have the passion to drive a number of therapeutics for devastating diseases to final approval.
Responsibilities including, but not limited to:
Manage the process for the company's translational research and early development clinical studies effort to ensure the highest level of success, efficiency of clinical protocols, FDA review and successful product launches
Successfully lead cross-functional teams focusing on clinical development strategy
Be an effective manager of physician scientists and/or clinical science specialists
Direct and oversee phase one and two clinical studies, including clinical strategy and design, protocol writing, Institutional Review Board (IRB) applications, training, monitoring, documentation and data analysis
Work with current and future partners to initiate and monitor clinical studies including evaluation
Reviews and Approves procedures for the design and implementation of clinical protocols, data collection systems and final reports
Ensure that all clinical studies are appropriately designed and effectively executed and monitored
Provides safety surveillance guidance, acts as a medical monitor, and ensures adherence to cGCP requirements and all applicable regulatory references and guidelines
Participate in pre-submission, pre-market and other meetings with the FDA and other regulatory agencies, as needed
Manage outside consultants (consultants, etc.) to ensure data is accurately collected and analyzed in a cost effective fashion
Exhibits leadership skills within and outside of the organization (including people skills, mentoring, presentation skills and professional interaction)
Take a leadership role in proposal development to identify effective clinical and regulatory implementation strategies that are efficient in time and money, and hedge risk as needed.
Review and approve proposals for appropriate personnel assignments, time allocations, and budgets
Technical Requirements & Skills:
MD degree or MD, PhD degrees, graduating from a high quality medical school.
Minimum of 4 years of industry experience (rare disease experience preferred but not required)
Translational research and early development experience (preferred but not required)
Must be originally boarded in a medical specialty; optimally in medical genetics, pediatric or adult neurology or other complex clinical fields dealing with chronic diseases and complex pathophysiology, or relevant experience.
Must be trained in GCP regulations, and be familiar with relevant ICH and FDA guidelines relevant to clinical development. Must have experience designing successful clinical studies in complex diseases requiring the management of patient variation, chronic irreversible disease and related complexities. Must be facile with statistical issues and be able to manage working with a statistician to design the analysis of clinical studies
Experience across all phases of clinical studies required, understanding and/or experience with post-approval commitments is an advantage
Ability to write clinical study reports and summaries for regulatory purposes
People Management Skills:
Clarify Direction & Priorities: Set clear direction for your direct reports aligned with functional and corporate goals. Reprioritize work, as needed. Enable others to do their job well by communicating information and making decisions in a clear, timely manner.
Partner & Collaborate Effectively: Listen to and value others’ thoughts and ideas. Demonstrate effective partnership both within and outside your team. Achieve results with and through others.
Support Learning & Growth: Demonstrate self-awareness, humility, and curiosity in service of self-development. Provide regular coaching and feedback that will inspire growth and improvement in others.
#LI-LC1

Ultragenyx Pharmaceutical Inc. is an equal opportunity employer. We understand that diversity of thought, culture and background will help us do the best for our patients. We prohibit unlawful discrimination based on race, color, religion, gender, sexual orientation, gender identity/expression, national origin/ancestry, age, disability, marital and veteran status.

Note to External Recruiters: All candidate activity and open positions are managed strictly through our Human Resources Department. Our Human Resources Department kindly requests that recruiters not contact employees/hiring managers directly in an attempt to solicit business and present candidates. Please note that failure to comply with this request will be a factor in determining a professional relationship with our organization. Submission of unsolicited resumes prior to an agreement set in place between the Human Resources Department and the recruiting agency will not create any implied obligation. Inquiries on developing a recruiting relationship with us, may be directed to: talentacquisition@ultragenyx.com."
2,"Director, Biostatistics","Novato, CA 94949",Novato,CA,94949,None Found,None Found,None Found,"
Lead in product / indication level tasks including regulatory interactions and filing, and ensure statistical integrity; contribute strategically to the supporting projects from statistics perspective
Contribute in study level tasks from statistics perspective, including: Contribute in study design and sample size determination; Author/review statistics section in the protocol, SAP and DMC charter; Create/review study randomization files; Develop TLG shell and specification Review CRFs and other study documentations; Active participation in study related meetings
Works collaboratively within biometrics teams and with cross-functional teams to meet product deliverables and timelines for statistical data analysis and reporting
Ensure statistical integrity of deliverables; provide statistically sound scientific methodology input to meet project objectives and regulatory statistical and data requirements
Independently conduct analyses suggested by the data; Propose new/novel statistical methodological approaches to improve the efficiency and sensitivity of study results
Contribute in developing standards and research in advanced statistical methodologies
Author/review regulatory documents or scientific publications
Mentor junior team members",None Found,"
PhD in Statistics or Biostatistics with a minimum of 8 years (min 11 years for master) of post-graduate experience in the clinical trials setting in the pharmaceutical industry
Experienced in NDA / BLA / MAA activities as a key contributor from statistics perspective and direct involvement in regulatory interaction
Experienced as product lead statistician and contribute in strategy discussion in cross functional settings; Experienced in managing multiple products and studies and being able to prioritize
Experienced in study level work including authoring SAP and TFL specification
Familiar with ICH guideline, FDA / EMA / other regulatory authority guidance
Solid understanding of mathematical and statistical principles; Experience in statistical methods analyzing longitudinal data is preferred
Detailed-oriented with organization, problem solving and prioritization skills; demonstrated the ability to prioritize and complete multiple tasks according company timeline
Familiar with SAS and R; preferably with knowledge in CDISC including SDTM, ADaM, and controlled terminologies","Why Join Us?
Be a hero for our rare disease patients

Ultragenyx is a biopharmaceutical company committed to developing treatments for rare and ultra-rare diseases. Founded in 2010, the company has rapidly built a diverse portfolio of small molecule, monoclonal antibody, mRNA and gene therapy candidates with the potential to address debilitating genetic diseases for which the unmet medical need is high, the biology for treatment is clear, and for which there are no approved therapies.

Developing new treatments for rare genetic diseases is challenging work. It takes courage, talent, and dedication to look past the easy answers and uncover new solutions that can make a meaningful impact. At Ultragenyx we push each other to perform at our very best because we never lose sight of our mission – to make a difference in our patients’ lives.
Come join our team during this exciting time of growth and opportunities!


Why Join Us?

Ultragenyx is a clinical stage biotechnology company committed to bringing to market novel products for the treatment of rare and ultra-rare diseases with an initial focus on serious debilitating metabolic genetic diseases. Founded in 2010, the company has rapidly built a diverse portfolio of both large and small molecule candidates with the potential to address diseases for which the unmet medical need is high, the biology for treatment is clear, and for which there are no approved therapies.

Come join our team during this exciting time of growth and opportunities!

We are headquartered in Novato, CA, 25 miles north of San Francisco, and we also have an office in Brisbane, CA, 10 miles south of San Francisco, and Basel, Switzerland.

This is an exciting opportunity to join an emerging biotechnology company focused on developing therapeutics for patients with rare diseases. Ultragenyx is looking for an experienced Biostatistician who is proactive and a self-starter with advanced technical and communication skills.

Reporting to the Senior Director of Biostatistics, the candidate acts as program statistical lead; provides technical leadership and biostatistical support on the design and conduct of clinical studies; participates in the evaluation, interpretation, and reporting of study results, in regulatory submissions to the FDA and other regulatory agencies; performs statistical analyses and develops tracking systems for data quality assurance.

The candidate coordinates the effort across therapeutic areas to identify, develop and implement departmental standards, applications, processes and training. The candidate provides timely support to the project teams on all statistical matters according to the project strategies and is responsible for addressing all administrative functions required for project management and milestones, identifying and communicating changes in project requirements that may affect key deliverables at the project level.
Responsibilities, including but not limited to:
Lead in product / indication level tasks including regulatory interactions and filing, and ensure statistical integrity; contribute strategically to the supporting projects from statistics perspective
Contribute in study level tasks from statistics perspective, including: Contribute in study design and sample size determination; Author/review statistics section in the protocol, SAP and DMC charter; Create/review study randomization files; Develop TLG shell and specification Review CRFs and other study documentations; Active participation in study related meetings
Works collaboratively within biometrics teams and with cross-functional teams to meet product deliverables and timelines for statistical data analysis and reporting
Ensure statistical integrity of deliverables; provide statistically sound scientific methodology input to meet project objectives and regulatory statistical and data requirements
Independently conduct analyses suggested by the data; Propose new/novel statistical methodological approaches to improve the efficiency and sensitivity of study results
Contribute in developing standards and research in advanced statistical methodologies
Author/review regulatory documents or scientific publications
Mentor junior team members
Requirements:
PhD in Statistics or Biostatistics with a minimum of 8 years (min 11 years for master) of post-graduate experience in the clinical trials setting in the pharmaceutical industry
Experienced in NDA / BLA / MAA activities as a key contributor from statistics perspective and direct involvement in regulatory interaction
Experienced as product lead statistician and contribute in strategy discussion in cross functional settings; Experienced in managing multiple products and studies and being able to prioritize
Experienced in study level work including authoring SAP and TFL specification
Familiar with ICH guideline, FDA / EMA / other regulatory authority guidance
Solid understanding of mathematical and statistical principles; Experience in statistical methods analyzing longitudinal data is preferred
Detailed-oriented with organization, problem solving and prioritization skills; demonstrated the ability to prioritize and complete multiple tasks according company timeline
Familiar with SAS and R; preferably with knowledge in CDISC including SDTM, ADaM, and controlled terminologies
#LI-TK1


Ultragenyx Pharmaceutical Inc. is an equal opportunity employer. We understand that diversity of thought, culture and background will help us do the best for our patients. We prohibit unlawful discrimination based on race, color, religion, gender, sexual orientation, gender identity/expression, national origin/ancestry, age, disability, marital and veteran status.

Note to External Recruiters: All candidate activity and open positions are managed strictly through our Human Resources Department. Our Human Resources Department kindly requests that recruiters not contact employees/hiring managers directly in an attempt to solicit business and present candidates. Please note that failure to comply with this request will be a factor in determining a professional relationship with our organization. Submission of unsolicited resumes prior to an agreement set in place between the Human Resources Department and the recruiting agency will not create any implied obligation. Inquiries on developing a recruiting relationship with us, may be directed to: talentacquisition@ultragenyx.com."
3,Statistical Scientist- Clinical Development and Personalized Healthcare,"South San Francisco, CA 94083",South San Francisco,CA,94083,None Found,None Found,None Found,None Found,None Found,None Found,"The Position

Genentech Biostatistics seeks talented and self-motivated statisticians to support clinical development activities and Personalized Health Care (PHC) projects in either early or late stage of clinical development. Our statisticians work as full members and key partners of multi-disciplinary teams to provide statistical and analytical leadership. We combine our expertise in applied statistics with our business knowledge to define and solve the right problems and to provide strategic input to maximize business impact. Teamwork and effective communication are essential. Candidates should be experienced in data analysis and expect to pursue projects involving statistical applications to molecular data for clinical development.

The statistician supporting late stage development will partner with senior scientists in biostatistics, clinical, safety, epidemiology, regulatory, research, and manufacturing on clinical development projects, research applications, development science applications, and/or product manufacturing applications. This typically includes partnering with senior scientists in the creation of strategies to address drug development needs and designing experiments, and evaluating and preparing study results for health authorities and the medical/research community. For clinical development programs, the Statistical Scientist typically is the lead Biostatistics representative on cross-development global clinical study teams.

The statistician supporting early development splits their time between molecule and non-molecule projects. For molecule projects, they will partner with senior scientists in biostatistics, clinical, safety, epidemiology, regulatory, research, and manufacturing on clinical development projects, research applications, development science applications, and/or product manufacturing applications. This typically includes partnering with senior scientists in the creation of strategies to address drug development needs and designing experiments, and evaluating and preparing study results for health authorities and the medical/research community. For early development programs, the Statistical Scientist typically is the lead Biostatistics representative on cross-functional development, clinical and execution teams. For non-molecule projects, they are expected to have expertise and interest in a variety of data types including in genomics, imaging, and digital health data or related fields to support clinical development and personalized health care activities, including collaboration with research and biomarker scientists, computational biologists and computer scientists.

Job description (the statistician will either support early or late stage development):

Late Stage Clinical Development:
Member of clinical team, collaborating in preparation of Clinical Development Plans and target product profiles; typically lead statistician on cross-functional study management teams or sole statistician on early development project teams

Study Planning: Reviews study protocols, authors statistical sections of protocols, prepares the study randomization, develops the statistical and data analysis plans, develops independent data monitoring and endpoint committee charters

Study Conduct: Reviews case report forms to ensure protocol objectives are met and project standards are maintained. Develops statistical programs as necessary to perform analyses, review and approve analyses produced by statistical programming.

Analysis & Reporting: Authors the clinical study report, provides input into global health authority documents and regulatory response for health authority submissions. Contributes to study publications and presentations. Provides analytical and strategic leadership for exploratory activities such as personalized healthcare biomarker development and PK/PD modelling.

Leads cross-functional teams in overseeing the generation of health authority submission datasets and associated documentation

Participates in health authority meetings

Early Stage Clinical Development and Personalized Health Care (PHC):

Serves as Biostatistics representative on clinical development teams, partners with cross-functional members and provides statistical and strategic input on clinical development plans.

Looks beyond the statistical aspects, collaborating actively to promote rigor in the planning, conduct, analysis, interpretation and reporting of clinical and nonclinical experiments to meet project objectives, including clinical pharmacology trials and exploratory project activities such as biomarkers and PK/PD analysis.

Provides strategic and analytic support for internal review and decision making.

Collaborates with research, biomarker and computational scientists on personalized health care projects including in support of clinical development projects, disease areas and presentations/publications.

Consults and provides statistical training to key stakeholders.

Functional Area:
Understand and apply business requirements and processes. Participates in functional training.

Keep abreast of new developments in statistics, drug development, and regulatory guidance through literature review, conference attendance, etc.

Contributes to the biostatistics/scientific community by partnering with senior staff, mentoring junior colleagues, and participating in internal/external initiatives.

Job Qualifications: (Job level will be matched according to candidate’s experiences.)

Ph.D. or MSc in statistics or biostatistics or related fields

Good knowledge of theoretical and applied statistics including methods in advanced analytics

Very good knowledge and experience applying statistical methods to drug development

Good understanding of regulatory guidelines in a pharmaceutical research setting

Understands and applies business requirements and processes

Understands and respects cultural differences when interacting with colleagues in the global work place

Accomplishes responsibilities with little supervision

Effective Communication and Collaboration Skills (including statistical consulting skills, interpersonal skills to contribute effectively in cross-functional team settings, ability to influence others without authority, ability to build strong collaborative relationships with scientific and non-scientific partners)

Good Project management skills (including ability to manage scope and effectively delegate to other functions, staff, contractors and external vendors)

Good Strategic Agility (including problem-solving and critical thinking skills, ability to drive drug development strategies, agility that extends beyond statistical aspects)

Evident Drive for Results (Demonstrates interest and ability to learn new things, takes initiative, welcomes problems as challenges; finds solutions to technical problems)

Effective mentoring other statisticians

Experience with all data types including high dimensional data

#LI-PDBA1

Who We Are
A member of the Roche Group, Genentech has been at the forefront of the biotechnology industry for more than 40 years, using human genetic information to develop novel medicines for serious and life-threatening diseases. Genentech has multiple therapies on the market for cancer & other serious illnesses. Please take this opportunity to learn about Genentech where we believe that our employees are our most important asset & are dedicated to remaining a great place to work.
The next step is yours. To apply today, click on the ""Apply online"" button.
Genentech is an equal opportunity employer & prohibits unlawful discrimination based on race, color, religion, gender, sexual orientation, gender identity/expression, national origin/ancestry, age, disability, marital & veteran status. For more information about equal employment opportunity, visit our Genentech Careers page ."
4,Research Associate - SURU,"San Francisco, CA",San Francisco,CA,None Found,None Found,"
BA/BS in related field, or a combination of relevant experience and education
Experience and comfort working in a medical setting and with medical providers
Proficient computer and data entry skills including Excel, Access, and PowerPoint
High level of attention to detail and ability to handle a variety of tasks with a high degree of accuracy
Ability to work both in a team and independently
Knowledge of and sensitivity to diverse communities, particularly communities of color and gay/lesbian/bisexual/transgender community
",None Found,None Found,None Found,None Found,"Heluna Health invites applications for the position of Research Associate in the Substance Use Research Unit of the San Francisco Department of Public Health.
Under the supervision of the Study Coordinator, the Research Associate will be responsible for a wide variety of duties and projects related to substance use and HIV research. This is a time-limited, grant-funded position with non-standard work hours (may require work during evening hours).


This is a full-time, temporary, grant funded and benefited position. Employment is provided by Heluna Health.

ESSENTIAL FUNCTIONS

Support the investigators and research team in the conduct of research protocols within the guidelines of Good Clinical Practice
Conduct chart reviews of electronic medical records for participant eligibility
Conduct medical chart abstractions for data collection of enrolled participants
Assist the Research Scientist and Statistician with preparing, cleaning and extracting data for analysis
Screen potential participants over the phone, obtaining informed consent, and proactively managing participant scheduling and conducting study visits.
Conduct retention efforts for participants over the course of study follow-up schedule
Conduct structured assessment interviews with study participants
Other duties include performing quality assurance checks of study documents; entering study data into Access or Excel databases; support in developing and revising study documents including CRFs and standard operating procedures (SOPs); and administrative tasks related to studies
Other duties as assigned, including support in implementation of discrete projects to help advance ongoing studies within SURU


JOB QUALIFICATIONS

Minimum Qualifications

BA/BS in related field, or a combination of relevant experience and education
Experience and comfort working in a medical setting and with medical providers
Proficient computer and data entry skills including Excel, Access, and PowerPoint
High level of attention to detail and ability to handle a variety of tasks with a high degree of accuracy
Ability to work both in a team and independently
Knowledge of and sensitivity to diverse communities, particularly communities of color and gay/lesbian/bisexual/transgender community


Desired Qualifications

Advance degree in health/mental health or related field
Experience with evaluation research
Experience performing chart abstraction for research purposes
Excellent writing and interpersonal communication skills
Interest and ability to learn a wide array of techniques and technologies and to cross-train to support the duties of other staff members
Familiarity with Microsoft Word, Excel, and Access
Experience with clinical trials research and/or healthcare settings
Experience working with challenging participants, or participants with multiple diagnoses
Knowledge of regulations, policies and procedures related to the protection of human subjects and confidentiality
Any other knowledge and skills useful to this research group is considered a plus (software skills, presentation experience, database knowledge, basic website maintenance, etc.)



PHYSICAL DEMANDS

Stand Frequently

Walk Frequently

Sit Frequently

Handling / Fingering Occasionally

Reach Outward Occasionally

Reach Above Shoulder Occasionally

Climb, Crawl, Kneel, Bend Occasionally

Lift / Carry Occasionally - Up to 50 lbs

Push/Pull Occasionally - Up to 50 lbs

See Constantly

Taste/ Smell Not Applicable

Not Applicable Not required for essential functions

Occasionally (0 - 2 hrs/day)

Frequently (2 - 5 hrs/day)

Constantly (5+ hrs/day)


WORK ENVIRONMENT

General Office Setting, Indoors Temperature Controlled

Heluna Health is an Affirmative Action, Equal Opportunity Employer that encourages minorities, women, veterans, and disabled to apply.

All qualified applicants will be considered for this position in accordance with the San Francisco Fair Chance Ordinance"
5,Master's Program Coordinator -,"Berkeley, CA",Berkeley,CA,None Found,None Found,None Found,None Found,None Found,None Found,None Found,"About Berkeley

The University of California, Berkeley, is one of the world’s most iconic teaching and research institutions. Since 1868, Berkeley has fueled a perpetual renaissance, generating unparalleled intellectual, economic and social value in California, the United States and the world. Berkeley’s culture of openness, freedom and acceptance—academic and artistic, political and cultural—make it a very special place for students, faculty and staff.

Berkeley is committed to hiring and developing staff who want to work in a high performing culture that supports the outstanding work of our faculty and students. In deciding whether to apply for a staff position at Berkeley, candidates are strongly encouraged to consider the alignment of the Berkeley Workplace Culture with their potential for success at http://jobs.berkeley.edu/why-berkeley.html.

Application Review Date

The First Review Date for this job is: July 31, 2019

Departmental Overview

The Statistics Department in the Division of Math & Physical Sciences, College of Letters & Sciences was originally established in 1938 as the first center in the country for statistical research by Jerzy Neyman, one of the intellectual giants of the twentieth century. Since its inception, graduates and faculty of Berkeley have shaped the foundations of statistics. The Statistics Department currently includes approximately 30 active faculty and emeriti, including six members of the National Academy of Science. The department is consistently ranked as one of the two premier graduate programs in statistics nationally. The department has an undergraduate, a professional master’s degree, and a PhD program, with about 100 BAs, 40 MAs and 10 PhDs awarded each year. Courses in the department enroll more than 6,000 students annually.

The Statistics Masters is a one-year, full-time professional degree program designed to prepare students for careers in industry. The Masters Program Coordinator will direct the administration of the program including: academic advising, recruitment, admissions, financial aid, the evaluation and awarding of fellowships, student orientation, career counseling, internships, and all other activities related to the Professional Masters Program. The incumbent will advise and make recommendations to the Department Chair, Department Manager, Faculty Chair of the Masters Program, and masters students on all areas of the program.

This position will also work closely with the Director of the Industry Alliance Program (IAP) to connect our industry members to the graduate student talent in Statistics, including acting as a liaison with industry recruiters to plan and run student recruitment events as well as identifying internship and career opportunities in industry for Statistics’ masters students.

Responsibilities

Within the Statistics Department, the incumbent is responsible for the Professional Masters Degree in Statistics.

Works closely with the Department Chair, Manager and the Faculty committee, in key issues of the structure, policies, and operation guidelines for the Professional Masters Program in Statistics.Evaluates complex student services issues and determines best approaches for the program and the department.Actively participates in long-range strategic planning for the Masters program.Prepares program reports and coordinates program proposals required by the UC Office of the President.
Academic Advising:
Directs and coordinates the administration of the Professional Degree Program, including a full range of student services to current and prospective masters degree students on all aspects of the program from admission through the awarding of degree.Identifies and resolves intricate student issues/grievances such as alleged discrimination, complex grade dispute issues, and students' personal crises; approves, denies or makes recommendations regarding petition exceptions that affect the requirements of multiple departments.Works with the Chair and Course & Curriculum Officer to facilitate new course approval working with the Academic Senate, Graduate Division, and similar organizations.Identifies and develops evaluations tools for courses, instructors and programs.Evaluates course curriculum through student/participant evaluations and level of interest shown.
Recruitment and Admissions:
Determines best approaches for outreach strategies, and helps identify and evaluate prospective program partnerships.Coordinates reviews and resolves specific issues for international and professional students.Oversees the enrollment of admitted students, evaluates students on degree requirements and petitions for exceptions.Manages MA Student Visit Day as part of recruitment.Works with the Faculty Chair to plan and manages summer boot-camp for incoming masters students and manages all activities the masters student orientation.Assists in the planning and execution of commencement with the rest of the student services team.
Financial Aid:
Manages the PDST for a program governed by University return-to-aid requirements.Resolves PDST and financial aid issues, which can be extremely sensitive, specialized, or complex.Administers the Professional Degree Supplemental Tuition funds according to guidelines. Establishes departmental guidelines for financial aid awards within the program, which must be compliant with campus and University policies and departmental goals.
Career Counseling:
Coordinates industry recruitment events, tech talks and career info sessions, interview days with graduate students and maintaining the student resume/CV database.Works with industry partners to identify internship and career opportunities for students in the program.May give presentations to prospective employers.Develops and leads career workshops to help students develop professional skills such as resume and cover letter writing skills, interviewing skills, and salary negotiations.Holds career counseling advising sessions for students in the program

Required Qualifications

Advanced knowledge of advising and counseling techniques.Experience and skills in career counseling, including experience running career counseling workshops.Strong computer application programs skills.Skills in monitoring/assessing people, processes or services, to make improvements.Skills in project management, social perceptiveness to be aware of others' reactions and understanding why they react as they do.Ability in problem identification, reasoning, ability to develop original ideas to solve problems, persuasion, leadership.Interpersonal skills.Multicultural competencies; ability to work with diverse populations.Strong oral and written skills.

Preferred Qualifications

Knowledge of the Statistics field post-degree employment opportunities and practicesExperience working as a statistician and/or in private industry.Demonstrated experience in program management, preferably in the context of higher education-industry relations.Training in project management.Statistical background.

Salary & Benefits

This is an exempt, monthly paid position. Annual salary is commensurate with experience within the range of $55,000.00 - $75,000.00.

For information on the comprehensive benefits package offered by the University visit:
http://ucnet.universityofcalifornia.edu/compensation-and-benefits/index.html

How to Apply

Please submit your cover letter and resume as a single attachment when applying.

Conviction History Background

This is a designated position requiring fingerprinting and a background check due to the nature of the job responsibilities. Berkeley does hire people with conviction histories and reviews information received in the context of the job responsibilities. The University reserves the right to make employment contingent upon successful completion of the background check.

Equal Employment Opportunity

The University of California is an Equal Opportunity/Affirmative Action Employer. All qualified applicants will receive consideration for employment without regard to race, color, religion, sex, sexual orientation, gender identity, national origin, disability, or protected veteran status. For more information about your rights as an applicant see: http://www.eeoc.gov/employers/upload/poster_screen_reader_optimized.pdf
For the complete University of California nondiscrimination and affirmative action policy see:
http://policy.ucop.edu/doc/4000376/NondiscrimAffirmAct"
6,Data Science Engagement Manager Analytic Manager 4,"San Francisco, CA",San Francisco,CA,None Found,None Found,"
8+ years of experience in one or a combination of the following: reporting, analytics, or modeling
4+ years of management experience
2+ years of statistical modeling experience",None Found,None Found,None Found,None Found,"Overview:
Wells Fargo technology teams drive innovation to create a more powerful and fulfilling financial experience for our customers and team members. You will join more than 24,000 team members supporting 95 billion transactions annually in 10 countries. Our career opportunities span the technology spectrum: advanced analytics, big data, information security, application development, cloud enablement, project management and more.

SUCCESS PROFILE
Check out the top traits we're looking for and see if you have the right mix. Additional related traits listed below.

Analytical
Detail-oriented
Insightful
Inventive
Problem Solver
Curious
Benefits
Wells Fargo wants to help you get more out of life and take care of things outside the office to make life a little easier. We provide:

Medical, Dental and Vision
Employer Matching 401(k)
Tuition Reimbursment
Maternity and Paternity Leave
Paid Time Off
Responsibilties
Job Description
At Wells Fargo, we have one goal: to satisfy our customers’ financial needs and help them achieve their dreams. We’re looking for talented people who will put our customers at the center of everything we do. Join our diverse and inclusive team where you’ll feel valued and inspired to contribute your unique skills and experience.
Help us build a better Wells Fargo. It all begins with outstanding talent. It all begins with you.
The Enterprise Analytics and Data Science team is responsible for developing and deploying machine learning and AI solutions for a number of domain areas such as fraud prevention, credit risk, experience personalization, anomaly detection and operational cost improvement. Small teams of data scientists partner with business Subject Matter Experts and technology in delivering these solutions. Success for these initiatives is dependent on the right problem framing, the identification of data sources, frequent interactions with the business through the solutioning process, engagement with governance partners, etc. in addition to the actual data science work of building and testing predictive models.
We are looking for leaders who can be responsible for a portfolio of machine learning initiatives and play a facilitation role for business and technical tasks that are required for the data scientist performers to be successful in their roles. The role would be a key interfacing point for all external stakeholders to the project including technology, business customers, and governance partners. The position would also be heavily involved in upfront problem framing and solution design, arguably the most important stage of the project. Additionally the position would provide technical advice and guidance to the performers (as needed), at different key milestones within the engagement.
The ideal candidate on this effort would be an experienced analytic leader, ideally with prior experience in building and deploying statistical and data science models. They would need to be strong at understanding business situations and identifying analytic solutions that can aid decision making. They would have excellent people management and partnering skills. In addition to this, the ideal candidate will have a deep passion to stay abreast of advanced Machine Learning techniques as well vendor and industry AI solution capabilities and leverage this knowledge to be a thought partner for the data scientists as well as business stake holders at Wells Fargo.
Roles and responsibilities
– Managing a team of Data Scientist / Data Engineering performers
– Managing a portfolio of DS projects and playing the role of the “engagement manager”. The role would involve:
Helping finalize project scope working with business partnersOn-going touch-base with business partners and governance stakeholdersDefining priorities in partnership with the business partners during on-going developmentResource allocation from DS and DS (Data Engineer) pool for individual projectsApply the DS Project Delivery methodology
– Providing high level technical and analytic direction and guidance on individual ML projects
– Training and development leadership for the data science community
– Taking 1-2 areas of research and building out deep expertise, ensuring effective knowledge transfer and dissemination, identification and testing of new data science capabilities
– Identify new applications for machine learning across the company and work with business partners to pilot
Divisional Information:
Data Management and Insights (DMI) is transforming the way that Wells Fargo uses and manages data. Our work enables Wells Fargo to empower and inform our team members, deliver exceptional experiences for our customers, and meet the elevated expectations of our regulators. The team is responsible for designing the future data environment, defining data governance and oversight, and partnering with technology to operate the data infrastructure for the company. This team also provides next generation analytic insights to drive business strategies and help meet our commitment to satisfy our customers’ financial needs.

Required Qualifications

8+ years of experience in one or a combination of the following: reporting, analytics, or modeling
4+ years of management experience
2+ years of statistical modeling experience


Desired Qualifications

Strong analytical skills with high attention to detail and accuracy
A BS/BA degree or higher in a quantitative discipline
Ability to work and influence successfully within a matrix environment and build effective business partnerships with all levels of team members
Meeting facilitation experience in leading discussions that result in consensus and commitment


Other Desired Qualifications
4+ years managing or directing data scientist/ statistician/ data engineer teams
Technical skills: Familiarity and comfort with data pipelining and movement tools and tools for predictive analytics/ NLP/ machine learning
Strong analytical and problem solving experience to aid decision making, in areas such as pricing, credit risk, fraud analytics, marketing campaign design and analytics, operations optimization
Experience with agile project management methodologies for data science




Disclaimer

All offers for employment with Wells Fargo are contingent upon the candidate having successfully completed a criminal background check. Wells Fargo will consider qualified candidates with criminal histories in a manner consistent with the requirements of applicable local, state and Federal law, including Section 19 of the Federal Deposit Insurance Act.

Relevant military experience is considered for veterans and transitioning service men and women.

Wells Fargo is an Affirmative Action and Equal Opportunity Employer, Minority/Female/Disabled/Veteran/Gender Identity/Sexual Orientation.

ENT FINANCE"
7,"Senior Manager, Data Scientist","San Francisco, CA",San Francisco,CA,None Found,None Found,None Found,None Found,None Found,None Found,None Found,"Your Opportunity
Love using statistics to create insightful models, measure the effect of marketing activities, and make an impact on the quality of business decisions? Then we want you!

This is a great opportunity to apply your craft as a statistician/data scientist while working closely with business partners to deliver data-driven solutions.
We are looking for qualified candidates to design, build, and implement marketing mix models to guide marketing investment decisions. You will apply your statistical talent to develop quantitative models to measure and optimize cross channel marketing and promotional spending decisions.
Our large client base and multi-channel transaction volume offers a fertile data environment to uncover new insights and answers to key business questions. Our dynamic business generates many questions that provide lots of opportunity to get deep in data and have real impact.

Analytics and Business Insight (ABI) is a smart, fun team of 140+ that provide quantitative decision support to multiple business units across Schwab. We help our business partners better understand the needs and behaviors of our prospects and clients through analytics, data science, market research, and business intelligence.
What you’re good at
You will work collaboratively with marketing partners, analysts, and data engineers to develop and automate marketing mix optimization solutions. You’ll use your analytic, modeling, and consultation skills to help marketing leaders better understand what worked and guide them in making the best spending decisions going forward. This role will require technical sophistication, marketing knowledge, and hands on expertise to create actionable solutions to solve real-world marketing problems.
This role supports multiple marketing units across the Schwab enterprise.
Work with marketing and analytic partners to quantify the impact of marketing investment decisions
Get hands-on with big data to analyze time series leveraging the latest platforms, statistical modeling and optimization techniques
Formulate panel based time-series regression models using hierarchical Bayesian modeling techniques
Design, conduct, and analyze experiments to quantify the impact of marketing treatments
Analyze observational data to quantify the effect of promotional events and offers
Leverage tools and platforms like Anaconda Enterprise, Python, R and SAS to apply algorithms and analytic models to big and small data problems
Formulate fixed or mixed effect regression model specifications
Build regression models under a panel-based hierarchical Bayesian framework

What you bring
Experience with conducting due-to and sensitivity analysis
Explain your insights to a non-technical audience
Creatively think of original solutions for the real world
Thought leadership in using marketing mix models to improve marketing decisions
Experience in solving complex marketing problems using quantitative models

Even better
Experience implementing STAN/MCMC R packages to estimate regression coefficients
Experience implement optimization algorithms using non-linear techniques
Business acumen: Understanding how marketing and promotions grow acquisition and improve retention. Quickly grasp the big picture. Know how to probe beyond stakeholders’ stated requests to understand what is truly needed to capture and drive business value.
What you have
B.S. degree in Statistics, Mathematics, Economics, Mathematics, Operations Research, or similar quantitative field
5+ years’ of experience in statistical modeling and analytics
Expertise in R and SQL. Comfort in Python and SAS
Desire to learn all aspects of big data and analytics projects including scoping business requirements, wrangling data, approaching business problems with analytic rigor, developing reusable data products and visualizing data to surface insights that drive business value and impact.

Even better
Enthusiastic quick learner who loves to model and code, has a solid statistical foundation and wants to expand their data science experience
Experience using statistics and machine learning to solve complex business problems
Experience in financial services is a plus but not a requirement"
8,Sr Investor Analytics Analyst,"San Francisco, CA",San Francisco,CA,None Found,None Found,None Found,None Found,None Found,None Found,None Found,"Current Employees of LendingClub: Please apply via your internal Workday Account
LendingClub (NYSE: LC) was founded in 2007 under the belief that a technology and data-driven marketplace can improve the way people access and invest in credit, creating value for both sides. Since then, we've helped millions of Americans take control of their debt, pursue their dreams, and invest in their future – all in a fair, transparent, and affordable way. Today we’re the world’s largest online credit marketplace, facilitating billions of dollars in loans annually, and we’re leading the governance of a new industry by developing ethical, responsible ways to bring greater value and better opportunities to our members. Everyone deserves a better financial future and our team is committed to making that a reality.
About the Role
Lending Club’s Investor Group is responsible for raising highly diversified capital to fund loan products on the platform through retail customers. The team is passionate about building investment products that provide for a great customer experience while providing access to unique asset classes. The Investor Group partners with dedicated legal, finance and operations teams to deliver compelling investment solutions for clients.
What You'll Do
This is an exciting opportunity to join a highly analytical, data-centric team at a fast growing FinTech company. You will work with Lending Club’s largest investors including hedge funds, asset managers, and banks partnering internally with all stakeholders from Sales, Risk, Product and Data to help drive insights and develop tools that benefit LendingClub’s investor base.
Build analytical framework to monitor risk and return performance across all Lending Club asset classes (Prime and Near Prime Installment loans, Auto, Patient Finance and Small Business) by vintage and generate insights
Design funding structures for building and testing new credit products
Analyze investor strategies and performance and suggest creative solutions to reach target returns
Participate in investor roadshows and meetings to provide insights on expected portfolio returns, upcoming product features and credit strategy enhancements and their impact on portfolios
Market / Investor research to drive the creation of new products and improve existing products, and to have an impact on Lending Club strategy
Develop metrics, and support investor communication for credit related topics across all investor channels (Retail, Institutional and Funds)
Develop investor analytics capabilities including internal and client-facing tools and reporting
Support credit-related investor client due diligence
About You
1-3 years of experience in risk management analytics and/or portfolio analytics at a fixed income/credit fund
Experience analyzing complex data and building statistical models (e.g., as a statistician or data scientist)
Bachelor’s degree or higher in a quantitative field (e.g., statistics, finance, operations research, economics, computer science, mathematics, physics, or engineering)
Intermediate to advanced experience in Python and SQL
Excellent social skills that enable you to establish rapport with peers and senior management
Excellent written and verbal communication skills
Willingness to learn and thrive in a rapidly changing environment

LendingClub is an equal opportunity employer and dedicated to diversity and inclusion in the workplace. We do not discriminate on the basis of race, religion, color, national origin, sex, gender, gender identity, sexual orientation, age, marital status, pregnancy status, veteran status, or disability status. We believe that a variety of perspectives will make our teams and business stronger as we work together to transform the traditional banking system."
9,Statistician,"San Francisco, CA",San Francisco,CA,None Found,None Found,None Found,None Found,None Found,None Found,None Found,"POSITION DEFINITION:
We are seeking a full-time statistician, epidemiologist or health services researcher to join an active research program focused on using “big data” to construct cohorts and answer clinically relevant questions in the public health field. Individuals with a background in epidemiology, statistics, health services research or related field are welcome to apply to join a general medicine/public health focused research program based in the San Francisco VA. This job involves working directly with UCSF researchers and SFVA Faculty.

Current studies include:

1) Mimicking a clinical trial using national VA and Medicare data
2) Examining the role of social determinants of health on outcomes
3) Research on health outcomes in patients with posttraumatic stress disorder
4) A new area of research for the lab includes examining the association of cannabis use with health outcomes (see https://phprg.ucsf.edu/), and examining public opinion on beliefs and attitudes towards cannabis use.

The incumbent will be responsible for developing analysis plans, performing and interpreting statistical analyses, and contributing to research publications and presentations.


Essential Functions:

Data extraction and data cleaning to create analytic datasetsDeveloping cohortsConducting statistical analysesContribute to research publications and presentationsTeam work

Opportunities for skill development and career enhancement are available as part of this position.
Job Requirements:

MS in biostatistics, epidemiology, data science or related fieldAt least 2 years prior experience in the analysis of clinical data with experience in large database analysesExperience in programming and cleaning dataProficient in SAS, Stata or RProficient in SQLExperience with a wide range of statistical methods including multivariable linear and logistic regression, GEE and linear mixed models, survival analysis, propensity score methods, multiple imputation, marginal structural modeling and meta-analysis.Strong computer skills and ability to apply study-specific softwareAbility to work with text data a plusPast experience using VA data a plusStrong interpersonal, written/oral communication, and organizational skillsAble to manage multiple projects with minimal supervisionAbility to work independently as well as part of a team"
10,Statistician,"Oakland, CA 94612",Oakland,CA,94612,None Found,None Found,None Found,None Found,None Found,"
Doctoral degree in a quantitative discipline, such as statistics, biostatistics, applied mathematics, or a related field
Expertise in statistical methods such as program evaluation, experimental design, natural language processing, Bayesian inference, hierarchical/multilevel modeling, longitudinal data analysis, quality measurement, and/or predictive modeling
Fluency in one or more of the following statistical programming languages: R, Python, Stan, SAS, Stata, and/or Julia
Excellent written and oral communication skills, including an ability to translate statistical methods and findings for a non-technical audience
Experience contributing to proposals preferred
Subject-matter knowledge in the health policy field preferred","Position Description:

Mathematica is a nationally recognized, nonpartisan research organization that conducts social policy research on health care, disability, education, welfare, nutrition, and other topics. Our mission is to improve public well-being by bringing the highest standards of quality, objectivity, and excellence to bear on the work we do for our clients, which include federal, state, and local government agencies, as well as private foundations. Mathematica’s workforce of more than 1200 social scientists, data analytics professionals, support staff and administrators is committed to providing the policymaking community with the evidence to build better social programs. We offer our employees a stimulating team-oriented work environment, competitive salaries, and a comprehensive benefits package, as well as the advantages of employee ownership.
We are looking for PhD-level statisticians to join our vibrant group of over 50 statisticians and data scientists. The contributions of our statisticians underpin our ability to produce crucial evidence and information for policy and decision makers. We provide support for staff to engage in professional activities such as journal publications and conference participation.
Position Responsibilities:
Analysis. Apply a wide array of statistical methods to evaluate social programs and policies, by designing rigorous studies, conducting analyses, visualizing results, interpreting findings, drafting reports, and presenting inferences to policymakers and other stakeholders
Methods development. Leverage deep technical expertise in statistical methodology to improve upon existing analytic methods for policy research
Mentorship. Oversee the analyses of junior statisticians and data scientists, and support their professional development
Business development. Author the quantitative methods sections of proposals for new research projects
Teamwork. Participate actively and thoughtfully in multidisciplinary teams
Position Requirements:

Doctoral degree in a quantitative discipline, such as statistics, biostatistics, applied mathematics, or a related field
Expertise in statistical methods such as program evaluation, experimental design, natural language processing, Bayesian inference, hierarchical/multilevel modeling, longitudinal data analysis, quality measurement, and/or predictive modeling
Fluency in one or more of the following statistical programming languages: R, Python, Stan, SAS, Stata, and/or Julia
Excellent written and oral communication skills, including an ability to translate statistical methods and findings for a non-technical audience
Experience contributing to proposals preferred
Subject-matter knowledge in the health policy field preferred
To apply, please submit a cover letter, resume, writing sample, and coding sample at the time of application. Review of applications will start in May 2019, applications completed before June 2019 will receive priority in consideration.
Various federal agencies with whom we contract require that staff successfully undergo a background investigation or security clearance as a condition of working on the project. If you work on such a project, you will be required to obtain the requisite security clearance.
Available Locations: Cambridge, MA; Washington, DC;

Other locations (Princeton, NJ; Chicago, IL; Oakland, CA; Seattle, WA; Woodlawn, MD) will be considered.
We are an Equal Opportunity Employer and do not discriminate against any employee or applicant for employment because of race, color, sex, age, national origin, religion, sexual orientation, gender identity, status as a veteran, and basis of disability or any other federal, state or local protected class."
11,Statistician,"San Francisco, CA",San Francisco,CA,None Found,None Found,None Found,None Found,"
Answer key business questions from customers using Helio data and model outputs
Analyze structured & unstructured data to develop insights on an ad-hoc basis
Develop customer-friendly visualizations to communicate key insights
Using feedback from Insights team and customers, iterate on work to improve output and build prototype products for eventual scaled deployment
Interface deeply with Helio product team, becoming an expert in what we have done and what would be possible to support the Insights product
Come up with creative ways to find and use data that significantly impacts our key business metrics",None Found,"
Degree (B.S/ M.S./Phd) preferably in statistics, Math, or related financial mathematics based field
2+ years professional experience in statistics, ideally at an early/mid-stage startup
Prior experience providing actionable insights to business teams
Experience with ML techniques, especially unsupervised techniques likes clustering and topic modeling
Ability to write code in at least one programming language, preferably Python
Excellent communication skills – Must be able to articulate analyses and methodologies clearly and communicate insights in an easily accessible way to the team & entrepreneurs (the latter in conjunction with Insights business development team)
Must be excited about working in a fast and changing environment where solutions have not been already defined","CircleUp harnesses the power of machine learning and predictive analytics to discover some of the fastest-growing companies in the consumer & retail sector. Our mission is to help entrepreneurs thrive by giving them the resources and capital they need. We are building a predictive data system called ""Helio"" to bring the data-driven revolution that has occurred in the public markets to the private markets, starting with consumer & retail.
We are working on challenging problems in information retrieval, entity resolution, and machine learning. We are developing an in-depth knowledge graph of all private companies by mining vast amounts of data to successfully rewrite the rules on how private companies are evaluated.
We are seeking a data scientist who will work as a member of our Insights team delivering insights to entrepreneurs. Partnering closely with our business team members, you will work directly with Helio data and artifacts, developing new insights and visualizations to help entrepreneurs understand and tell the story of their company's performance and best position themselves for long term success.
CircleUp has been named one of the Top 5 Most Disruptive Companies in Finance by CNBC, one of the 50 Best FinTech Innovators by KPMG, Top 3 Most Innovative Companies within Data Science by Fast Company and one of America's Most Promising Companies by Forbes. We are backed by top-tier investors including Google Ventures, Union Square Ventures (backers of Etsy/Kickstarter), and the ex CEOs/Presidents of Goldman Sachs, Morgan Stanley, Thomson Reuters, the Stanford Endowment and Capital One.
Responsibilities:
Answer key business questions from customers using Helio data and model outputs
Analyze structured & unstructured data to develop insights on an ad-hoc basis
Develop customer-friendly visualizations to communicate key insights
Using feedback from Insights team and customers, iterate on work to improve output and build prototype products for eventual scaled deployment
Interface deeply with Helio product team, becoming an expert in what we have done and what would be possible to support the Insights product
Come up with creative ways to find and use data that significantly impacts our key business metrics
Requirements:
Degree (B.S/ M.S./Phd) preferably in statistics, Math, or related financial mathematics based field
2+ years professional experience in statistics, ideally at an early/mid-stage startup
Prior experience providing actionable insights to business teams
Experience with ML techniques, especially unsupervised techniques likes clustering and topic modeling
Ability to write code in at least one programming language, preferably Python
Excellent communication skills – Must be able to articulate analyses and methodologies clearly and communicate insights in an easily accessible way to the team & entrepreneurs (the latter in conjunction with Insights business development team)
Must be excited about working in a fast and changing environment where solutions have not been already defined"
12,Senior Biostatistician II,"San Francisco, CA",San Francisco,CA,None Found,None Found,None Found,None Found,None Found,None Found,None Found,"Summary:
Independently serve as clinical study statistician on multiple projects with limited supervision. Provide expertise in the design and development of study protocols and case report forms. Develop statistical analysis plans, perform statistical analyses, and interpret results. Develop SAS programs of varying complexity to analyze and report clinical data. Review programming specifications and outputs. Recognize inconsistencies and initiate resolution of data problems. Collaborate in the preparation and review of clinical study reports. Ensure adherence to regulatory and company standards.

Responsibilities:

Perform duties of a study statistician to support clinical trials. Oversee statistical aspects in the design of clinical trials
Provide statistical input to study protocols
Perform sample size and power calculations
Review CRFs and edit checks
Develop SAP and create table, listing, and figure shells
Review programming specifications and derived datasets
Perform or review statistical analysis as defined in SAP
Code complex statistical analyses as needed
Interpret results and write sections of documents; present results
Support program lead statisticians in preparations for interactions with regulatory agencies
Read and understand medical/clinical literature as required by duties
Develop and assist in maintenance of department tools, templates, guidelines, SOPs, and systems
Working knowledge of FDA regulations, ICH GCP guidelines, the drug development process
Work on problems of diverse scope in which analysis of data requires evaluation of identifiable factors
Exercise judgment within generally defined practices and policies in selecting methods and techniques for obtaining solutions

Qualifications:

MS in statistics, biostatistics, or related field with 4-7 years of experience, or PhD with 2-5 years of experience
Strong SAS programming skills
Working knowledge of clinical trial design
Knowledge of FDA regulations, ICH GCP guidelines, the drug development process
Excellent verbal and written communication skills
Demonstrated initiative and motivation
Good organizational skills with the ability to adapt and adjust to changing priorities
Experience working in an environment where knowledge of and adherence to SOPs and regulatory guidelines are required
Able to prioritize work and complete deliverables to timelines with limited supervision
Detail and process oriented

Preferred:

Oncology experience preferred
Knowledge of R
Simulation experience

As the leading employer in our industry in the Pacific Northwest, Seattle Genetics is proud to offer a competitive total compensation package as well as a comprehensive benefits program designed to support the whole lives of our employees and their families. Benefits include medical, vision and dental coverage, group and supplemental life insurance, 401(k) with company match, tuition reimbursement, relocation assistance and much more. To learn more about Seattle Genetics, please visit www.seattlegenetics.com.
Seattle Genetics is an equal opportunity employer. All qualified applications will receive consideration for employment without regard to race, age, gender identity, sexual orientation, color, religion, sex, marital status, national origin, protected veteran status, disability status, or any other status protected by federal, state, or local law."
13,"Senior Team Manager, Data Scientist","San Francisco, CA",San Francisco,CA,None Found,None Found,None Found,None Found,None Found,None Found,None Found,"Your Opportunity
Are you all about leveraging data to impact the quality of business decisions? Love building statistical models to grow customer acquisition and improve retention? Then we want you!

This is a great opportunity to apply your craft as a statistician/data scientist while working with business partners to deliver data-driven solutions.
We are looking for qualified candidates to lead in the design and implementation of marketing mix models to guide marketing investment decisions. You will lead a team of statistical analysts to develop quantitative models to measure and optimize cross channel marketing and promotional spending decisions.
Analytics and Business Insight (ABI) is a smart, fun team of 140+ that provide quantitative decision support to multiple business units across Schwab. We help our business partners better understand the needs and behaviors of our prospects and clients through analytics, data science, market research, and business intelligence.

Our large client base and multi-channel transaction volume offers a fertile data environment to uncover new insights and answers to key business questions. Our dynamic business generates many questions that provide lots of opportunity to get deep in data and have real impact.
What you’re good at
You will work collaboratively with internal strategy consultants, marketing leaders, statisticians, and data engineers to develop and automate marketing mix optimization solutions. Use your analytic and consultation skills to help leaders understand what worked and guide them in making the best spending decisions going forward. This role will require leadership, marketing sophistication, and hands on expertise to create actionable solutions to solve real-world marketing problems.
This role supports multiple marketing units across the Schwab enterprise.
Work with marketing and analytic leaders to quantify the impact of marketing decisions
Mentor staff analysts in the development of advanced statistical models
Get hands-on with big data to analyze time series leveraging the latest platforms, statistical modeling and optimization techniques
Formulate panel based time-series regression models using hierarchical Bayesian modeling techniques
Design, conduct, and analyze experiments to quantify the impact of marketing treatments
Analyze observational data to quantify the effect of promotional events and offers
Leverage tools and platforms like Anaconda Enterprise, Python, R and SAS to apply algorithms and analytic models to big and small data problems
Marketing Mix Methodology:
Advanced time-series regression using a panel-based hierarchical Bayesian framework.
Formulate fixed or mixed effect regression model specifications

What you bring
Ability to explain your insights to a non-technical audience
Creatively think of original solutions for the real world
Thought leadership in using marketing mix models to improve marketing decisions
Experience in solving complex marketing problems using quantitative models

Even better
Experience implementing STAN/MCMC R packages to estimate regression coefficients
Experience implement optimization algorithms using non-linear techniques such as Genetic and Swarm algorithms

Business acumen: Deep understanding of the use of marketing and promotions to grow acquisition and retention. Understanding the bigger picture for customers and the business and know how to probe beyond stakeholders’ stated requests to understand what is truly needed to capture and drive business value.
What you have
Graduate degree in Statistics, Marketing Science or a quantitative field highly preferred.
5+ years’ of experience in a marketing science, analytics or data science role
Strong R, Python and SQL skills, SAS experience or exposure helpful

Even better
Enthusiastic quick learner who loves to code, has a solid mathematical foundation and wants to expand their data science experience
Experience using statistics and machine learning to solve complex business problems
Experience in financial services is a plus but not a requirement"
14,(Sr) Principal Statistical Scientist,"South San Francisco, CA 94083",South San Francisco,CA,94083,None Found,None Found,None Found,None Found,None Found,None Found,"The Position

Relocation has been allocated for this position

General Position Summary & Purpose
The Methods, Collaboration and Outreach group (MCO group) is a small global group of senior methodological experts within the biostatistics department with the goal to solve methodological problems arising in drug development and clinical trials, to collaborate with other statisticians, within the biostatistics department and outside, and to reach out to colleagues outside the company in other industry organizations, in academia and health authorities. The MCO group is an important cornerstone of the biostatistics mission of introducing innovation and new methods into drug development.
The principal statistical methodologists are experienced statisticians with a passion for statistical methodology and its applications in clinical trials and beyond. They are inspiring to others and can motivate them to look into statistical methodology beyond standards to drive for the utmost best result. They have a strong collaborative team oriented focus with strong interests to the academic and regulatory world with the ability to link people from different institutions for a common purpose. They finally have substantial experience in drug development in industry with a PHD in biostatistics or a related field.
Key Accountabilities
Clinical Development projects
Support clinical projects and drug development initiatives by providing state of the art statistical methodology. This could be done in various ways by providing consulting, mentoring statistical colleagues, collaboration with project teams or by taking on responsibility for parts of the project.
Provide statistical leadership for clinical development projects, including providing strategic input into clinical development plans where it is directly affected by statistical methodology
Provide statistical leadership to the biostatistics department on areas where new statistical methodology should be developed or existing methodology should be applied.
Provides analytical and strategic leadership for important activities such as personalized healthcare biomarker development, statistical modelling or adaptive and other innovative trial designs.
Serve as member of business development due diligence efforts.
Proactively advice teams and functions on the best application of statistical methods including advanced analytics to any data type
Drive partnership with other analytical functions including PHC CoE, focus on the application of adequate methods and utilize leadership opportunities
Liaise and collaborate on general methodological problems with external statistical experts in academia, other companies, where there is a common goal, and health authorities

People Development and Leadership
Mentors other statisticians on request, especially with regard to methodology
Lead departmental initiatives, especially when such initiatives have a methodological focus
Be a leader in the application of statistical methodology within the biostatistics department
Technical Requirements
PhD in Statistics, Biostatistics, Mathematics or similar areas of academic discipline.
Experience in clinical trials in pharmaceutical industry
Experience as a lead statistician for a clinical project
Good knowledge of English in a business environment.
Experience in using statistical software
Expertise in applying statistical methods to patient data including methods of advanced analytics and high dimensional data
Selection Criteria
Candidates for this position should hold the following qualifications, have the following experience, and be able to demonstrate the following abilities to be considered as a suitable applicant. Please note that except where specified as ""preferred,"" or as a ""plus,"" all points listed below are considered minimum requirements.
Qualifications & Competencies
Very good knowledge of theoretical and applied statistics including methods in advanced analytics
Passion for statistical methodology and its implementation in clinical development
Passion to collaborate with others inside and outside the company
Excellent knowledge and experience applying statistical methods to drug development
Excellent understanding of regulatory guidelines in a pharmaceutical research setting
Understands and applies business requirements and processes
Understands and respects cultural differences when interacting with colleagues in the global work place
Independent working style to accomplish responsibilities
Excellent communication and collaboration skills (including statistical consulting skills, interpersonal skills to contribute effectively in cross-functional team settings, ability to influence others without authority, ability to build strong collaborative relationships with scientific and non-scientific partners)
Excellent project management skills (including ability to manage scope and effectively delegate to other functions, staff, contractors and external vendors)
Excellent strategic agility (including problem-solving and critical thinking skills, ability to drive drug development strategies, agility that extends beyond statistical aspects)
Excellent drive for results (Demonstrates interest and ability to learn new things, takes initiative, welcomes problems as challenges; finds solutions to technical problems)
Proficient mentoring other statisticians.
Experience with all data types including high dimensional data

Who We Are
A member of the Roche Group, Genentech has been at the forefront of the biotechnology industry for more than 40 years, using human genetic information to develop novel medicines for serious and life-threatening diseases. Genentech has multiple therapies on the market for cancer & other serious illnesses. Please take this opportunity to learn about Genentech where we believe that our employees are our most important asset & are dedicated to remaining a great place to work.
The next step is yours. To apply today, click on the ""Apply online"" button.
Genentech is an equal opportunity employer & prohibits unlawful discrimination based on race, color, religion, gender, sexual orientation, gender identity/expression, national origin/ancestry, age, disability, marital & veteran status. For more information about equal employment opportunity, visit our Genentech Careers page ."
15,Research Data Analyst,"San Francisco, CA",San Francisco,CA,None Found,None Found,None Found,None Found,None Found,None Found,None Found,"Under direct supervision, the Research Data Analyst acquires skills and knowledge of professional concepts in research data analysis relating to the Cardiovascular Disease Policy Model, a computer simulation of cardiovascular disease risk factors and outcomes among adults in the U.S. Works on small projects or segments of projects with limited scope and complexity. Primary responsibilities include undertaking literature reviews, performing data analysis under the direction of the team, carrying out analyses to address well-defined research questions, reviewing and editing manuscripts for publication, and participating in research group team meetings.


Please note: This is a part time contract position ending on August 31, 2020.

CARDIOVASCULAR DISEASE POLICY MODEL GROUP / EPIDEMIOLOGY AND BIOSTATISTICS / SOM
The Department of Epidemiology and Biostatistics is a department in the School of Medicine (SOM) with a vision to advance discoveries and insights into the distribution, determinants and outcomes of disease that will drive improvements in population health worldwide. Its educational mission is to train students in epidemiologic and biostatistical methods for studying disease etiology and prevention, for evaluating tests and treatments, and for using evidence-based approaches in clinical practice and population health; scientific mission is to perform outstanding basic, clinical and population health research along a spectrum from molecules to society and to develop tools for the translation of knowledge that will improve clinical practice and population health and ensure optimal use of resources; its clinical mission is to support the practice of public health and preventative medicine in local, state, national and international health agencies.

The Cardiovascular Disease (CVD) Policy Model group is a research team housed in the Department of Epidemiology and Biostatistics at the UCSF Mission Bay Campus. In addition to the Principal Investigator, the core team includes a mathematics specialist, senior statistician, computer programmer, research data analysts, post-doctoral scholars and faculty and trainees at UCSF who are engaged in research projects using the Model. We also collaborate closely with investigators at Columbia University as well as colleagues both nationally and internationally.

ABOUT UCSF

The University of California, San Francisco (UCSF) is a leading university dedicated to promoting health worldwide through advanced biomedical research, graduate-level education in the life sciences and health professions, and excellence in patient care. It is the only campus in the 10-campus UC system dedicated exclusively to the health sciences."
16,Statistical Data Analyst,"Brisbane, CA 94005",Brisbane,CA,94005,None Found,"MS or PhD degree in Statistics, Bioinformatics, Biomedical Informatics, Computer Science, Biomedical Engineering, Life Sciences or related fields. At least two years of coursework in undergraduate or graduate-level statistics, or two years of work experience working in a primarily statistical role is required for this position.
Experience using R, SAS and other statistical software packages
Experience in analysis of high-throughput next-generation sequencing and gene expression data (e.g. microarrays, RNA-Seq, etc.) preferred
Strong interpersonal skills and high communication proficiency both verbal and written, in technical and non-technical domains
Solid problem-solving skills
Strong presentation skills
Ability to manage multiple tasks in a fast-paced environment
Ability to work independently and as a contributing team member
Flexibility to work on development, clinical or non-clinical projects depending upon company needs
",None Found,"Responsible for accurate, complete and timely analysis, reporting and presentation of research results.
Develop and apply statistical methods and novel algorithms to genomic data sets that will be used to guide development of NGS assays for DNA and RNA analyses
Investigate datasets to discover trends and potential root cause errors that impact system performance
Maintain accurate documentation of programs and procedures
Construct datasets and visualizations for reporting
",None Found,None Found,"Headquartered in Brisbane, Calif., CareDx, Inc. is a leading precision medicine solutions company focused on the discovery, development and commercialization of clinically differentiated, high-value healthcare solutions for transplant patients and caregivers. CareDx offers products, testing services and digital healthcare solutions along the pre- and post-transplant patient journey, and is the leading provider of genomics-based information for transplant patients.
Statistical Data Analyst
We are seeking a highly motivated, experienced and skilled statistician preferably with experience in the diagnostics industry to fill the critical role of Statistical Data Analyst. This position will work primarily with the CareDx Research & Development team but may be involved with other clinical or non-clinical projects as well. The analyst will collect data and perform data analysis for development and clinical studies and scientific publications. Responsibilities include data extraction as well as complex analyses that require original thinking and novel analysis. The candidate must be able to collaborate with genomic scientists, molecular and computational biologists, bioinformaticians, data scientists, and statisticians. In addition, the candidate will need to develop a deep understanding of CareDx data and databases, including their limitations and idiosyncrasies.
Responsibilities:
Responsible for accurate, complete and timely analysis, reporting and presentation of research results.
Develop and apply statistical methods and novel algorithms to genomic data sets that will be used to guide development of NGS assays for DNA and RNA analyses
Investigate datasets to discover trends and potential root cause errors that impact system performance
Maintain accurate documentation of programs and procedures
Construct datasets and visualizations for reporting
Qualifications:
MS or PhD degree in Statistics, Bioinformatics, Biomedical Informatics, Computer Science, Biomedical Engineering, Life Sciences or related fields. At least two years of coursework in undergraduate or graduate-level statistics, or two years of work experience working in a primarily statistical role is required for this position.
Experience using R, SAS and other statistical software packages
Experience in analysis of high-throughput next-generation sequencing and gene expression data (e.g. microarrays, RNA-Seq, etc.) preferred
Strong interpersonal skills and high communication proficiency both verbal and written, in technical and non-technical domains
Solid problem-solving skills
Strong presentation skills
Ability to manage multiple tasks in a fast-paced environment
Ability to work independently and as a contributing team member
Flexibility to work on development, clinical or non-clinical projects depending upon company needs
Additional Details:

Every individual at CareDx has a direct impact on our collective mission to improve the lives of organ transplant patients worldwide. We believe in taking great care of our people, so they take even greater care of our patients.
Our competitive Total Rewards package includes:
Competitive base salary and incentive compensation
Health and welfare benefits including a gym reimbursement program
401(k) savings plan match
Employee Stock Purchase Plan
Pre-tax commuter benefits
And more!
In addition, we have a Living Donor Employee Recovery Policy that allows up to 30 days of paid leave annually to a full-time employee who makes the selfless act of donating an organ or bone marrow.
With products that are making a difference in the lives of transplant patients today and a promising pipeline for the future, it’s an exciting time to be part of the CareDx team. Join us in partnering with transplant patients to transform our future together."
17,Senior Data Scientist - Trust and Safety,"San Mateo, CA",San Mateo,CA,None Found,None Found,None Found,None Found,None Found,None Found,None Found,"------------------------------------------
Senior Data Scientist - Trust & Safety
------------------------------------------

WHY ROBLOX?

Roblox is ushering in the next generation of entertainment, allowing people to imagine, create, and play together in immersive, user-generated worlds. We're the one and only fastest-growing entertainment platform that lets anyone teach themselves how to code, publish, and monetize any experience imaginable—across any device—reaching millions of players across the globe.

The impact that you can have at Roblox is powerful. We're looking for someone who's eager to take on a meaningful role in the success of Roblox on a massive scale. Someone who takes play seriously, but also isn't afraid to have some fun either. Someone who's ready to take Roblox—and their career—to the next level.

In 2018, we were honored to be recognized as a Certified Great Place to Work ( http://reviews.greatplacetowork.com/roblox-corporation )®. We've fostered a company culture that empowers people to do the most defining work of their career in an environment that's made up of the most passionate, team-oriented, visionary, crazy-smart people you'll ever meet. Join the Roblox team where play rules and the possibilities are endless.

Work with the most passionate, team-oriented, visionary, and crazy-smart people you'll ever meet.

As a Data Scientist, you will be a key participant in helping our product and engineering teams shape the future of Roblox. You'll partner with leaders across the company to better understand our players and builders, performing ad hoc analysis, creating dashboards, defining KPIs, and applying models.

You Are:

Passionate about data. You have the curiosity and self-drive to continuously learn new techniques and tools to extract value from data. You have a degree in Statistics, Economics, Computer Science or other relevant field.
A strong communicator. You understand that analysis must be presented in meaningful ways and engage in spirited discussions about the findings. You have the ability to explain technical concepts to non-technical audience.
A capable statistician. You understand the value of characterizing data by its distribution. Covariance, Bias, and Conditional Probability are concepts that you rely on every day.
An expert with SQL and a scripting language such as Python or R. You're experienced in automating efforts and crunching massive volumes of data using big data frameworks such as Spark, Hadoop or Flink.
Experienced in developing models to draw insights from data. You use regression techniques, data mining, and statistical techniques to create new, scalable solutions to solve difficult business problems. You understand when to apply the appropriate methodology to maximize impact in a pragmatic fashion.

You Will:

Accelerate product development through your understanding of the underlying data and your ability to partner with product and technical leaders to provide insights that drive growth.
Access raw data, and then transform it, analyze it, and render it in a compelling way--all using a custom analytics tool kit built from state-of-the-art open-source libraries.
Build dashboards to understand root causes to changes in metrics.
Evaluate A/B experiments to determine success of product feature launches.
Influence how Roblox interacts with its players and its platform developers

#LI-CT1"
18,Statistician / Study Coordinator,"San Francisco, CA",San Francisco,CA,None Found,None Found,None Found,None Found,None Found,None Found,None Found,"The purpose of the Statistian/Study Coordinator role is to provide statistical support for several new and ongoing observational studies and trials in the field of tuberculosis. All studies are based internationally with collaborators in the US, Europe, Africa and Asia. The Statistician/Study Coordinator will interact with an international team of project collaborators both remotely and through international site visits and conferences.

Statistical responsibilities include improving the design of observational studies and trials; analysis of study data, including comparisons of randomized groups; data interpretation; preparation of progress reports, charts, tables and other visual aids; developing and maintaining study databases, including questionnaires and other data collection tools; developing data management protocols; and participate actively in grant writing including study design and sample size calculations.

Study Coordinator responsibilities include developing and maintaining study protocols, informed consent documents, institutional review board (IRB) approvals; overseeing implementation of various study activities; generating regular reports on study progress; coordinating data cleaning with local study sites; updating team members and collaborators on study updates; participate actively in grant writing including.

The Statistician/Study Coordinator will initiall receive close support and supervision while increasingly taking responsibility for organizing and managing their own workload independently.

The Statistician/Study Coordinator is expected to develop their knowledge of the biology and epidemiology of relevant disease areas by reading relevant journals, attending journal clubs, conferences, etc.

Please note: This is a full time contract position for 12 months from the date of hire.

DIVISION OF PULMONARY AND CRITICAL CARE MEDICINE / ZSFG
The mission of the Division of Pulmonary and Critical Care Medicine at Zuckerberg San Francisco General (ZSFG) is to provide comprehensive medical care for the community, to develop innovative research aimed at elucidating basic mechanisms of disease, and to translate its research activities into both new clinical initiatives and a rich training environment for the next generation of academic physician scientists.

ABOUT UCSF

The University of California, San Francisco (UCSF) is a leading university dedicated to promoting health worldwide through advanced biomedical research, graduate-level education in the life sciences, health professions and excellence in patient care. It is the only campus in the 10-campus UC system dedicated exclusively to the health sciences."
19,Principal Biostatistician,"San Francisco, CA",San Francisco,CA,None Found,None Found,None Found,None Found,None Found,None Found,None Found,"Summary:
Provide statistical/strategic inputs to the clinical development plans while supporting clinical trials within a program. Key contributor to clinical protocols for statistical concept as well as broader drug development concepts. Perform or oversee the analysis of clinical trial data, provide statistical interpretation of results, and collaborate on the reporting of clinical trial results to regulatory authorities and scientific community. Ensure adherence to regulatory and company standards.
Responsibilities:
Provide leadership to the Biometrics team on one or more clinical programs or key studies; review work of statisticians supporting this work
Provide update to management on program progress with focus on Biometrics
Collaborate with medical monitors and other study personnel on the creation of clinical development plans and clinical trial designs
Perform or oversee power/sample size calculations to determine appropriate trial size; run simulations to assess operating characteristics of a design
Provide statistically sound experimental design and data analysis inputs to meet project objectives and regulatory requirements
Design and write statistical sections for clinical trial protocols or oversee this work
Generate study randomizations and provide inputs on maintaining study blinding
Develop statistical analysis plans for clinical trials or oversee this work
Write statistical sections of regulatory submissions or oversee this work
Design and conduct statistical analysis of clinical data or oversee this work
Work with medical monitors to develop ad hoc analysis plans and ensure analyses are performed appropriately by programming staff
Represent Seattle Genetics statistical position to regulatory agencies
Key contributor in project planning
Keep abreast of new developments in statistics, drug development, and regulatory guidance through literature review and attendance at workshops and professional meetings
Become knowledgeable in disease areas under study (e.g. available treatments, course of disease, endpoints, analyses used for previous submissions)
Develop and assist in maintenance of department tools, templates, guidelines, SOPs, and systems.
Knowledge of FDA regulations, ICH GCP guidelines, the drug development process
Requirements:
MS with 6+ years or PhD with 4+ years of experience as a study statistician with high independence on complicated studies
Previous experience providing leadership to Biometrics staff within a clinical team
Knowledge and experience to exercise independent judgment and provide oversight to programmers, data managers, and junior statisticians.
Excellent communication and presentation skills, both written and verbal
Knowledge of FDA regulations, ICH guidelines, the drug development process
Proficiency with SAS® procedures and programming language
Preferred:
Submission experience a plus
Strong simulations experience/skills
Oncology experience preferred
Proficiency with S-Plus or R a benefit

As the leading employer in our industry in the Pacific Northwest, Seattle Genetics is proud to offer a competitive total compensation package as well as a comprehensive benefits program designed to support the whole lives of our employees and their families. Benefits include medical, vision and dental coverage, group and supplemental life insurance, 401(k) with company match, tuition reimbursement, relocation assistance and much more. To learn more about Seattle Genetics, please visit www.seattlegenetics.com.
Seattle Genetics is an equal opportunity employer. All qualified applications will receive consideration for employment without regard to race, age, gender identity, sexual orientation, color, religion, sex, marital status, national origin, protected veteran status, disability status, or any other status protected by federal, state, or local law."
20,"Medical Director, Global Clinical Development","Novato, CA 94949",Novato,CA,94949,None Found,None Found,"
MD degree or MD, PhD degrees, graduating from a high quality medical school.
Minimum 2-3 years of industry experience
Interest in career progression and ability to take on a more senior roles in 1-3 years
Late stage development experience (preferred but not required)
Must be originally boarded in a medical specialty; optimally in medical genetics, pediatric or adult neurology or other complex clinical fields dealing with chronic diseases and complex pathophysiology, or relevant experience.
Must be trained in GCP regulations, and be familiar with relevant ICH and FDA guidelines relevant to clinical development. Must have experience designing successful clinical studies in complex diseases requiring the management of patient variation, chronic irreversible disease and related complexities. Must be facile with statistical issues and be able to manage working with a statistician to design the analysis of clinical studies
Experience across all phases of clinical studies required, understanding and/or experience with post-approval commitments is an advantage
Ability to write clinical study reports and summaries for regulatory purposes","
Manage the process for the company's late stage development clinical studies effort to ensure the highest level of success, efficiency of clinical protocols, FDA review and successful product launches
Successfully lead cross-functional teams focusing on clinical development strategy
Be an effective manager of physician scientists and/or clinical science specialists
Direct and oversee phase three clinical studies, including clinical strategy and design, protocol writing, Institutional Review Board (IRB) applications, training, monitoring, documentation and data analysis
Work with current and future partners to initiate and monitor clinical studies including evaluation
Reviews and Approves procedures for the design and implementation of clinical protocols, data collection systems and final reports
Ensure that all clinical studies are appropriately designed and effectively executed and monitored
Provides safety surveillance guidance, acts as a medical monitor, and ensures adherence to cGCP requirements and all applicable regulatory references and guidelines
Participate in pre-submission, pre-market and other meetings with the FDA and other regulatory agencies, as needed
Manage outside consultants (consultants, etc.) to ensure data is accurately collected and analyzed in a cost effective fashion
Exhibits leadership skills within and outside of the organization (including people skills, mentoring, presentation skills and professional interaction)
Take a leadership role in proposal development to identify effective clinical and regulatory implementation strategies that are efficient in time and money, and hedge risk as needed.
Review and approve proposals for appropriate personnel assignments, time allocations, and budgets",None Found,"
MD degree or MD, PhD degrees, graduating from a high quality medical school.
Minimum 2-3 years of industry experience
Interest in career progression and ability to take on a more senior roles in 1-3 years
Late stage development experience (preferred but not required)
Must be originally boarded in a medical specialty; optimally in medical genetics, pediatric or adult neurology or other complex clinical fields dealing with chronic diseases and complex pathophysiology, or relevant experience.
Must be trained in GCP regulations, and be familiar with relevant ICH and FDA guidelines relevant to clinical development. Must have experience designing successful clinical studies in complex diseases requiring the management of patient variation, chronic irreversible disease and related complexities. Must be facile with statistical issues and be able to manage working with a statistician to design the analysis of clinical studies
Experience across all phases of clinical studies required, understanding and/or experience with post-approval commitments is an advantage
Ability to write clinical study reports and summaries for regulatory purposes","Why Join Us?
Be a hero for our rare disease patients

Ultragenyx is a biopharmaceutical company committed to developing treatments for rare and ultra-rare diseases. Founded in 2010, the company has rapidly built a diverse portfolio of small molecule, monoclonal antibody, mRNA and gene therapy candidates with the potential to address debilitating genetic diseases for which the unmet medical need is high, the biology for treatment is clear, and for which there are no approved therapies.

Developing new treatments for rare genetic diseases is challenging work. It takes courage, talent, and dedication to look past the easy answers and uncover new solutions that can make a meaningful impact. At Ultragenyx we push each other to perform at our very best because we never lose sight of our mission – to make a difference in our patients’ lives.
Come join our team during this exciting time of growth and opportunities!

Position Summary
ultracurious – Apply your biggest ideas in courageous ways

Ultragenyx is looking for an experienced physician with the passion and creativity to develop great medicines for rare and ultra-rare diseases. The individual will be a self-starter with excellent clinical capabilities and who is seeking to be part of an innovative team that will drive the drug development processes from start to finish. The successful candidate will be ready for a career defining experience and have the passion to drive a number of therapeutics for devastating diseases to final approval.
Responsibilities including, but not limited to:
Manage the process for the company's late stage development clinical studies effort to ensure the highest level of success, efficiency of clinical protocols, FDA review and successful product launches
Successfully lead cross-functional teams focusing on clinical development strategy
Be an effective manager of physician scientists and/or clinical science specialists
Direct and oversee phase three clinical studies, including clinical strategy and design, protocol writing, Institutional Review Board (IRB) applications, training, monitoring, documentation and data analysis
Work with current and future partners to initiate and monitor clinical studies including evaluation
Reviews and Approves procedures for the design and implementation of clinical protocols, data collection systems and final reports
Ensure that all clinical studies are appropriately designed and effectively executed and monitored
Provides safety surveillance guidance, acts as a medical monitor, and ensures adherence to cGCP requirements and all applicable regulatory references and guidelines
Participate in pre-submission, pre-market and other meetings with the FDA and other regulatory agencies, as needed
Manage outside consultants (consultants, etc.) to ensure data is accurately collected and analyzed in a cost effective fashion
Exhibits leadership skills within and outside of the organization (including people skills, mentoring, presentation skills and professional interaction)
Take a leadership role in proposal development to identify effective clinical and regulatory implementation strategies that are efficient in time and money, and hedge risk as needed.
Review and approve proposals for appropriate personnel assignments, time allocations, and budgets
Technical Requirements & Skills:
MD degree or MD, PhD degrees, graduating from a high quality medical school.
Minimum 2-3 years of industry experience
Interest in career progression and ability to take on a more senior roles in 1-3 years
Late stage development experience (preferred but not required)
Must be originally boarded in a medical specialty; optimally in medical genetics, pediatric or adult neurology or other complex clinical fields dealing with chronic diseases and complex pathophysiology, or relevant experience.
Must be trained in GCP regulations, and be familiar with relevant ICH and FDA guidelines relevant to clinical development. Must have experience designing successful clinical studies in complex diseases requiring the management of patient variation, chronic irreversible disease and related complexities. Must be facile with statistical issues and be able to manage working with a statistician to design the analysis of clinical studies
Experience across all phases of clinical studies required, understanding and/or experience with post-approval commitments is an advantage
Ability to write clinical study reports and summaries for regulatory purposes
People Management Skills:
Clarify Direction & Priorities: Set clear direction for your direct reports aligned with functional and corporate goals. Reprioritize work, as needed. Enable others to do their job well by communicating information and making decisions in a clear, timely manner.
Partner & Collaborate Effectively: Listen to and value others’ thoughts and ideas. Demonstrate effective partnership both within and outside your team. Achieve results with and through others.
Support Learning & Growth: Demonstrate self-awareness, humility, and curiosity in service of self-development. Provide regular coaching and feedback that will inspire growth and improvement in others.
#LI-LC1

Ultragenyx Pharmaceutical Inc. is an equal opportunity employer. We understand that diversity of thought, culture and background will help us do the best for our patients. We prohibit unlawful discrimination based on race, color, religion, gender, sexual orientation, gender identity/expression, national origin/ancestry, age, disability, marital and veteran status.

Note to External Recruiters: All candidate activity and open positions are managed strictly through our Human Resources Department. Our Human Resources Department kindly requests that recruiters not contact employees/hiring managers directly in an attempt to solicit business and present candidates. Please note that failure to comply with this request will be a factor in determining a professional relationship with our organization. Submission of unsolicited resumes prior to an agreement set in place between the Human Resources Department and the recruiting agency will not create any implied obligation. Inquiries on developing a recruiting relationship with us, may be directed to: talentacquisition@ultragenyx.com."
21,"Principal Statistician / Associate Director, Early Oncology Statistics","Redwood City, CA",Redwood City,CA,None Found,None Found,None Found,None Found,None Found,None Found,None Found,"Oncology is a key therapeutic area for AbbVie, with a portfolio consisting of three marketed products — Imbruvica, Venclexta, and Empliciti — and a pipeline containing multiple promising new molecules that are being studied in nearly 200 clinical trials in 19 different types of cancer.

We have an exciting opportunity for a senior level statistician (position title commensurate with experience). There is flexibility for this position to be based at our South San Francisco (CA), Redwood City (CA), or Lake County (IL) location. In this position, you will provide scientific and statistical expertise for drug discovery or development strategies for assigned project in early-stage oncology for the design, analysis, and reporting of scientific research trials and for interacting with regulatory agencies regarding the results of these activities. Detailed responsibilities include:
Protocols:
Directs the development of scientific protocols, ensuring they are scientifically sound and make optimal use of the data to be collected
Ensures research hypotheses and corresponding study designs are aligned with the project strategy, and meet scientific and/or regulatory needs
Ensures statistical methodology is appropriate and sound, consistent with the objective(s) of the scientific protocol
Database Activities:
In collaboration with Data Sciences, Statistical Programming and other partners, ensures data collection instruments are designed to capture protocol-specified scientific information and study databases (e.g., SAS, MS Access, Excel) are implemented such that short- and long-term project needs can be achieved
Oversees or partners in the development of data quality assurance checks, ensuring accuracy and consistency of data released for statistical analysis
Statistical Analyses:
Demonstrates extensive understanding of statistical concepts and methodologies
Proposes new/novel statistical methodological approaches leading to improvements in the efficiency and sensitivity of study results
Provides sufficient detail to allow programming implementation
Ensures that all the statistical analyses specified in scientific protocols and/or analysis plans are conducted appropriately
Scientific Reports and Publications:
Ensures that study results and conclusions are scientifically sound, clearly presented, and supported by the statistical analyses provided
Prepares oral and written reports to effectively communicate results of clinical/scientific research to AbbVie management, project teams, regulatory agencies, or individual investigators
Provides in-depth scientific/statistical review for scientific reports and publications
Consultation: Works collaboratively with members of multi-function teams to complete project deliverables per agreed timelines. Keeps management informed on important scientific/statistical issues that may arise, in a timely manner. In collaboration with Statistical Programming or their designee, ensures that all programs meet analysis requirements, internal standard operating procedures, validation, and external regulatory requirements. Communicates with statisticians outside AbbVie concerning technical issues, building external scientific contacts, fostering professional development, and promoting the reputation of the department. Effectively and persuasively presents statistical concepts, evidence, assessment of risks and impacts, and logical arguments to management, regulatory agencies, and scientists. Demonstrates an understanding of drug development principles for assigned projects.

Project Team Involvement: Represents Data and Statistical Sciences (DSS) or Biometrics on assigned project team(s) to provide functional area input to compound/drug development. Serves as a liaison between the project team and DSS or Biometrics to ensure timely communication of project team updates, proper statistical strategies, and alignment of priorities between the project team and functional area.
Training, Supervising, Mentoring: Mentors junior staff and other development partners with regards to statistical methodology and departmental operations
Participates in department seminars, short courses, and the publication presentation of scientific articles
Participates in departmental activities including recruiting, training/mentoring, research efforts, and cross-functional collaborations, as needed.
Regulatory Activities: Participates with DSS or Biometrics management in discussions with corresponding technical personnel from regulatory agencies and with investigators concerning proposed or ongoing studies.
PhD in statistics or related field with 8-10 years or MS in statistics or related field with 12 years of work experience in pharmaceutical development and applied statistics/statistical consulting required. Project lead experience required.
High degree of technical competence and effective oral and written communication skills.
Competent in experimental design, statistical modeling and inferential statistics; actively seeks to acquire knowledge concerning the use of new/novel statistical techniques and their biometric/ biopharmaceutical applications.
Pharmaceutical or related industry experience with clinical studies, including experience and understanding of drug development in the regulated environment preferred.
Experience in oncology is highly preferred; experience in early development (Phase 1) is highly preferred.
Ability demonstrating strong cross functional team work is required; must be able to work in a fast paced environment and change course when needed"
22,Senior Platform Engineer,"San Francisco, CA",San Francisco,CA,None Found,None Found,None Found,None Found,None Found,None Found,None Found,"As a leading mobile games developer, Jam City is looking to “level up” our talent. We’re on the hunt for innovators who consider themselves dynamic, collaborative and thrive in a fast-paced environment.

PERKS & BENEFITS
Unlimited Vacation, Paid Sick Days & Holidays
100% Employee Covered Medical, Dental, Vision Plan Base Plan
Life Insurance, 401k, Flexible Spending Accounts, Commuter Benefits & More
Catered Lunches & Well-stocked Kitchens
Onsite Gym & Wellness Activities (Yoga & Zumba)
Happy Hours
Company Events
Dog Friendly

ABOUT THE TEAM
Our small platform team is the powerhouse of the company and the role that our team plays is truly unique. The team is brilliant: A PhD in physics from Harvard, the first person to hack the MacOS and boot up windows on it, ex-Apple project managers, PhD’s in statistics, among many other talented people. This is a place of immense resources and growth potential. Our Engineering team talks about topics like what it means to be conscious, or how genes are just an algorithm, so what does it mean to “be”.

In addition, we’re a video games company, which means it’s a very chill workspace, and we can try some really new, wild experiments quickly...without the fear of blowing up a rocket on the launch site.

ABOUT THE ROLE
Interested in Machine learning, but more importantly want to get things released, not be stuck in the research stage for another 2 years?

Want to get your hard work out and live into the hands of over 10 million people? Played on a daily basis on Auto-tuned levels utilizing Bayesian analytics and neural networks?

Ready to do some ridiculously cool stuff that people talk about in white papers, but is only actually being applied in a few spots around the world?

We are looking for an exceptional Senior Platform Engineer to join our San Francisco team! We have fun here, and we are looking for a like-minded, highly talented engineer to join the team as we ramp up our efforts in a variety of really cool initiatives, of which you could take ownership.
RESPONSIBILITIES
Create core systems that all games will use to immediately hit the ground running.
Design and implement robust, highly-scalable services used by millions of users through web and mobile applications.
Write both server-side and client-side code for the aforementioned.
Create extensible APIs and SDKs for web, mobile web and native mobile devices.
Design web-based tools that enables our games to easily and effectively monetize user experiences.
Develop high volume, transactional platform infrastructures that are robust, scalable, maintainable and extendable, and that integrate with partner platforms.
Identify problems, investigate new approaches and provide software solutions while developing new or enhanced technical tools.
Content generation using variant auto encoders and ML, a truly top-notch data pipeline, and a warehouse of analytics that house trillions of events and is nearing a Petabyte of data, optimizing player experiences with cohorting.
Mentor more junior members of the team.
Pick something that you think you want to work on, that you feel will help the company, talk with the respective teams, and go to town.
QUALIFICATIONS
Passionate and Self-driven: If you feel you exist in the world to do cool stuff, and that not doing cool stuff would be a waste of your valuable time on this planet; good. We want people who are self-driven, because this team is very hands-off and not management-centric. If you are doing something that helps the company, good, keep doing it. You have to handle your projects from start to finish.
The Ability & Desire to Learn Quickly: This is the most critical skill you can have on our team. No doubt there will be new tech here that you have not heard of, that's fine! It’s up to you to read about it, and figure it out.
Interest in Games: We are a gaming company and this team interfaces with the game teams every day, so it's critical to understand how the games work, as well as the psychology behind games, what makes them fun, etc.
Good communication: You own your projects, which means you have to communicate what you are doing with our team, and other teams in the company.
5-8 years of progressively complex related experience.
You understand microservice architectures and how API’s are meant to be made. The intricate balance between a single responsibility principle and a tool that is generic enough to work across all our games and in many situations.
B.S. degree in Computer Science or a related field; but if you are a Statistician who codes, that could also be useful, let's talk. (Java, Scala, C#, Actionscript, Javascript and/or Python with strong OO skills)
NICE TO HAVE
Spark, Kafka, Machine Learning, Bayesian Analytics , Apache Cassandra, Databricks, MapD, Unix, Game Development, Avro, Docker, The Universe And Everything In It, Ansible, Couchbase, MySQL C/C++, Docker, AWS, S3, EC2, Load Balancers, SageMaker, Automation, Lambda, Test Driven Development.

ABOUT JAM CITY
Jam City is an award-winning mobile entertainment studio providing unique and deeply engaging games that appeal to a broad, global audience.

Led by CEO Chris DeWolfe, former MySpace co-founder and CEO, and COO Josh Yguado, former 20th Century Fox executive, Jam City is the creative powerhouse behind some of the highest-grossing and most enduring mobile games. Jam City’s global franchise Cookie Jam has generated more than half a billion dollars, and Panda Pop has more than 120 million downloads to date.

The company also is the go-to studio for Hollywood, having developed immersive, narrative-rich mobile games around iconic entertainment brands. The company’s popular RPG game Harry Potter: Hogwarts Mystery was the #1 game in more than 40 countries at its launch in April 2018.

Jam City has nine studios located in Los Angeles (HQ), Berlin, Buenos Aires, Bogotá, Burbank, Cedar Falls, San Diego, San Francisco, and Toronto."
23,"Data Scientist Technical Lead, YouTube Music","San Bruno, CA",San Bruno,CA,None Found,None Found,None Found,None Found,"
Work with large, complex YouTube data sets; solve difficult, non-routine analysis problems, applying advanced analytical methods as needed. Conduct end-to-end analysis that includes data gathering and requirements specification, processing, analysis, ongoing deliverables and presentations.
Build and prototype analysis pipelines iteratively to provide insights at scale. Develop comprehensive understanding of Google data structures and metrics, advocating for changes where needed for both products development and sales activity.
Directly manage a data science team. Interact cross-functionally with a wide variety of people and teams; work closely with engineers to identify opportunities for, design, and assess improvements to google products.
Make business recommendations (e.g. cost-benefit, forecasting, experiment analysis) with effective presentations of findings at multiple levels of stakeholders through visual displays of quantitative information.
Research and develop analysis, forecasting and optimization methods to improve the quality of Google's user facing products; example application areas include ads quality, search quality, end-user behavioral modeling, and live experiments.
",None Found,None Found,"Minimum qualifications:

MS degree in a quantitative discipline (e.g., statistics, operations research, bioinformatics, economics, computational biology, computer science, mathematics, physics, electrical engineering, industrial engineering) or equivalent practical experience.
10 years of relevant work experience in data analysis or related field (e.g., as a statistician / data scientist / computational biologist / bioinformatician).
5 years of people management / leadership experience
Experience with statistical software (e.g., R, Python, MATLAB, pandas) and database languages (e.g., SQL).

Preferred qualifications:

PhD degree in a quantitative discipline (e.g., statistics, operations research, bioinformatics, economics, computational biology, computer science, mathematics, physics, electrical engineering, industrial engineering).
12 years of directly relevant, tech industry work experience (e.g., as a statistician / bioinformatician / data scientist), including deep expertise and experience with statistical data analysis such as linear models, multivariate analysis, stochastic models, sampling methods. Analytical engagements outside class work while at school can be included.
8 years of demonstrated leadership and self-direction. Demonstrated willingness to both teach others and learn new techniques, including people management.
Applied experience with machine learning on large datasets.
Experience articulating business questions and using mathematical techniques to arrive at an answer using available data. Experience translating analysis results into business recommendations.
Demonstrated skills in selecting the right statistical tools given a data analysis problem. Demonstrated effective written and verbal communication skills.
About the job
At Google, data drives all of our decision-making. Data Scientists work all across the organization to help shape Google's business and technical strategies by processing, analyzing and interpreting huge data sets. Using analytical rigor and statistical methods, you mine through data to identify opportunities for Google and our clients to operate more efficiently, from enhancing advertising efficacy to network infrastructure optimization to studying user behavior. As an analyst, you do more than just crunch the numbers. You work with Engineers, Product Managers, Sales Associates and Marketing teams to adjust Google's practices according to your findings. Identifying the problem is only half the job; you also figure out the solution.

With your leadership and professional expertise, you manage a team of analysts, plan project goals and lead the overall strategy for your group. You are a recognized authority in your functional area and develop, organize and launch projects that span engineering and analysis.
As a Data Scientist Technical Lead for YouTube, you will work on strategic consumer-facing challenges, optimizing the listening (and music video watching) experience on YouTube from seamless playback to personalized recommendations. Additionally, you will grow our YouTube Music app and the Music subscription service, working with data and music content, including official music videos.

In this role, you will be a passionate music listener, always thinking of ways to drive impact with data. You will be a leader and communicator presenting insights to leadership across the organization.
Google is and always will be an engineering company. We hire people with a broad set of technical skills who are ready to take on some of technology's greatest challenges and make an impact on millions, if not billions, of users. At Google, engineers not only revolutionize search, they routinely work on massive scalability and storage solutions, large-scale applications and entirely new platforms for developers around the world. From Google Ads to Chrome, Android to YouTube, Social to Local, Google engineers are changing the world one technological achievement after another.
Responsibilities
Work with large, complex YouTube data sets; solve difficult, non-routine analysis problems, applying advanced analytical methods as needed. Conduct end-to-end analysis that includes data gathering and requirements specification, processing, analysis, ongoing deliverables and presentations.
Build and prototype analysis pipelines iteratively to provide insights at scale. Develop comprehensive understanding of Google data structures and metrics, advocating for changes where needed for both products development and sales activity.
Directly manage a data science team. Interact cross-functionally with a wide variety of people and teams; work closely with engineers to identify opportunities for, design, and assess improvements to google products.
Make business recommendations (e.g. cost-benefit, forecasting, experiment analysis) with effective presentations of findings at multiple levels of stakeholders through visual displays of quantitative information.
Research and develop analysis, forecasting and optimization methods to improve the quality of Google's user facing products; example application areas include ads quality, search quality, end-user behavioral modeling, and live experiments.
At Google, we don’t just accept difference—we celebrate it, we support it, and we thrive on it for the benefit of our employees, our products and our community. Google is proud to be an equal opportunity workplace and is an affirmative action employer. We are committed to equal employment opportunity regardless of race, color, ancestry, religion, sex, national origin, sexual orientation, age, citizenship, marital status, disability, gender identity or Veteran status. We also consider qualified applicants regardless of criminal histories, consistent with legal requirements. See also Google's EEO Policy and EEO is the Law. If you have a disability or special need that requires accommodation, please let us know by completing this form."
24,Sr. Data Scientist - Developer & Studio Ecosystems,"San Mateo, CA",San Mateo,CA,None Found,None Found,None Found,None Found,None Found,None Found,None Found,"------------------------------------------------------
Sr. Data Scientist - Developer & Studio Ecosystems
------------------------------------------------------

WHY ROBLOX?

Roblox is ushering in the next generation of entertainment, allowing people to imagine, create, and play together in immersive, user-generated worlds. We're the one and only fastest-growing entertainment platform that lets anyone teach themselves how to code, publish, and monetize any experience imaginable—across any device—reaching millions of players across the globe.

The impact that you can have at Roblox is powerful. We're looking for someone who's eager to take on a meaningful role in the success of Roblox on a massive scale. Someone who takes play seriously, but also isn't afraid to have some fun either. Someone who's ready to take Roblox—and their career—to the next level.

In 2018, we were honored to be recognized as a Certified Great Place to Work ( http://reviews.greatplacetowork.com/roblox-corporation )®. We've fostered a company culture that empowers people to do the most defining work of their career in an environment that's made up of the most passionate, team-oriented, visionary, crazy-smart people you'll ever meet. Join the Roblox team where play rules and the possibilities are endless.

Work with the most passionate, team-oriented, visionary, and crazy-smart people you'll ever meet.

As a Data Scientist for, you'll be a key participant in helping our developers to create great games at Roblox. You'll partner with data scientists, product managers and engineers to better understand our developers via performing ad hoc analysis, creating dashboards and designing A/B experiments.

You Are:

Passionate about data. You have the curiosity and self-drive to continuously learn new techniques and tools to extract value from data. You have a degree in Statistics, Economics, Computer Science or other relevant field.
A strong communicator. You understand that analysis must be presented in meaningful ways and engage in spirited discussions about the findings. You have the ability to explain technical concepts to non-technical audience.
A capable statistician. You understand the value of characterizing data by its distribution. Covariance, Bias, and Conditional Probability are concepts that you rely on every day.
An expert with SQL and a scripting language such as Python or R. You're experienced in automating efforts and crunching massive volumes of data.
Big Bonus: A love for game development and Roblox

You Will:

Accelerate product development through your understanding of the underlying data and your ability to partner with product and technical leaders to provide insights that drive growth.
Access raw data, and then transform it, analyze it, and render it in a compelling way--all using a custom analytics tool kit built from state-of-the-art open-source libraries.
Build dashboards to understand root causes to changes in metrics.
Evaluate A/B experiments to determine success of product feature launches.
Influence how Roblox interacts with its players and its platform developers

You'll Love:

Excellent medical, dental, and vision coverage
A rewarding 401k program
Flexible vacation policy
Free catered lunches five times a week and several fully stocked kitchens with unlimited snacks
Onsite fitness center and fitness program credit
Annual CalTrain Go Pass
A Roblox Admin badge for your avatar

Roblox – Powering Imagination.

#LI-CT1"
25,Bioinformatician/Statistician,"San Francisco, CA 94110",San Francisco,CA,94110,None Found,"M.S in Computational Biology, Bioinformatics or related field and 2+ years working experience.
PhD with experience in Bioinformatics/Statistics (or similar quantitative fields) preferred. At least one year of experience with analysis of sequence data, large biological datasets using R, Python, Perl or equivalent is required. Statistical genetics experience or experience incorporating various biological data types is strongly preferred.
Prior consulting or industrial experience supporting research is a plus.
The successful candidate will have a strong background in computational science, statistical analysis, experimental design, and quantitative analysis of biological systems, as well as a demonstrated ability to communicate and work effectively with all types and levels of internal and external collaborators.",None Found,"M.S in Computational Biology, Bioinformatics or related field and 2+ years working experience.
PhD with experience in Bioinformatics/Statistics (or similar quantitative fields) preferred. At least one year of experience with analysis of sequence data, large biological datasets using R, Python, Perl or equivalent is required. Statistical genetics experience or experience incorporating various biological data types is strongly preferred.
Prior consulting or industrial experience supporting research is a plus.
The successful candidate will have a strong background in computational science, statistical analysis, experimental design, and quantitative analysis of biological systems, as well as a demonstrated ability to communicate and work effectively with all types and levels of internal and external collaborators.",None Found,None Found,"Responsibilities
Join a vibrant team of bioinformaticians and biostatisticians working on diverse biomedical projects.

Gladstone Bioinformatics as part of the Institute of Data Science and Biotechnology hosts a convergence zone of cutting edge research, omics analytics, biostatistics and technology development, and is one of the primary centers for the National Resource for Network Biology, an NIH-sponsored resource for broadly distributed network biology software and methods.

We are seeking a talented Bioinformatician or Statistician at either junior or senior levels to join the dynamic bioinformatics team here at Gladstone Institutes. You will be providing bioinformatics and computational support to the world-class biomedical research conducted in labs at Gladstone Institutes, UCSF, and beyond. Working closely with experimental scientists, you will lead end-to-end studies from hypotheses and experimental design, to analysis plans, implementation and pipelining, to methods assessment and result reporting or publication. You will be working with a variety of data types generated by various platforms and technologies (eg, genome sequencing, bulk RNA-seq, single cell analysis, ChIP-seq, ATAC-seq, metagenomics, CRISPR screens, mass spectrometry, and others). Expertise and knowledge of state of the art sequencing tools/platforms, analysis methods and annotation methods is required. You will have opportunities for teaching, authorship, methods development, grant applications, and further training to develop your expertise and skill sets.
Qualifications
M.S in Computational Biology, Bioinformatics or related field and 2+ years working experience.
PhD with experience in Bioinformatics/Statistics (or similar quantitative fields) preferred. At least one year of experience with analysis of sequence data, large biological datasets using R, Python, Perl or equivalent is required. Statistical genetics experience or experience incorporating various biological data types is strongly preferred.
Prior consulting or industrial experience supporting research is a plus.
The successful candidate will have a strong background in computational science, statistical analysis, experimental design, and quantitative analysis of biological systems, as well as a demonstrated ability to communicate and work effectively with all types and levels of internal and external collaborators.

Title and salary will be commensuarate with education and experience.
About Gladstone
The Gladstone Institutes is an independent, not-for-profit research organization affiliated with the University of California San Francisco (UCSF), contributing to the health and well being of all people through medical research, education, and outreach in the areas of heart disease, HIV/AIDS, and neurological disease. Gladstone Bioinformatics as part of the Institute of Data Science and Biotechnology hosts a convergence zone of cutting edge research, omics analytics, biostatistics and technology development, and is one of the primary centers for the National Resource for Network Biology, an NIH-sponsored resource for broadly distributed network biology software and methods. We are located in an award winning building adjacent to UCSF's vibrant and active Mission Bay Campus. In addition to daily seminars and learning opportunities, our campus includes a gym, farmer’s market, advanced medical facilities, biotechnology corridor, food truck court, etc."
26,Research Statistician - HEOR,"Oakland, CA",Oakland,CA,None Found,None Found,None Found,None Found,None Found,None Found,None Found,"Precision Xtract is an award-winning global healthcare market access consultancy within Precision Medicine Group. We provide our clients with unified health economics and outcomes research, global pricing, access strategy and analytics, payer and physician pull-through, and data management.

We provide powerful research skills to positively impact payer and purchaser decision-making, which allows organizations to assess appropriate populations for therapies and potential expand access for life-saving and altering medical interventions.

With offices in New York, Boston, Oakland, Vancouver and London, our team has experienced rapid growth and includes a collection of professionals from around the globe with experience across multiple disciplines: former payer executives, academics, pharma marketers, and consultants—all passionate about generating solutions to our customers’ value and access needs.

We are looking for dedicated Research Statisticians who enjoy a challenge, thrive in the details and flourish in dynamic environments.

Do you consider yourself a highly organized, self starter with a real passion for projects involving innovative health economic concepts? Are you passionate about putting in the hard work to conduct high quality research? Are you a clear and confident communicator among both internal teams and in front of clients? Your dream job is waiting. If you’re a born problem-solver and enjoy when no day is the same - keep reading.

What you can expect day-to-day:
As Research Statistician, you will perform a wide range of activities including: literature reviews; analysis; preparing reports, slide decks and meeting notes; and quality assurance/review. You will independently complete, evidence synthesis projects, including: client management; systematic literature review (SLR); (network) meta-analysis; economic modeling; and dissemination of results.

Essential duties but are not limited to:
Associate Research Statistician

Conducting meta-analyses and network meta-analyses using R and OpenBUGS/JAGS
Using R and/or SAS conduct statistical analyses to support projects, including:
Evidence synthesis methods (meta-analyses, summary statistics)
Bayesian statistical modeling methods
Statistical modeling (logistic, ordinal, ordinary least squares, instrumental variable regressions, etc.)
Time-to-event (survival/mortality) or repeated measures analyses
Simulation methods (Markov-models, Monte Carlo, bootstrapping, etc.)
Draft interim and final project deliverables for clients
Clearly interpret and communicate complex quantitative results to internal and external audiences
Contribute to technical reports, health technology submissions, and peer-reviewed manuscripts
Ensure the quality of model programming and the robustness of model assumptions
Research Statistician

Develops client-ready deliverables in terms of protocols (SLR of cost-effectiveness modeling), statistical analysis plans (evidence synthesis), technical reports, and slides, identifying necessary deviations from templates to ensure content aligns with objectives
Develops content for components of proposals in collaboration with senior team members in terms of proposed methods and scope of work
Accountable for timely delivery and financial performance of project subcomponents; estimates required hours and identifies challenges early on; and communicates any changes and possible solutions to project lead if necessary
Drafts and reviews update slides/minutes and actions for overall study and viewed by client as independent researcher for specific study component(s)
Communicates with client frequently on calls and supports project lead in responding to emails; may also be involved in face-to-face presentations to clients
Breaks down complex project tasks or project subcomponents into manageable components and approaches them in logical and clear manner
Highlights resourcing constraints for project subcomponents to project or team lead and identifies tasks where support is needed from junior team members
Identifies new opportunities within existing projects/clients
Participates in, and occasionally leads group strategy discussions
Guides junior teams members
Leads publication independently to implement own ideas

Qualifications:Required:
Master’s degree in economics, health services research, epidemiology, biostatistics, public policy, health policy, or public health or related
Associate Research Statistician - Minimum of 1-years’ experience
Research Statistician - Minimum of 2-3 years' experience
Other Required

Experience in advanced statistical analysis and network meta-analysis (evidence synthesis)
Experience programming in R and WinBUGS/OpenBUGS/JAGS; experience in SAS, STATA, Matlab and other programs are assets
Highly developed reasoning and analytical skills
Preferred

Degree concentration in biostatistics, applied statistics, epidemiology, operations research, economics, econometrics, industrial engineering or other relevant field
PhD
Experience in systematic literature reviews
Experience with MS Office
Experience with deadline driven work in a consulting environment"
27,Senior/Principal-Data Science,"San Francisco, CA",San Francisco,CA,None Found,None Found,None Found,None Found,None Found,None Found,None Found,"--------------------------------------------
Position: Senior/Principal-Data Science
--------------------------------------------

***********

Who we are:
***********

Our Company was founded on the idea that there are patterns in people's behavior that, with the right logic, can be used to predict future outcomes. We are a small but rapidly growing organization that works in partnership with our customers to create solutions that are simply not found anywhere else. We work in groups rather than in structured corporate hierarchies; our culture is creative and entrepreneurial where everyone contributes to company goals in very real way. We are a hardworking group, but we have a lot of fun with what we do and are looking for new people with a similar mindset to join the organization.

***********

What we do:
***********

Our proprietary software-as-a-service helps automotive dealerships and sales teams better understand and predict exactly which customers are ready to buy, the reasons why, and the key offers and incentives most likely to close the sale. Its micro-marketing engine then delivers the right message at the right time to those customers, ensuring higher conversion rates and a stronger ROI.

*****************

What you will do:
*****************


We are looking for talented individuals to join our team in building the analytical components of our software that at heart of it uses data analytics and machine learning
You will apply machine learning techniques and statistical methods to build core components to the software along with data engineers and software engineers.
You are passionate about automating everything and applying scientific methods to solve business and engineering requirements
You will perform analyses on large sets of data to extract actionable insights that will help drive decisions across the business
Communicate data-driven insights and recommendations to key stakeholders
You will work closely with product owners, designers, data engineers, marketing teams and others across the company
You will work on challenging projects using cutting-edge technologies
This position will bring analytical rigor and statistical methods to the challenges of measuring quality, improving products, and understanding the behavior of end-users
You will be the subject matter expert and propose new ideas

******************

Who you are:
******************


MS or PhD in a quantitative discipline (e.g., statistics, operations research, computer science, mathematics, physics, electrical engineering, industrial engineering)
4/5+ years of industry experience with a Phd or 8+ years of industry work experience with a master's (e.g., as a lead statistician / sr. data scientist / sr. machine learning engineer)
Experience presenting insights to executives and non-technical audiences around product analytics results into business recommendations
Applied experience with data analysis and machine learning (such as logistic regression, random forest, gradient boosting, clustering, neural networks) on large datasets
You have the technical competence to perform advanced analytics:
Coding skills such as Python and SQL
Apache Spark platform (including Dataset, SparkML)
Experience designing and implementing machine learning pipelines in production environments
Experience with deep learning methods such as RNN, LSTMs a plus
Demonstrated willingness to both teach others and learn new techniques
You are able to work independently but have great collaboration skills
You believe in what you do and feel a vested interest in company's success

***********************

Expected Hours of Work:
***********************

This is a full-time position. Generally, work is performed Monday through Friday, though holidays and weekends may be required.

*********************************************

We believe in equal employment opportunities:
*********************************************

The company provides equal employment opportunities (EEO) to all employees and applicants for employment without regard to race, color, religion, sex, national origin, age, disability or genetics. In addition to federal law requirements, the company complies with applicable state and local laws governing nondiscrimination in employment in every location in which the company has facilities. This policy applies to all terms and conditions of employment, including recruiting, hiring, placement, promotion, termination, layoff, recall, transfer, leaves of absence, compensation and training.

The company expressly prohibits any form of workplace harassment based on race, color, religion, gender, sexual orientation, gender identity or expression, national origin, age, genetic information, disability, or veteran status. Improper interference with the ability of the company's employees to perform their job duties may result in disciplinary actions up to and including discharge.

This role may require travel to our New York office several times per year."
