,Title,Location,City,State,Zip,Country,Qualifications,Skills,Responsibilities,Education,Requirement,FullDescriptions
0,Senior Statistician,"Austin, TX",Austin,TX,None Found,None Found,"
BS or degree in Statistics and a minimum of 7 years of relevant industry experience, MS degree preferred
Knowledge of industry standards, such as the ICH guidelines, CDISC data structures, 21 CFR Part 11, and FDA guidelines
Experience with SAS",None Found,"Provides operational support for Data Operations & Biostatistics
Generate randomization schedules
Provide sample size calculations
Provide input into development of case report forms (CRFs)
Author statistical analysis plans, including development of table and listing shells
Review statistical analysis plans written by other Biostatisticians
Generate analysis datasets, tables, figures, and listings to support the analysis of clinical trials data using SAS
Provide programming support to supplemental or exploratory analyses for regulatory agencies or any other internal and external ad-hoc requests
Perform quality control for SAS programs and other study documents (e.g., presentations and reports)
Provide statistical analysis and reports to team and clients as requested
Review output across programs to ensure consistency
Prepare statistical sections of clinical study reports
Provide technical oversight and leadership in the areas of analysis and reporting
Participate in the development and/or maintenance of departmental procedures and standards
Serve as the primary project team representative, delegating work as appropriate
Train and mentor new statisticians
Interact directly with clients
Works on routine assignments per written procedures, where ability to recognize deviation from accepted practice is required
Normally receives minimal instructions on routine work and detailed instructions on new assignments
Works under close supervision from supervisor or senior personnel
Ability to work in a team environment and independently as required
May be required to work Holidays and weekends (rarely)
","
BS or degree in Statistics and a minimum of 7 years of relevant industry experience, MS degree preferred
Knowledge of industry standards, such as the ICH guidelines, CDISC data structures, 21 CFR Part 11, and FDA guidelines
Experience with SAS","
BS or degree in Statistics and a minimum of 7 years of relevant industry experience, MS degree preferred
Knowledge of industry standards, such as the ICH guidelines, CDISC data structures, 21 CFR Part 11, and FDA guidelines
Experience with SAS","Overview
Job Summary: The Senior Statistician provides statistical support for all phases of clinical development. Specific responsibilities include writing and reviewing statistical sections of protocols, writing and reviewing statistical analysis plans, providing input to clinical development plans, and developing SAS programs. This can be an in-office or remote position with less than 10% travel.
Responsibilities
Essential Job Functions:
Provides operational support for Data Operations & Biostatistics
Generate randomization schedules
Provide sample size calculations
Provide input into development of case report forms (CRFs)
Author statistical analysis plans, including development of table and listing shells
Review statistical analysis plans written by other Biostatisticians
Generate analysis datasets, tables, figures, and listings to support the analysis of clinical trials data using SAS
Provide programming support to supplemental or exploratory analyses for regulatory agencies or any other internal and external ad-hoc requests
Perform quality control for SAS programs and other study documents (e.g., presentations and reports)
Provide statistical analysis and reports to team and clients as requested
Review output across programs to ensure consistency
Prepare statistical sections of clinical study reports
Provide technical oversight and leadership in the areas of analysis and reporting
Participate in the development and/or maintenance of departmental procedures and standards
Serve as the primary project team representative, delegating work as appropriate
Train and mentor new statisticians
Interact directly with clients
Works on routine assignments per written procedures, where ability to recognize deviation from accepted practice is required
Normally receives minimal instructions on routine work and detailed instructions on new assignments
Works under close supervision from supervisor or senior personnel
Ability to work in a team environment and independently as required
May be required to work Holidays and weekends (rarely)
Contributes to the overall operations and to the achievement of departmental goals
Perform job specific tasks in compliance with applicable Regulations, International Standards, and WuXi AppTec Policies and Standard Operating Procedures
Thorough understanding of FDA Guidelines, ICH, GCP, NDA, IND and other applicable regulations
Other duties as assigned
May be required to assist in other departments
Qualifications
Job Requirements

Experience / Education:
BS or degree in Statistics and a minimum of 7 years of relevant industry experience, MS degree preferred
Knowledge of industry standards, such as the ICH guidelines, CDISC data structures, 21 CFR Part 11, and FDA guidelines
Experience with SAS
Knowledge / Skills / Abilities:
Proficient in oral & written communication skills
Need to be able to read, write and understand English
Proficient in Microsoft (Excel, Word, Outlook)
Excellent organizational skills, time management, and ability to coordinate workload and meet established deadlines.
Excellent communication and interpersonal skills to effectively interface with others
Travel is required <10% , Domestic/International, Daily / Overnight
Physical Requirements:
Must be able to work in an office environment, which has minimal noise conditions
Ability to stand or sit for most of the work day
Must be able to perform some activities with repetitive motion, such as keyboarding

This job description does not state or imply that the above are the only duties and responsibilities assigned to this position. Employees holding this position will be required to perform any other job-related duties as requested by Management.

An Equal Opportunity Employer. All qualified applicants will receive consideration for employment without regard to race, color, religion, sex, sexual orientation, gender identity, national origin, or protected veteran status and will not be discriminated against on the basis of disability."
1,Statistician,"Austin, TX",Austin,TX,None Found,None Found,None Found,None Found,None Found,None Found,None Found,"FLSA Status: Exempt


Position Summary:
The primary function of this position is to provide statistical expertise to support the development of ICU products and to solve plant or customer originated related product and process concerns. This involves the use of statistical tools and optimized sampling. Identification of appropriate acceptance criteria, experimental design, and appropriate data analysis to conclusion will often determine whether or not a project is feasible, defendable to regulatory agencies, or commercially justified. Without the correct analysis, erroneous conclusions can be made, incorrect strategic decisions can result, and costs of correcting these errors can rise dramatically. Poor statistical understanding leads to manufacturing process plagued with inefficiencies or the product may failing to meeting the quality, purity, potency and identity specifications throughout shelf-life. This can impact a wide range of project types, including cost reductions, raw material replacements, and new product development. This role will provide subject matter expertise in the area of statistical analysis for site Technical, Quality, Engineering and Operations leadership and technical teams to support development decisions and continuous improvement initiatives site wide.

Essential Duties & Responsibilities:Act as a plant resource to create and maintain processes for statistically evaluating data used in existing products for cost reductions, performance improvements or which enable the development of new products. Use appropriate statistical tools to define problems and propose solution approaches to issues posed by internal commercial, operational, quality, or external regulatory requirements. Statistical tools include, but are not limited to: statistical design of experiments, regression analysis, analysis of variance, distribution fitting and prediction, confidence intervals, acceptance sampling, population modeling, attribute/categorical analysis, capability analysis, nonparametric methods, and statistical process control charting.Analyze and interpret information, whether it be test data, published scientific papers and patents or raw material vendor-supplied information. Demonstrate the ability to absorb and reduce such information to practical actions and recommendations.Provide statistical assistance in setting up sampling plans for evaluation of new products and amended processes.Provide statistical expertise to site Technical, Quality, Engineering and Operations leadership to aid in the strategic and tactical decision making process.Communicate effectively (verbally and in writing) across disciplines and with internal and external stakeholders on technical statistical questions.Plan, conduct and rigorously document analyses in technical memos and reports in support of product and process development, refining the manufacturing process for existing products, cost reduction, or and process improvement of existing products.Ensure that statistical analyses meet the requirements of all relevant regulatory agencies. Act as the SME on fundamental statistical questions with internal and external regulatory representativesCharacterize/evaluate existing manufacturing and analytical testing methods and evaluate potential improvements.Interface with ICU corporate and site technical resources to leverage the advantages of their perspective and assure project conformance to applicable ICU standards, current best practices and Quality Standards.Maintain technical skills in the latest techniques for statistical analysis as applied to cGMP pharmaceutical manufacturing.Provide statistical support to root cause investigations, troubleshooting efforts and product performance issues.Perform other related duties as assigned or required.

Knowledge, Skills & Qualifications:The candidate should have problem solving skills and the ability to correlate the statistical findings with potential process improvement opportunities and experience in planning and interpreting the results of Design of Experiments (DOE).

 Education and Experience:Requires a Bachelorâ€™s degree in statistics or biostatisticsASQ Certified Quality Engineer and Six Sigma Green Belt preferred.Requires 3-5 years of statistical analysis experience in the pharmaceutical or equivalently regulated field (aviation, food, etc.). Experience in a product/process development environment desired.Superior statistical process control and problem solving skills required.Must have project management experience or project development experience with demonstrated successful results.Experience with data analysis computer tools, word-processing, spreadsheet and presentation software required (e.g. Minitab, MS Word, Excel, Access, Infinity QS, JMP).The incumbent should have experience in implementing and maintaining a statistical process control program for a manufacturing operation.

Minimum Qualifications:Must be at least 18 years of ageMust pass pre-employment drug screen and background check

Travel Requirements:Typically requires travel less than 5% of the time

Physical Requirements and Work Environment:Generally office environment.Cleanroom and/or manufacturing or laboratory environment to support data collection, troubleshooting and application of recommendations.Ability to work night, weekend and holiday hours as required by projects and by support for 24/7 operations

We are an Equal Employment Opportunity Employer, Female/Minority/Veterans/Disabled/Sexual Orientation/Gender Identity."
2,Ultimate Hoops Statistician,"Austin, TX 78717",Austin,TX,78717,None Found,None Found,None Found,"
Assures all players are checked in and present on official scoresheets
Tracks all relevant statistics during games
Works closely with League Coordinator to ensure member satisfaction
Assists in game preparations and/or clean up as needed
Actively promotes Ultimate Hoops and Life Time Fitness to members and non-members
Articulates extensive knowledge of Ultimate Hoops and Life Time Fitness programs, products, services, policies and procedures to prospective and current members",None Found,"
High School Diploma or GED
Experience tracking full statistical data for basketball games","Description
Position Summary
The Statistician assists in the execution of Ultimate Hoops Basketball League by tracking full statistics for League games.
Job Duties and Responsibilities
Assures all players are checked in and present on official scoresheets
Tracks all relevant statistics during games
Works closely with League Coordinator to ensure member satisfaction
Assists in game preparations and/or clean up as needed
Actively promotes Ultimate Hoops and Life Time Fitness to members and non-members
Articulates extensive knowledge of Ultimate Hoops and Life Time Fitness programs, products, services, policies and procedures to prospective and current members
Position Requirements
High School Diploma or GED
Experience tracking full statistical data for basketball games"
