,Title,Location,City,State,Zip,Country,Qualifications,Skills,Responsibilities,Education,Requirement,FullDescriptions
0,Data Scientist Technical Lead,"Mountain View, CA",Mountain View,CA,None Found,None Found,None Found,None Found,"
Work with large, complex Geo datasets and solve difficult, non-routine analysis problems, applying advanced analytical methods as needed. Conduct end-to-end analysis that includes data gathering and requirements specification, processing, analysis, ongoing deliverables, and presentations.
Build and prototype analysis pipelines iteratively to provide insights at scale. Develop comprehensive understanding of Google data structures and metrics, advocating for changes where needed for both products development and sales activity.
Make business recommendations (e.g., cost-benefit, forecasting, experiment analysis) with effective presentations of findings at multiple levels of stakeholders through visual displays of quantitative information.
Research and develop analysis, forecasting and optimization methods to improve the quality of Google's user facing products; example application areas include ads quality, search quality, end-user behavioral modeling, and live experiments.
Manage a data science team. Interact cross-functionally with a wide variety of leaders and teams, and work closely with Engineers and Product Managers to identify opportunities for design and to assess improvements for Google products.
",None Found,None Found,"Note: By applying to this position your application is automatically submitted to the following locations: New York, NY, USA; Mountain View, CA, USA; Seattle, WA, USA
Minimum qualifications:

Master's degree in a quantitative discipline (e.g., Statistics, Operations Research, Bioinformatics, Economics, Computational Biology, Computer Science, Mathematics, Physics, Electrical Engineering, Industrial Engineering) or equivalent practical experience.
10 years of relevant experience in data analysis or related field as a Statistician, Data Scientist, Computational Biologist, or Bioinformatician.
5 years of experience in people management or leadership.
Experience with statistical software (e.g., R, Python, MATLAB, pandas) and database languages (e.g., SQL).

Preferred qualifications:

Doctorate's degree in a quantitative discipline (e.g., Statistics, Operations Research, Bioinformatics, Economics, Computational Biology, Computer Science, Mathematics, Physics, Electrical Engineering, Industrial Engineering).
12 years of directly relevant, tech industry work experience (e.g., as a statistician, bioinformatician, or data scientist), with deep expertise in statistical data analysis, such as linear models, multivariate analysis, stochastic models, and sampling methods.
8 years of demonstrated leadership and self-direction including people management.
Applied experience with machine learning on large datasets.
Experience articulating business questions and using mathematical techniques to arrive at an answer using available data.
Demonstrated skills in selecting the right statistical tools given a data analysis problem.
About the job
The Geo team builds the most accurate, comprehensive, and useful maps for our users. More than a billion people rely on Google Maps services to explore the world and navigate their daily lives. That includes sailing down the Amazon river, choosing where to get a bite of pizza, flying over a 3D version of New York City and saving time commuting.

Geo helps merchants get their businesses on Google, and more than a million developers use the power of Google Maps to enhance their apps and websites. They are solving complex computer science problems, designing beautiful and intuitive product experiences and improving the accuracy of our geo data, all in order to plot a course for the future of mapping.
Responsibilities
Work with large, complex Geo datasets and solve difficult, non-routine analysis problems, applying advanced analytical methods as needed. Conduct end-to-end analysis that includes data gathering and requirements specification, processing, analysis, ongoing deliverables, and presentations.
Build and prototype analysis pipelines iteratively to provide insights at scale. Develop comprehensive understanding of Google data structures and metrics, advocating for changes where needed for both products development and sales activity.
Make business recommendations (e.g., cost-benefit, forecasting, experiment analysis) with effective presentations of findings at multiple levels of stakeholders through visual displays of quantitative information.
Research and develop analysis, forecasting and optimization methods to improve the quality of Google's user facing products; example application areas include ads quality, search quality, end-user behavioral modeling, and live experiments.
Manage a data science team. Interact cross-functionally with a wide variety of leaders and teams, and work closely with Engineers and Product Managers to identify opportunities for design and to assess improvements for Google products.
At Google, we don’t just accept difference—we celebrate it, we support it, and we thrive on it for the benefit of our employees, our products and our community. Google is proud to be an equal opportunity workplace and is an affirmative action employer. We are committed to equal employment opportunity regardless of race, color, ancestry, religion, sex, national origin, sexual orientation, age, citizenship, marital status, disability, gender identity or Veteran status. We also consider qualified applicants regardless of criminal histories, consistent with legal requirements. See also Google's EEO Policy and EEO is the Law. If you have a disability or special need that requires accommodation, please let us know by completing this form."
1,Computational Biologist,"Palo Alto, CA",Palo Alto,CA,None Found,None Found,"
M.S./PhD in Biostatistics, Bioinformatics, Computer Science combined with Biological research, or other related disciplines involving both biology and computation, with 1-4 years of post-graduate experience
Ideally, the candidate will have a proven track record with publications, co-inventorships or other impressive achievements demonstrating mastery of both biology and computational analysis
Strong foundational knowledge and experience in Biology, particularly the methods for generating large scale data sets in epigenomics, genomics, transcriptomics, and proteomics
Published expertise in computational omics analysis, including but not limited to data mining of large omics datasets, ideally on multiple data types simultaneously and integratively
Expertise in statistics and modeling, including but not limited to Bayesian statistics, linear and non-linear modeling, multivariate analysis, network analysis, machine learning, and algorithm development
Excellent verbal and written communication skills
Demonstrated expertise in a scripting language (Perl or Python).
Demonstrated expertise in statistical computing language - R is preferred
Familiarity with bootstrap and python web frameworks like Django/Web2py is a plus.
Self-Starter – Can work independently and able to collaborate with scientists to make appropriate and timely decisions to meet deadlines on experiments and projects
Industry or startup R&D experience",None Found,None Found,None Found,"
M.S./PhD in Biostatistics, Bioinformatics, Computer Science combined with Biological research, or other related disciplines involving both biology and computation, with 1-4 years of post-graduate experience
Ideally, the candidate will have a proven track record with publications, co-inventorships or other impressive achievements demonstrating mastery of both biology and computational analysis
Strong foundational knowledge and experience in Biology, particularly the methods for generating large scale data sets in epigenomics, genomics, transcriptomics, and proteomics
Published expertise in computational omics analysis, including but not limited to data mining of large omics datasets, ideally on multiple data types simultaneously and integratively
Expertise in statistics and modeling, including but not limited to Bayesian statistics, linear and non-linear modeling, multivariate analysis, network analysis, machine learning, and algorithm development
Excellent verbal and written communication skills
Demonstrated expertise in a scripting language (Perl or Python).
Demonstrated expertise in statistical computing language - R is preferred
Familiarity with bootstrap and python web frameworks like Django/Web2py is a plus.
Self-Starter – Can work independently and able to collaborate with scientists to make appropriate and timely decisions to meet deadlines on experiments and projects
Industry or startup R&D experience","Position Description
Juvena Therapeutics, Inc. is a regenerative medicine biotech startup inviting applications for Computational Biologist/Biostatistician who are excited to work as a core member of a team focused on the discovery and validation of novel candidate biologics for tissue regeneration and increased stem cell activity using computational analysis, high throughput in vitro screening assays and in vivo healthspan assays.
Latest approaches in biostatistics, bioinformatics and machine learning will be applied to optimize high-throughput screening assays and analysis of healthspan assays. Predictive modeling will be applied to enhance the efficiency of lead therapeutic drug screening.
The position is full-time starting as early as possible. This is the perfect opportunity for someone interested in the exciting and fast-paced environment of a startup company looking to make a difference in human healthspan and longevity.
Position Requirements
The computational biologist/biostatistician will be responsible for extracting meaningful biological insights from various large, complex omics datasets and integrating the results into Juvena Therapeutics’ growing in house database. He or she will possess expert knowledge of statistics and statistical modeling, as well as adroitly representing complex data relationships in visual form. He or she will develop and apply statistical modeling to enhance the efficiency of candidate biologics screening for increased stem cell activity from prototype to scale deployment.
The computational biologist/statistician will manage Google Cloud and AWS resources connected to relevant projects. He or she will interact cross-functionally, making strategy recommendations with effective presentations of highly polished project results for both savvy and novice audiences, and improve automation of data analysis and reporting.
Preferred Qualifications
M.S./PhD in Biostatistics, Bioinformatics, Computer Science combined with Biological research, or other related disciplines involving both biology and computation, with 1-4 years of post-graduate experience
Ideally, the candidate will have a proven track record with publications, co-inventorships or other impressive achievements demonstrating mastery of both biology and computational analysis
Strong foundational knowledge and experience in Biology, particularly the methods for generating large scale data sets in epigenomics, genomics, transcriptomics, and proteomics
Published expertise in computational omics analysis, including but not limited to data mining of large omics datasets, ideally on multiple data types simultaneously and integratively
Expertise in statistics and modeling, including but not limited to Bayesian statistics, linear and non-linear modeling, multivariate analysis, network analysis, machine learning, and algorithm development
Excellent verbal and written communication skills
Demonstrated expertise in a scripting language (Perl or Python).
Demonstrated expertise in statistical computing language - R is preferred
Familiarity with bootstrap and python web frameworks like Django/Web2py is a plus.
Self-Starter – Can work independently and able to collaborate with scientists to make appropriate and timely decisions to meet deadlines on experiments and projects
Industry or startup R&D experience
Personality Match
This position is a great fit if you possess:
Enthusiastic team player mentality
High attention to detail
Excellent command of English verbal/written communication
Tenacious problem solving skills
email your CV and Cover Letter to apply@juvenatherapeutics.com with the title of the position as the subject line."
2,Quantitative Research Analyst II,"Palo Alto, CA",Palo Alto,CA,None Found,None Found,"Some experience with SAS, (SAS/STAT, Enterprise Guide, JMP), Stata, R/Splus, or SQL;
Some experience with graphics software packages;
For candidates with a Master’s degree: statistical programming certification (or intent to pursue);
Experience with exporting data from survey software;
Experience summarizing and communicating results to non-statistician colleagues.",None Found,None Found,None Found,None Found,"Position Overview:
Job Summary: This is a quantitative research analyst position to conduct and support data analysis and the data management needs of Research Institute projects in the areas of clinical research, quality improvement, health care financing, medical informatics, and/or quality improvement. In addition, this position often participates in the design and dissemination of the research studies in which they are involved.
The analyst will collaborate regularly with appropriate resources – internal and external (if needed) – to problem solve, investigate and identify alternative solutions, and share their knowledge and expertise with their RI colleagues.
Interactions for Quantitative Research Analysts typically occur with immediate supervisor, PAMFRI faculty and investigators, the PAMF Information Management Group and other Quantitative Research Analysts, and PAMF/PAMFRI IT support teams.
Conduct and execute statistical analyses, as determined by investigator’s research studies, using statistical software (e.g. SAS, STATA, R) including multivariable regression analysis and approaches to missing data.

Prepare and communicate analysis results to be shared with study staff.

Assist in dissemination of findings (e.g., manuscripts, presentations) through participation in writing and review of methods and results sections of papers and preparing oral and visual presentations (

Implement data management and documentation procedures, in an accurate, secure, and efficient manner, according to established policy and procedures in place to ensure participant/patient confidentiality and protected health information. Specific tasks include, but are not limited to, documentation of databases, statistical analyses, and output; data cleaning and validation; and creating data dictionaries and analytic datasets.

Assist investigators and senior analysts with research plan design and execution. In addition to drafting statistical analysis plans, activities include, but are not limited to, recommending the appropriate analytic approach, and assisting with sample size and power calculations.

Other duties as assigned.

Qualifications:
REQUIRED: The position requires a MS/MA in Statistics, Public Health, Epidemiology, Psychology or a related field or a BS in a field such as computer science, statistics, or equivalent.
A minimum of 5 years’ programming experience (or BS plus 5 years’ experience and appropriate certifications) involving multiple types of analysis (e.g. multivariate linear and logistic regressions) using SAS and at least one other statistical software package.
PREFERRED:
Some experience with SAS, (SAS/STAT, Enterprise Guide, JMP), Stata, R/Splus, or SQL;
Some experience with graphics software packages;
For candidates with a Master’s degree: statistical programming certification (or intent to pursue);
Experience with exporting data from survey software;
Experience summarizing and communicating results to non-statistician colleagues.

Organization: Palo Alto Medical Foundation
Employee Status: Regular
Employee Referral Bonus: No
Benefits: Yes
Position Status: Exempt
Union: No
Job Shift: Day
Shift Hours: 8 Hour Shift
Days of the Week Scheduled: Monday-Friday
Weekend Requirements: None
Schedule: Full Time
Hrs Per 2wk Pay Period: 80"
3,CMC Statistician,"Menlo Park, CA 94025",Menlo Park,CA,94025,None Found,"PhD with minimum of 4 years, or MS with minimum of 8 years, of relevant experience in the application of statistical techniques in the areas of process development, validation or manufacturing in a medical device, biotech or pharmaceutical industry
Education majoring in statistics, biostatistics, or related field with sufficient concentration in chemistry and statistics
Demonstrated application of statistical techniques in multiple areas of CMC, process development including:
Process characterization and validation
Process modelling, capability and trend analyses
Data mining large sets of process and manufacturing history and presenting through data visualization plots, mathematical modelling and prediction profiling
Data trending and tracking
Expertise in a wide range of statistical techniques including, but not limited to, linear and non-linear mixed modeling, generalized linear modeling, multivariate and non-parametric analysis, experiment design, process improvement methodologies and statistical data mining
In-depth knowledge and extensive programming abilities in SAS, JMP, R, Matlab and/or other programming languages for statistical applications in pharmaceutical industry
Excellent oral and written communications skills
Experience in writing technical protocols
Ability to communicate complex statistical concepts to non-statisticians
Demonstrable project management and interpersonal skills
Self-starter with the ability to work on a cross-functional team
Experience working in rare diseases or in trials with small populations would be an advantage",None Found,None Found,None Found,"
Provide scientific direction in statistical design of experiments for bio-pharmaceutical process development and manufacturing, working closely with both internal CMC group and with external CMOs
Provide statistical input to process development, characterization and validation, as well as for the setting of specifications and quality attribute trending, in support of regulatory submissions
Conduct statistical analysis for complex experimental designs during the development of validation protocols and validation reports, including the design of the experiments
Establish standards and processes to ensure that all statistical analyses are performed in a consistent and rigorous manner, using QbD and statistical principles to drive process improvement at both pilot and manufacturing scales
Establish statistical tools and data mining to enable a platform approach to development, manufacturing and process validation
Provide technical oversight of statistical activities of external vendors to ensure timeliness and quality of analysis data and statistical outputs
Author high quality technical reports summarizing statistical designs and methods, data analyses and interpretation
","Location: Menlo Park
Reporting to: Vice President, Analytical Operations
The CMC Statistician at Orchard Therapeutics is a key member of a cross-functional team working to provide transformative gene therapies to patients with rare diseases. Reporting to the Vice President Analytical Operations, this role provides a unique opportunity to contribute your statistical expertise to all aspects of clinical drug development in a dynamic environment.
Requirements
Provide scientific direction in statistical design of experiments for bio-pharmaceutical process development and manufacturing, working closely with both internal CMC group and with external CMOs
Provide statistical input to process development, characterization and validation, as well as for the setting of specifications and quality attribute trending, in support of regulatory submissions
Conduct statistical analysis for complex experimental designs during the development of validation protocols and validation reports, including the design of the experiments
Establish standards and processes to ensure that all statistical analyses are performed in a consistent and rigorous manner, using QbD and statistical principles to drive process improvement at both pilot and manufacturing scales
Establish statistical tools and data mining to enable a platform approach to development, manufacturing and process validation
Provide technical oversight of statistical activities of external vendors to ensure timeliness and quality of analysis data and statistical outputs
Author high quality technical reports summarizing statistical designs and methods, data analyses and interpretation

Qualifications
PhD with minimum of 4 years, or MS with minimum of 8 years, of relevant experience in the application of statistical techniques in the areas of process development, validation or manufacturing in a medical device, biotech or pharmaceutical industry
Education majoring in statistics, biostatistics, or related field with sufficient concentration in chemistry and statistics
Demonstrated application of statistical techniques in multiple areas of CMC, process development including:
Process characterization and validation
Process modelling, capability and trend analyses
Data mining large sets of process and manufacturing history and presenting through data visualization plots, mathematical modelling and prediction profiling
Data trending and tracking
Expertise in a wide range of statistical techniques including, but not limited to, linear and non-linear mixed modeling, generalized linear modeling, multivariate and non-parametric analysis, experiment design, process improvement methodologies and statistical data mining
In-depth knowledge and extensive programming abilities in SAS, JMP, R, Matlab and/or other programming languages for statistical applications in pharmaceutical industry
Excellent oral and written communications skills
Experience in writing technical protocols
Ability to communicate complex statistical concepts to non-statisticians
Demonstrable project management and interpersonal skills
Self-starter with the ability to work on a cross-functional team
Experience working in rare diseases or in trials with small populations would be an advantage"
4,Economist/Statistician - Amazon Search Technologies,"Palo Alto, CA",Palo Alto,CA,None Found,None Found,None Found,None Found,None Found,None Found,None Found,"PhD in Economics, Statistics, Finance or related fieldAt least 2 years of experience with data querying languages (e.g. SQL), scripting languages (e.g. Python), or statistical/mathematical software (e.g. R, Stata, Matlab)Experience articulating business questions and using quantitative techniques to arrive at a solution using available data

Description
Amazon.com strives to be Earth's most customer-centric company where people can find and discover anything they want to buy online. We hire the world's brightest minds, offering them a fast paced, technologically sophisticated and friendly work environment.

We need an expert in econometric and statistical tools to extract insights at scale by building models with our world class data systems, designing advanced new experimental methods, and investigating complex behavioral patterns.

Team Introduction
The Amazon Search team creates powerful, customer-focused search and advertising solutions and technologies. Whenever a customer visits an Amazon site worldwide and types in a query or browses through product categories, our services go to work. We design, develop, and deploy high performance, fault-tolerant distributed search systems used by millions of Amazon customers every day. Our Search Relevance team works to maximize the quality and effectiveness of the search experience for visitors to Amazon websites worldwide.

Within Amazon Search, the Data Science team brings expertise in constrained optimization, modeling data, and experimental methods. We partner with internal and external teams to bring data to active projects in addition to pioneering new insights, measurement and testing methodologies, and optimization strategies. This ensures the proper scientific use of data in launch decisions and that we are properly optimizing all trade-offs in product design. In addition to working with partners, we incubate new modeling techniques, and perform 'front line recon' on potential new models and tools.

Responsibilities Scientists at Amazon are expected to develop new techniques to process large data sets, address quantitative problems, and contribute to design of automated systems around the company. Major responsibilities include:
Measure / Quantify / Expand
Design, size, and analyze field experiments at scale.Apply econometric or statistical knowledge to improve Amazon Search (using machine learning techniques is a plus)Retrieve, synthesize, and present critical data in a format that is immediately useful to answering specific questions or improving system performance.Analyze historical data to identify trends and support decision making.
Explore / Enlighten
Formalize assumptions about how Amazon Search is expected to work.Given anomalies, whether anecdotal or identified automatically, deep dive to explain why they happen, and identify fixes.
Decide / Recommend
Build decision-making models and propose solution for the business problem you definedAnalyze A/B tests and recommend ways to making them faster and more robustConduct written and verbal presentation to share insights and recommendations to audiences of varying levels of technical sophistication.Utilize code (python or another object oriented language) for data analyzing and modeling algorithm

Applicants with more experience, including mid-career, are also strongly encouraged.Strong background in statistics methodology, applications to business problems, and/or big data.Ability to work in a fast-paced business environment.Strong research track record.Effective verbal and written communications skills.Experience processing, filtering, and presenting large quantities (Millions to Billions of rows) of dataExperience designing experiments, and ability to infer causal relationships1-2 years of experience in industry, consulting, government or academic research
Amazon is an Equal Opportunity-Affirmative Action Employer – Minority / Female / Disability / Veteran / Gender Identity / Sexual Orientation"
5,Data Scientist (2 Year Fixed Term),"Stanford, CA",Stanford,CA,None Found,None Found,None Found,None Found,None Found,None Found,None Found,"JCC: 5522
Grade: I
Fixed-Term: 2 Years

The Department of Ophthalmology at Stanford University School of Medicine is seeking a highly motivated, hard-working and professional Data Scientist to lead and facilitate research efforts with ophthalmology. The incumbent will be part of the department of ophthalmology, however, the position will require engaging with other Stanford faculty and staff across multiple departments, including Health Research and Policy, Biomedical Data Science, and Medicine. The incumbent will coordinate and lead Stanford’s research activities for the ophthalmology IRIS (Intelligent Research In Sight) national clinical data registry—Stanford having been selected as one of 5 registry research sites in the US. The incumbent will also work with other data sets, including commercial and Medicare claims data, national survey data, clinical trial data, electronic health record data (structured and unstructured), imaging data, and other sources.

The position will require an incumbent who is comfortable working with some independence; consulting with and advising investigators to refine research questions, define hypotheses, design studies and devise analysis plans; and working with project team members—including other statistician(s), methods content experts, and clinicians—to implement analysis plans and publish findings. The incumbent must be proficient at balancing involvement in multiple simultaneous projects and prioritizing to manage competing priorities.

Under minimal supervision, the incumbent will perform the most complex technical work associated with a wide variety of analytical data and may supervise and advise students, trainees, and other statisticians performing data analysis. The incumbent will work closely with others to interrogate databases to create analytic files, perform quality control and data cleaning, and manage and analyze data. Present results orally to clinical investigators. Provide guidance to clinical investigators on design and analysis issues.

Duties include:
Work directly with investigators and independently identify appropriate statistical approaches to data analyses; assist in study design and proposal development.
Create analytic files with detailed documentation.
Lead research projects, collaborator engagement, and project status updates for national ophthalmology IRIS registry data at Stanford
Implement data analysis through statistical programming.
Create data dictionaries and libraries that document how data are housed
Create non-routine databases and their related information summary; develop algorithms and statistical models; and perform statistical analyses appropriate to complex data and reporting requirements
Work under consultative or self-initiated direction to assess and produce relevant, standard, or custom information (reports, charts, graphs and tables) from structured data sources by querying data repositories and generating the associated information. Distribute and disseminate reports to applicable agencies, researchers, management and other internal end-users
Devise methods for identifying data patterns, trends in available information sources using a variety of qualitative and quantitative techniques. Determine and recommend additional data collection and reporting requirements
Serve as a resource for non-routine inquiries such as requests for statistics or surveys
Summarize findings orally and in written form.
Participate in preparation of conference presentations and peer-reviewed journal articles.
Oversee and advise lower level staff on analyses

- Other duties may also be assigned

DESIRED QUALIFICATIONS:
PhD in biomedical informatics, computer science, biostatistics, health services research, or related field
Strong background in machine learning, biostatistics and bioinformatics.
At least 2 years of experience in industry as a data scientist, or collaborating with biostatisticians and clinical investigators on research studies
Experience with large datasets and database use.
Experience with analysis of electronic medical data.
Manipulation and analyses of complex high-dimensional data.
Programming (python, R, Javascript, C++) and database skills (SQL) for database manipulation
Familiarity with statistical packages such as SAS, R, and/or Stata
Experience with database curation
Experience with deep learning approaches, e.g., neural networks
Demonstrated ability to implement machine learning models in scalable format for broad applicability.
Strong communication and presentation skills.
EDUCATION & EXPERIENCE (REQUIRED):
Master's degree in biostatistics, statistics or related field and at least 3 years of experience.

KNOWLEDGE, SKILLS AND ABILITIES (REQUIRED):
Strong listening, verbal and written communication skills
Ability to manage multiple activities in a deadline-oriented environment; highly organized, flexible and rigorous attention to detail
In-depth knowledge and experience using and applying analytical software, database management system software, database reporting software, database user interface and query software, and data mining software
Proficient in at least two of R, SAS, SPSS, or STATA.
Skills in descriptive analysis, modeling of data, and graphic interfaces.
Outstanding ability to communicate technical information to both technical and non-technical audiences.
Demonstrated excellence in at least one area of expertise, which may include coordinating studies; statistical methodology such as missing data, survival analysis, statistical genetics, or informatics; statistical computing; database design (e.g., expertise in RedCAP or MySQL); graphical techniques (e.g., expertise in Illustrator).

PHYSICAL REQUIREMENTS*:
Frequently perform desk based computer tasks, seated work and use light/ fine grasping.
Occasionally stand, walk, and write by hand, lift, carry, push pull objects that weigh up to 10 pounds.

- Consistent with its obligations under the law, the University will provide reasonable accommodation to any employee with a disability who requires accommodation to perform the essential functions of his or her job.

WORKING CONDITIONS:
May work extended or non-standard hours based on project or business cycle needs.

WORK STANDARDS:
Interpersonal Skills: Demonstrates the ability to work well with Stanford colleagues and clients and with external organizations.
Promote Culture of Safety: Demonstrates commitment to personal responsibility and value for safety; communicates safety concerns; uses and promotes safe behaviors based on training and lessons learned.
Subject to and expected to comply with all applicable University policies and procedures, including but not limited to the personnel policies and other policies found in the University's Administrative Guide, http://adminguide.stanford.edu."
6,Decision Scientist,"San Jose, CA 95131",San Jose,CA,95131,None Found,None Found,None Found,None Found,None Found,None Found,"Who we are
Fueled by a fundamental belief that having access to financial services creates opportunity, PayPal (NASDAQ: PYPL) is committed to democratizing financial services and empowering people and businesses to join and thrive in the global economy. Our open digital payments platform gives PayPal’s 277 million active account holders the confidence to connect and transact in new and powerful ways, whether they are online, on a mobile device, in an app, or in person. Through a combination of technological innovation and strategic partnerships, PayPal creates better ways to manage and move money, and offers choice and flexibility when sending payments, paying or getting paid. Available in more than 200 markets around the world, the PayPal platform, including Braintree, Venmo and Xoom, enables consumers and merchants to receive money in more than 100 currencies, withdraw funds in 56 currencies and hold balances in their PayPal accounts in 25 currencies.
When applying for a job you are required to create an account, if you have already created account - click Sign In.
Creating an account will allow you to follow the progress of your applications.
Note:
Provide full legal first Name/Family Name
DO: Capitalize first letter of First and Last Name. Example: John Smith
DON'T: Capitalize entire First and/or Last Name. Example: JOHN SMITH
NOTE: Use correct grammar for Names with multiple cases. Example: McDonald or O'Connell

Provide full address details
Resume is required
Multiple attachments can be uploaded including Resume and Cover Letter for each application

Job Description Summary:
Decision scientists are highly motivated team players with self-learning ability who specialize in creating, driving and executing initiatives to mitigate fraud patterns while improving the customer’s experience for the PayPal’s hundreds of millions of customers.

The day to day job involves identifying fraud patterns based on analysis of huge data sets, creating mitigations to prevent fraud on PayPal’s customers and adapting advanced proprietary fraud prevention mechanisms to enable PayPal’s growth. The decision scientists work with a wide verity of partners in the company such as product experts, developers, data scientists and engineers to bring their analytical insights to life.

The ideal candidates are problem solvers, equipped with strong analytical skills suited to approach varied challenges in complex big data environments. Decision scientists will be required to drive solutions from start to finish, have a strong sense of accountability coupled with passion for a great customer experience
Job Description:
What does Success Look Like?
Own Risk KPIs and deliver decision strategies
Develop data-driven decision strategies to support the business’ global financial goals, monitor their impact and adjust it according to the dynamic world we operate in.
Work with PayPal’s detailed business data to optimize performance and minimize financial loss across multiple products, global regions and financial systems.
Drive End-to-End processes with partners across many organizations
Plan and execute long-term projects from start to finish.
Drive partners from across the company to help in executing process.
Think and execute product requests to help Risk achieve their goals of reducing fraud losses and improving customers’ experience.
Support Product and Business Organizations
Guide the development of customer-facing products to enhance the PayPal experience around the world.
Work to improve user experience in PayPal’s products while maintaining high Risk decision accuracy.
Act as Risk’s point of contact for products launches, represent Risk’s point of view and make sure PayPal products are launched with Risk capabilities that meets our high standards.
About You
We know the confidence gap and imposter syndrome can get in the way of meeting spectacular candidates. Please don't hesitate to apply.
Bachelor’s Degree or above in one of the following: economics, finance, engineering, data sciences, etc.
5+ years (with Bachelor's degree) or 4+ years (with Master's degree) work experience in relevant positions (e.g. Decision scientist, data analyst, statistician, data scientist, FP&A, product/process manager, risk management, army intelligence units)
Excellent spoken and written English – a must
Technical orientation (Experience with SQL / R / Python/ programming/scripting language) – an advantage
Fast and self-learner, wide general knowledge, problem solver and a team player
Subsidiary:
PayPal
Travel Percent:
0
Primary Location:
San Jose, California, United States of America
Additional Locations:
We're a purpose-driven company whose beliefs are the foundation for how we conduct business every day. We hold ourselves to our One Team Behaviors which demand that we hold the highest ethical standards, to empower an open and diverse workplace, and strive to treat everyone who is touched by our business with dignity and respect. Our employees challenge the status quo, ask questions, and find solutions. We want to break down barriers to financial empowerment. Join us as we change the way the world defines financial freedom.
Paypal provides equal employment opportunity (EEO) to all persons regardless of age, color, national origin, citizenship status, physical or mental disability, race, religion, creed, gender, sex, pregnancy, sexual orientation, gender identity and/or expression, genetic information, marital status, status with regard to public assistance, veteran status, or any other characteristic protected by federal, state or local law. In addition, PayPal will provide reasonable accommodations for qualified individuals with disabilities."
7,Sr. Applied Machine Learning Scientist,"Sunnyvale, CA",Sunnyvale,CA,None Found,None Found,None Found,None Found,None Found,None Found,None Found,"MS or equivalent in a discipline of science like behavioral science, applied statistics, or engineeringFluent in SQL and PythonExperience in machine learning methods and causal inference5+ years of industry experience outside of course/degree studyExperience with experimental and observational research designDemonstrated ability to present research to senior stakeholders in the private sector

Amazon Lab126 is an inventive research and development company that designs and engineers high-profile consumer electronics. Lab126 began in 2004 as a subsidiary of Amazon.com, Inc., originally creating the best-selling Kindle family of products. Since then, we have produced groundbreaking devices like Fire tablets, Fire TV and Amazon Echo. What will you help us create?

The Applied Scientist will work on diverse problems, including bringing new features to our devices, customer insights into the product development process, and predicting the success of products we help launch. This Applied Scientist is a computer scientist, applied statistician, behavioral economist, or similarly qualified researcher with deep expertise in all aspects of quantitative research, including experimental design, statistics and machine learning, and data collection and processing in a variety of settings (e.g. surveys, behavioral metrics). This candidate also possesses strong verbal and written communication skills, an ability to convey complex findings to a variety of audiences, and exceptional organizational skills. This role provides opportunity for significant visibility to leadership, to provide novel insights to stakeholders with exciting data, and an exposure to Lab126’s newest products.

PhD in Social Sciences, Statistics, or EngineeringExperience converting ambiguous messy data into tangible, actionable resultsSpecialization in information extraction, graph-based learning
Lab126 is part of the Amazon.com, Inc. group of companies and is an Equal Opportunity-Affirmative Action Employer-Minority/Female/Disability/Veteran/Gender Identity/Sexual Orientation"
8,Biostatistical Programmer (contractor),"Pleasanton, CA",Pleasanton,CA,None Found,None Found,"BS, MS, or PhD",None Found,"Create standard SAS programs and macros to generate report-quality summary tables, listings and graphical presentations of clinical data.",None Found,None Found,"The Biostatistical Programming Contractor is responsible for providing quality programming and analysis support to the Biometrics and Data Management functions within the Clinical department.

Responsibilities:
Create standard SAS programs and macros to generate report-quality summary tables, listings and graphical presentations of clinical data.
Manage a small team of statistical programming contractors
Maintain documentation of standard programs and reports used within the Biometrics and Data Management (BDM) group
Prepare data and programs used for interim analyses, final analysis, new drug applications (NDA), presentations, and publications
Assist the study team statistician to complete the Statistical Analysis Plans required for different clinical studies.
Establish and maintain CDISC/SDTM structure for datasets and ability to merge relational database records (PROC SQL)
Review and provide appropriate input to the design of Case Report Forms or Electronic Data Capture screens
Review clinical data for inappropriate, illogical and/or inconsistent values. Develop and program electronic checks to assist data management and clinical with monitoring and scrubbing of clinical trial data as needed
Assist with resolution of unique queries that may arise during the data management and statistical analysis process
Provide ad-hoc data listings and summary information as requested by members of the BDM and Clinical groups
Perform quality control with respect to the data to be analyzed and the programs to be used for the analysis
Adhere to the standard computer directory and file structures used within the BDM group and Clinical department
Interact with the BDM group and other Astex personnel to maintain a high level of cooperation and professional integrity.

Qualifications
BS, MS, or PhD
Minimum of 10 years of SAS programming experience with at least 6 years’ experience in pharma/biotech
Strong, demonstrated team management and mentoring skills required
NDA experience preferred, oncology desirable
Comprehension of medical terminology
Ability to work in a regulated environment and adhere to Astex SOPs and procedures
Ability to manage work activities to meet department timelines
Well-developed critical information seeking and analytical thinking skills
Well-developed interpersonal awareness and team building skills
Thorough and detail oriented
Ability to learn and results oriented
Highly flexible and adaptable to changing needs
Excellent oral and written communication skills"
9,Sr. Data Scientist - Developer & Studio Ecosystems,"San Mateo, CA",San Mateo,CA,None Found,None Found,None Found,None Found,None Found,None Found,None Found,"------------------------------------------------------
Sr. Data Scientist - Developer & Studio Ecosystems
------------------------------------------------------

WHY ROBLOX?

Roblox is ushering in the next generation of entertainment, allowing people to imagine, create, and play together in immersive, user-generated worlds. We're the one and only fastest-growing entertainment platform that lets anyone teach themselves how to code, publish, and monetize any experience imaginable—across any device—reaching millions of players across the globe.

The impact that you can have at Roblox is powerful. We're looking for someone who's eager to take on a meaningful role in the success of Roblox on a massive scale. Someone who takes play seriously, but also isn't afraid to have some fun either. Someone who's ready to take Roblox—and their career—to the next level.

In 2018, we were honored to be recognized as a Certified Great Place to Work ( http://reviews.greatplacetowork.com/roblox-corporation )®. We've fostered a company culture that empowers people to do the most defining work of their career in an environment that's made up of the most passionate, team-oriented, visionary, crazy-smart people you'll ever meet. Join the Roblox team where play rules and the possibilities are endless.

Work with the most passionate, team-oriented, visionary, and crazy-smart people you'll ever meet.

As a Data Scientist for, you'll be a key participant in helping our developers to create great games at Roblox. You'll partner with data scientists, product managers and engineers to better understand our developers via performing ad hoc analysis, creating dashboards and designing A/B experiments.

You Are:

Passionate about data. You have the curiosity and self-drive to continuously learn new techniques and tools to extract value from data. You have a degree in Statistics, Economics, Computer Science or other relevant field.
A strong communicator. You understand that analysis must be presented in meaningful ways and engage in spirited discussions about the findings. You have the ability to explain technical concepts to non-technical audience.
A capable statistician. You understand the value of characterizing data by its distribution. Covariance, Bias, and Conditional Probability are concepts that you rely on every day.
An expert with SQL and a scripting language such as Python or R. You're experienced in automating efforts and crunching massive volumes of data.
Big Bonus: A love for game development and Roblox

You Will:

Accelerate product development through your understanding of the underlying data and your ability to partner with product and technical leaders to provide insights that drive growth.
Access raw data, and then transform it, analyze it, and render it in a compelling way--all using a custom analytics tool kit built from state-of-the-art open-source libraries.
Build dashboards to understand root causes to changes in metrics.
Evaluate A/B experiments to determine success of product feature launches.
Influence how Roblox interacts with its players and its platform developers

You'll Love:

Excellent medical, dental, and vision coverage
A rewarding 401k program
Flexible vacation policy
Free catered lunches five times a week and several fully stocked kitchens with unlimited snacks
Onsite fitness center and fitness program credit
Annual CalTrain Go Pass
A Roblox Admin badge for your avatar

Roblox – Powering Imagination.

#LI-CT1"
10,"Principal Statistician / Associate Director, Early Oncology Statistics","Redwood City, CA",Redwood City,CA,None Found,None Found,None Found,None Found,None Found,None Found,None Found,"Oncology is a key therapeutic area for AbbVie, with a portfolio consisting of three marketed products — Imbruvica, Venclexta, and Empliciti — and a pipeline containing multiple promising new molecules that are being studied in nearly 200 clinical trials in 19 different types of cancer.

We have an exciting opportunity for a senior level statistician (position title commensurate with experience). There is flexibility for this position to be based at our South San Francisco (CA), Redwood City (CA), or Lake County (IL) location. In this position, you will provide scientific and statistical expertise for drug discovery or development strategies for assigned project in early-stage oncology for the design, analysis, and reporting of scientific research trials and for interacting with regulatory agencies regarding the results of these activities. Detailed responsibilities include:
Protocols:
Directs the development of scientific protocols, ensuring they are scientifically sound and make optimal use of the data to be collected
Ensures research hypotheses and corresponding study designs are aligned with the project strategy, and meet scientific and/or regulatory needs
Ensures statistical methodology is appropriate and sound, consistent with the objective(s) of the scientific protocol
Database Activities:
In collaboration with Data Sciences, Statistical Programming and other partners, ensures data collection instruments are designed to capture protocol-specified scientific information and study databases (e.g., SAS, MS Access, Excel) are implemented such that short- and long-term project needs can be achieved
Oversees or partners in the development of data quality assurance checks, ensuring accuracy and consistency of data released for statistical analysis
Statistical Analyses:
Demonstrates extensive understanding of statistical concepts and methodologies
Proposes new/novel statistical methodological approaches leading to improvements in the efficiency and sensitivity of study results
Provides sufficient detail to allow programming implementation
Ensures that all the statistical analyses specified in scientific protocols and/or analysis plans are conducted appropriately
Scientific Reports and Publications:
Ensures that study results and conclusions are scientifically sound, clearly presented, and supported by the statistical analyses provided
Prepares oral and written reports to effectively communicate results of clinical/scientific research to AbbVie management, project teams, regulatory agencies, or individual investigators
Provides in-depth scientific/statistical review for scientific reports and publications
Consultation: Works collaboratively with members of multi-function teams to complete project deliverables per agreed timelines. Keeps management informed on important scientific/statistical issues that may arise, in a timely manner. In collaboration with Statistical Programming or their designee, ensures that all programs meet analysis requirements, internal standard operating procedures, validation, and external regulatory requirements. Communicates with statisticians outside AbbVie concerning technical issues, building external scientific contacts, fostering professional development, and promoting the reputation of the department. Effectively and persuasively presents statistical concepts, evidence, assessment of risks and impacts, and logical arguments to management, regulatory agencies, and scientists. Demonstrates an understanding of drug development principles for assigned projects.

Project Team Involvement: Represents Data and Statistical Sciences (DSS) or Biometrics on assigned project team(s) to provide functional area input to compound/drug development. Serves as a liaison between the project team and DSS or Biometrics to ensure timely communication of project team updates, proper statistical strategies, and alignment of priorities between the project team and functional area.
Training, Supervising, Mentoring: Mentors junior staff and other development partners with regards to statistical methodology and departmental operations
Participates in department seminars, short courses, and the publication presentation of scientific articles
Participates in departmental activities including recruiting, training/mentoring, research efforts, and cross-functional collaborations, as needed.
Regulatory Activities: Participates with DSS or Biometrics management in discussions with corresponding technical personnel from regulatory agencies and with investigators concerning proposed or ongoing studies.
PhD in statistics or related field with 8-10 years or MS in statistics or related field with 12 years of work experience in pharmaceutical development and applied statistics/statistical consulting required. Project lead experience required.
High degree of technical competence and effective oral and written communication skills.
Competent in experimental design, statistical modeling and inferential statistics; actively seeks to acquire knowledge concerning the use of new/novel statistical techniques and their biometric/ biopharmaceutical applications.
Pharmaceutical or related industry experience with clinical studies, including experience and understanding of drug development in the regulated environment preferred.
Experience in oncology is highly preferred; experience in early development (Phase 1) is highly preferred.
Ability demonstrating strong cross functional team work is required; must be able to work in a fast paced environment and change course when needed"
11,Data Management Specialist,"Stanford, CA",Stanford,CA,None Found,None Found,None Found,None Found,None Found,None Found,None Found,"Job Code: 4745

Job Grade: I


The Quantitative Sciences Unit (QSU) is an interdisciplinary collaborative statistics unit in the Biomedical Informatics Research Division within the Department of Medicine at Stanford University. The mission of the QSU is to facilitate cutting-edge scientific studies initiated by Stanford investigators by providing expertise in biostatics and informatics, to mentor and educate clinical investigators in research methods and to mentor data scientists. To optimally achieve this mission, the QSU members become fully integrated into individual research teams.

The QSU is seeking a highly motivated, hard-working and professional Data Management Specialist to join their team. The successful candidate will join a vibrant team of academic data scientists working on a wide variety of collaborative projects in medicine. Under minimal supervision, the incumbent will perform the most complex technical work associated with a wide variety of analytical data and produce routine, single data sources’ information requests. The incumbent will work closely with senior statisticians to interrogate databases for the purpose of creating analytic files, performing quality control and data cleaning, managing data and doing data analysis under supervision of a statistician. This position holds excellent career development opportunities.

Duties include:

Work under consultative or self-initiated direction to assess and produce relevant, standard, or custom information (reports, charts, graphs and tables) from structured data sources by querying data repositories and generating the associated information. Distribute and disseminate reports to applicable agencies, researchers, management and other internal end-users
Devise methods for identifying data patterns, trends in available information sources using a variety of qualitative and quantitative techniques. Determine and recommend additional data collection and reporting requirements
Design and customize reports based upon data in the database
Create non-routine databases and their related information summary; develop algorithms and statistical model; and perform statistical analyses appropriate to complex data and reporting requirements
Serve as a resource for non-routine inquiries such as requests for statistics or surveys
Lead the implementation of data standards and common data elements for data collection
Collaborate with technical staff to standardize and systemize routine reports, dashboards, and metrics
May test prototype software and participate in approval and release process for new software
Create data dictionaries and libraries that document how data are housed
Work directly with investigators and independently decide which analytical methods will be applied
Apply statistical models to the data to summarize data according to analysis plans
- Other duties may also be assigned
DESIRED QUALIFICATIONS:
Advanced degree/Master’s Degree in Applied Math, Biostatistics, Statistics or related field
At least two years of experience collaborating with biostatisticians and clinical investigators on studies
Experience with programming languages such as SQL or Python for database manipulation
Familiarity with statistical packages like SAS and R
Experience collaborating under minimal supervision in a team environment on data-related issues for clinical studies
Ability to communicate technical information to all audiences

EDUCATION & EXPERIENCE (REQUIRED):

Bachelor's degree and three years of relevant experience or combination of education and relevant experience. Experience in a quantitative discipline such as economics, finance, statistics or engineering.

KNOWLEDGE, SKILLS AND ABILITIES (REQUIRED):
In-depth knowledge and experience using and applying analytical software, database management system software, database reporting software, database user interface and query software, and data mining software
Expert ability to collect data using a variety of methods, such as data mining and hardcopy or electronic documentation study, to improve or expand databases
Basic statistical ability
Strong listening, verbal and written communication skills
Ability to manage multiple activities in a deadline-oriented environment; highly organized, flexible and rigorous attention to detail
Ability to use logic to calculate data; efficiently construct a database or scrutinize the form of a question
Ability to work with data of varying levels of quality and validity
Demonstrated ability to produce data in a clear and understandable manner meeting user requirements
Ability to work effectively with multiple internal and external customers
Ability to take a leadership role on projects and with users/clients
PHYSICAL REQUIREMENTS*:
Constantly perform desk-based computer tasks
Frequently sit, sort, file paperwork or parts, grasp lightly, and use fine manipulation, lift, carry, push and pull objects that weigh 10 pounds or less
Occasionally write by hand, twist, bend, stoop and squa
Rarely stand, walk, reach or work above shoulders and use a telephone

- Consistent with its obligations under the law, the University will provide reasonable accommodation to any employee with a disability who requires accommodation to perform the essential functions of his or her job.
WORKING CONDITIONS:

May work extended hours during peak business cycles.

WORK STANDARDS (from JDL)
Interpersonal Skills: Demonstrates the ability to work well with Stanford colleagues and clients and with external organizations
Promote Culture of Safety: Demonstrates commitment to personal responsibility and value for safety; communicates safety concerns; uses and promotes safe behaviors based on training and lessons learned
Subject to and expected to comply with all applicable University policies and procedures, including but not limited to the personnel policies and other policies found in the University's Administrative Guide, http://adminguide.stanford.edu."
12,"Forecasting Analyst, Ads Analytics and Insights","Mountain View, CA",Mountain View,CA,None Found,None Found,None Found,None Found,"
Build, test, and deploy statistical and predictive models to improve global operations, including volume forecasting and capacity planning for the Ads Global Customer Care operation, and determining the optimal shift allocation for employees in a call center.
Analyze data on operations such as spikes or dips in customer support cases or related metrics using advanced analytics, including statistical modeling (regression, segmentation, machine learning etc.) and develop insights/recommend strategies for business partners.
Collaborate with tools and platforms teams on timelines/requirements for implementing new/updating existing features for improving Ads operations.
Provide analytical thought leadership, proposing feasible solutions to business and operational challenges, using context developed through trusted partnerships with business stakeholders.
Design or advise on methodologies to appropriately measure impact of tooling changes, customer experience and business initiatives.
",None Found,None Found,"Note: By applying to this position your application is automatically submitted to the following locations: Boulder, CO, USA; Mountain View, CA, USA
Minimum qualifications:

Bachelor's degree in a numerate field (Statistics, Computer Science, Mathematics, Science, Operations Research, Economics, etc.) or equivalent practical experience.
5 years of experience in an analytics, statistician, data scientist or consultant role.
Experience with managing/querying data using SQL and with data analysis tools (R, Python) and techniques (machine learning, statistical analysis, data mining).

Preferred qualifications:

Operations research/systems engineering experience.
Knowledge of customer service operations.
Excellent problem-solving skills.
Excellent communication and presentation skills, and ability to communicate effectively with both technical and non-technical stakeholders.
About the job
gTech’s Strategy and Operations team (gSO) is made up of strategic partners and trusted advisors that drive success and transformative changes for gTech. We create value through deep functional and business expertise combined with analytical rigor to formulate and deliver strategies. Using core capabilities ― strategy, analytics, and communications ― we empower gTech to do amazing things to land the present, and build for the future.

The Analytics and Insights (A&I) team within gTech’s Strategy and Operations organization manages and utilizes large, complex data sets to solve difficult, non-routine analysis problems while also providing operational analytics and reporting. The team combines analytical rigor, objectivity and an understanding of the business’ strategies and operations to enable gTech and the Ads ecosystem business to provide an excellent customer experience and drive smart business decisions. In this role, you will own or contribute to elements of the Ads Global Customer Care forecasting function, including research and development (building and optimizing models and decision support tools), operational deep dives (targeted analyses) and process, which are critical to delivering excellent customer care to Google’s Ads customers.
Google creates products and services that make the world a better place, and gTech’s role is to help bring them to life. Our teams of trusted advisors support customers globally. Our solutions are rooted in our technical skill, product expertise, and a thorough understanding of our customers’ complex needs. Whether the answer is a bespoke solution to solve a unique problem, or a new tool that can scale across Google, everything we do aims to ensure our customers benefit from the full potential of Google products.

To learn more about gTech, check out our video.
Responsibilities
Build, test, and deploy statistical and predictive models to improve global operations, including volume forecasting and capacity planning for the Ads Global Customer Care operation, and determining the optimal shift allocation for employees in a call center.
Analyze data on operations such as spikes or dips in customer support cases or related metrics using advanced analytics, including statistical modeling (regression, segmentation, machine learning etc.) and develop insights/recommend strategies for business partners.
Collaborate with tools and platforms teams on timelines/requirements for implementing new/updating existing features for improving Ads operations.
Provide analytical thought leadership, proposing feasible solutions to business and operational challenges, using context developed through trusted partnerships with business stakeholders.
Design or advise on methodologies to appropriately measure impact of tooling changes, customer experience and business initiatives.
At Google, we don’t just accept difference—we celebrate it, we support it, and we thrive on it for the benefit of our employees, our products and our community. Google is proud to be an equal opportunity workplace and is an affirmative action employer. We are committed to equal employment opportunity regardless of race, color, ancestry, religion, sex, national origin, sexual orientation, age, citizenship, marital status, disability, gender identity or Veteran status. We also consider qualified applicants regardless of criminal histories, consistent with legal requirements. See also Google's EEO Policy and EEO is the Law. If you have a disability or special need that requires accommodation, please let us know by completing this form."
13,Data Scientist,"San Jose, CA",San Jose,CA,None Found,None Found,None Found,None Found,None Found,None Found,None Found,"Hewlett Packard Enterprise advances the way people live and work. What sets us apart? Our people. Our people’s relentless commitment to partner, innovate, and act. Hewlett Packard Enterprise helps customers make their mark on the world with cutting-edge technology solutions. We enable our customers to transform industries, markets, and lives by optimizing their IT to be uniquely suited to their needs. We do this by making Hybrid IT simple, powering the Intelligent Edge, and providing the expertise to make it happen. Our customers' challenges inspire us to advance technology and create solutions - their success is our success.
The Global Marketing organization at Hewlett Packard Enterprise is charted to provide deep insights about customers and channel partners to accelerate demand generation and enhance customer experience. We, in the Marketing Data Science team, are one of the key contributors in this mission by using advanced analytics over massive amounts of digital and transaction data. Over the past few years, we have established a solid track record that has made an impactful influence on HPE strategy and business results. We have also maintained strong research partnership in select areas with leading researchers in academia, and provide a strong encouragement to contribute to the technical community. In 2009, our team was responsible for development and deployment of product portfolio management technology, which resulted in HP winning the INFORMS Edelman Award. In 2012, our team won the INFORMS Revenue Management and Pricing Section Practice Award for outstanding applications in revenue management and pricing methodologies. More recently, our team has been recognized in 2017 and 2019 by ITSMA for its innovative contributions with high business impact in digital marketing and personalization, resulting in HPE winning the first prize on both these occasions.
We are seeking individuals who are interested in developing next-generation solutions that can further accelerate demand generation and bring the best of science and technology to HPE Marketing. This position offers a unique opportunity to make a strong impact in demand generation of HPE’s products and services by utilizing customer information while optimizing costs. The candidate will be working with a strong interdisciplinary analytics core team. We expect an ideal candidate to exhibit strong demonstrable skills in statistics, computer science, operations research, and/or marketing science. The candidate is expected to have a Ph.D. degree, and will be responsible for building state-of-the-art advanced analytics models while utilizing massive structured and unstructured information for several applied areas including customer segmentation, attribution modeling, marketing campaign design, pricing optimization, product recommendations, web personalization, and predictive analytics modeling to capture customer requirements. Importantly, the candidate should be able to analyze vast amounts of digital and non-digital data to draw business conclusions and provide recommendations to stakeholders. Moreover, the candidate should have a keen interest in innovative applied development to drive high business impact, and ideally demonstrated ability to collaborate with team members across geographical boundaries, with partners and stakeholders in various business units, along with customers and academic partners. We’re looking for people with razor-sharp analytical skills and with the ability to lead projects independently from start to finish.
Skills/Knowledge Qualifications
Required:
PhD in Statistics, Computer Science, Operations Research or Econometrics.
The candidate should be familiar and experienced with advanced statistical methods, including but not limited to: MCMC, time series analysis, graphical models, high-dimensional inference, data structures, convex optimization, and semiparametric regression, with a strong background and skills in empirical work.
Graduate level course work in machine learning and artificial intelligence.
Experience with statistical software (R, SAS, or similar).
Experience with databases (such as Vertica, MySQL) and programming languages (such as Python, Java, C).
Excellent background in design and development of complex algorithmic software prototypes.
Work effectively in a cross-disciplinary research team with a focus on developing novel statistical methods motivated by large-scale real world business problems.
Communicate effectively with statisticians & non-statisticians.
Desired:
0 - 3 years of relevant work experience (e.g., as a statistician / data scientist), analytical engagements outside class work while at school will be considered as part of the experience.
Applied experience on working with large datasets.
Excellent programming skills in one or more: R, Python, Java, C, C++, C#, SQL
Good publication track record at top-tier conferences in Statistics, Computer Science, or Operations Research
#LI-KN1
1035987"
14,Biostatistician,"Santa Clara, CA",Santa Clara,CA,None Found,None Found,None Found,None Found,None Found,None Found,None Found,"Abbott is a global healthcare leader that helps people live more fully at all stages of life. Our portfolio of life-changing technologies spans the spectrum of healthcare, with leading businesses and products in diagnostics, medical devices, nutritionals and branded generic medicines. Our 103,000 colleagues serve people in more than 160 countries.
Job Description:
We are seeking an experienced Statistical Programmer I to support clinical trial analysis and reporting in the Global Clinical Affairs organization. The role includes statistical programming support for clinical study reports and publications, and validation of statistical programs. This role will work with statisticians, statistical programmers, and clinical study teams on clinical studies in a variety of therapy areas. Under the supervision of a statistician, this role will support accurate and timely reports to regulatory authorities, analyses to support publications activities.
Impact this role will have on Abbott:
Provides statistical programing support for assigned clinical studies or projects
Creates analysis datasets per specifications for each study
Programs customized data displays in accordance with approved statistical analysis plan and shell displays for clinical studies
Reviews table shells for clinical study reports
Prepares documentation for statistical programs
Conducts data checks to ensure data integrity
Provides input on standardization of processes, programs and documentation to improve efficiencies
Conducts validation activities as assigned
Maintains current knowledge in developments in statistical programming languages (SAS)
Complies with U.S. Food and Drug Administration (FDA) regulations, other regulatory requirements, Company policies, operating procedures, processes, and task assignments.
Performs other related duties and responsibilities, on occasion, as assigned.
Your required experience(s), education and knowledge will further expand Abbott’s marketplace success:
Bachelors in engineering, statistics or biostatistics, mathematics, or closely related field.
1 to 2 years of experience in statistical programming in SAS, preferably in the medical device industry.
Experience working in a broader enterprise/cross-division business unit model preferred.
Ability to work in a highly matrixed and geographically diverse business environment.
Ability to work within a team and as an individual contributor in a fast-paced, changing environment.
Ability to leverage and/or engage others to accomplish projects.
Strong verbal and written communications with ability to effectively communicate at multiple levels in the organization.
Multitasks, prioritizes and meets deadlines in timely manner.
Strong organizational and follow-up skills, as well as attention to detail."
15,Senior Data Scientist/Statistician,"San Jose, CA 95131",San Jose,CA,95131,None Found,None Found,None Found,None Found,None Found,None Found,"Join a team that is changing millions of lives.
Transforming smiles. Transforming lives. Transforming an industry.
At Align Technology, we believe a great smile can transform a person’s life, so we create technology that gives people the confidence to take on whatever’s next. We revolutionized the orthodontic industry with the introduction of the Invisalign system, and we have never lost sight of that spirit of innovation. Our teams are constantly pushing the boundaries of what’s possible.
Ready to join us?
About this opportunity
The Sr. Data Scientist/Statistician will be part of the Product Innovation group at Align R&D works closely with our cross-functional teams in R&D, marketing, clinical, and operation teams. He/she leverages Align’s digital clinical database to develop and deliver data-driven insights, metrics, and recommendations to assist teams to drive the company’s product development roadmap to transform the orthodontic world with the Invisalign product. A successful candidate will be a strong analytical thinker with a solid statistical background to formulate critical technical hypothesis and drive complex analysis and innovation.
In this role, you will…
Act as the senior data analytics expert within R&D’s Product Innovation group, partnering with engineers from various backgrounds including biomechanics, materials, software, and clinical research
Use state-of-the-art data science methods on the organization’s clinical data to generate insights for product development and innovation
Develop a comprehensive understanding of the Invisalign products and operational procedures
Convert abstract business inquiries into concrete analyses, including planning, execution and reporting
Identify key data insights to answer critical business needs, prepare well-documented memos/presentations and share with internal/external stakeholders
Be responsible for formulating study hypotheses and determining appropriate analytical methods and procedures, with minimal oversight, documentation, or defined process
Work with management to improve statistical integrity, accuracy, and adequacy of the team’s deliverables
Provide mentorship and guidance to other team members in regards to data analytics
Build effective working relationships with upper management and cross-functional teams
Work efficiently in a fast-paced environment and meet critical deadlines
Multi-task and prioritize requests to meet the most important and urgent business needs
In this role, you’ll need …
MS or PhD in computer science, mathematics, statistics or related technical field
MS with 6+ years of relevant industrial experience in data mining and statistical analysis, or PhD with 3+ years of relevant industrial experience (medical device or pharmaceutical preferred)
Proven ability to tailor statistical methods to given application fields
Proficiency with querying relational database (e.g. SQL)
Proficiency with scripting languages such as R or Python
Experience with business analytics tools such as Tableau, or Power BI
Experience with machine learning
Excellent understanding of machine learning techniques and algorithms
Excellent oral and written communication skills, including the ability to explain complicated quantitative concepts to non-technical audiences and interact cross-functionally with both technical and non-technical people
Sound like a good fit?
Great! Click the Apply link below to let us know you are interested. Not the right fit? Don’t worry, there are lots more opportunities. Please consider sharing this opportunity with others in your network.
About Align
Invisalign clear aligners, iTero Intraoral scanners, and OrthoCAD digital services that help dental professionals achieve the clinical results they expect and deliver effective, cutting-edge dental options to their patients."
16,"Data Scientist Technical Lead, YouTube Music","San Bruno, CA",San Bruno,CA,None Found,None Found,None Found,None Found,"
Work with large, complex YouTube data sets; solve difficult, non-routine analysis problems, applying advanced analytical methods as needed. Conduct end-to-end analysis that includes data gathering and requirements specification, processing, analysis, ongoing deliverables and presentations.
Build and prototype analysis pipelines iteratively to provide insights at scale. Develop comprehensive understanding of Google data structures and metrics, advocating for changes where needed for both products development and sales activity.
Directly manage a data science team. Interact cross-functionally with a wide variety of people and teams; work closely with engineers to identify opportunities for, design, and assess improvements to google products.
Make business recommendations (e.g. cost-benefit, forecasting, experiment analysis) with effective presentations of findings at multiple levels of stakeholders through visual displays of quantitative information.
Research and develop analysis, forecasting and optimization methods to improve the quality of Google's user facing products; example application areas include ads quality, search quality, end-user behavioral modeling, and live experiments.
",None Found,None Found,"Minimum qualifications:

MS degree in a quantitative discipline (e.g., statistics, operations research, bioinformatics, economics, computational biology, computer science, mathematics, physics, electrical engineering, industrial engineering) or equivalent practical experience.
10 years of relevant work experience in data analysis or related field (e.g., as a statistician / data scientist / computational biologist / bioinformatician).
5 years of people management / leadership experience
Experience with statistical software (e.g., R, Python, MATLAB, pandas) and database languages (e.g., SQL).

Preferred qualifications:

PhD degree in a quantitative discipline (e.g., statistics, operations research, bioinformatics, economics, computational biology, computer science, mathematics, physics, electrical engineering, industrial engineering).
12 years of directly relevant, tech industry work experience (e.g., as a statistician / bioinformatician / data scientist), including deep expertise and experience with statistical data analysis such as linear models, multivariate analysis, stochastic models, sampling methods. Analytical engagements outside class work while at school can be included.
8 years of demonstrated leadership and self-direction. Demonstrated willingness to both teach others and learn new techniques, including people management.
Applied experience with machine learning on large datasets.
Experience articulating business questions and using mathematical techniques to arrive at an answer using available data. Experience translating analysis results into business recommendations.
Demonstrated skills in selecting the right statistical tools given a data analysis problem. Demonstrated effective written and verbal communication skills.
About the job
At Google, data drives all of our decision-making. Data Scientists work all across the organization to help shape Google's business and technical strategies by processing, analyzing and interpreting huge data sets. Using analytical rigor and statistical methods, you mine through data to identify opportunities for Google and our clients to operate more efficiently, from enhancing advertising efficacy to network infrastructure optimization to studying user behavior. As an analyst, you do more than just crunch the numbers. You work with Engineers, Product Managers, Sales Associates and Marketing teams to adjust Google's practices according to your findings. Identifying the problem is only half the job; you also figure out the solution.

With your leadership and professional expertise, you manage a team of analysts, plan project goals and lead the overall strategy for your group. You are a recognized authority in your functional area and develop, organize and launch projects that span engineering and analysis.
As a Data Scientist Technical Lead for YouTube, you will work on strategic consumer-facing challenges, optimizing the listening (and music video watching) experience on YouTube from seamless playback to personalized recommendations. Additionally, you will grow our YouTube Music app and the Music subscription service, working with data and music content, including official music videos.

In this role, you will be a passionate music listener, always thinking of ways to drive impact with data. You will be a leader and communicator presenting insights to leadership across the organization.
Google is and always will be an engineering company. We hire people with a broad set of technical skills who are ready to take on some of technology's greatest challenges and make an impact on millions, if not billions, of users. At Google, engineers not only revolutionize search, they routinely work on massive scalability and storage solutions, large-scale applications and entirely new platforms for developers around the world. From Google Ads to Chrome, Android to YouTube, Social to Local, Google engineers are changing the world one technological achievement after another.
Responsibilities
Work with large, complex YouTube data sets; solve difficult, non-routine analysis problems, applying advanced analytical methods as needed. Conduct end-to-end analysis that includes data gathering and requirements specification, processing, analysis, ongoing deliverables and presentations.
Build and prototype analysis pipelines iteratively to provide insights at scale. Develop comprehensive understanding of Google data structures and metrics, advocating for changes where needed for both products development and sales activity.
Directly manage a data science team. Interact cross-functionally with a wide variety of people and teams; work closely with engineers to identify opportunities for, design, and assess improvements to google products.
Make business recommendations (e.g. cost-benefit, forecasting, experiment analysis) with effective presentations of findings at multiple levels of stakeholders through visual displays of quantitative information.
Research and develop analysis, forecasting and optimization methods to improve the quality of Google's user facing products; example application areas include ads quality, search quality, end-user behavioral modeling, and live experiments.
At Google, we don’t just accept difference—we celebrate it, we support it, and we thrive on it for the benefit of our employees, our products and our community. Google is proud to be an equal opportunity workplace and is an affirmative action employer. We are committed to equal employment opportunity regardless of race, color, ancestry, religion, sex, national origin, sexual orientation, age, citizenship, marital status, disability, gender identity or Veteran status. We also consider qualified applicants regardless of criminal histories, consistent with legal requirements. See also Google's EEO Policy and EEO is the Law. If you have a disability or special need that requires accommodation, please let us know by completing this form."
17,Senior Data Scientist - Trust and Safety,"San Mateo, CA",San Mateo,CA,None Found,None Found,None Found,None Found,None Found,None Found,None Found,"------------------------------------------
Senior Data Scientist - Trust & Safety
------------------------------------------

WHY ROBLOX?

Roblox is ushering in the next generation of entertainment, allowing people to imagine, create, and play together in immersive, user-generated worlds. We're the one and only fastest-growing entertainment platform that lets anyone teach themselves how to code, publish, and monetize any experience imaginable—across any device—reaching millions of players across the globe.

The impact that you can have at Roblox is powerful. We're looking for someone who's eager to take on a meaningful role in the success of Roblox on a massive scale. Someone who takes play seriously, but also isn't afraid to have some fun either. Someone who's ready to take Roblox—and their career—to the next level.

In 2018, we were honored to be recognized as a Certified Great Place to Work ( http://reviews.greatplacetowork.com/roblox-corporation )®. We've fostered a company culture that empowers people to do the most defining work of their career in an environment that's made up of the most passionate, team-oriented, visionary, crazy-smart people you'll ever meet. Join the Roblox team where play rules and the possibilities are endless.

Work with the most passionate, team-oriented, visionary, and crazy-smart people you'll ever meet.

As a Data Scientist, you will be a key participant in helping our product and engineering teams shape the future of Roblox. You'll partner with leaders across the company to better understand our players and builders, performing ad hoc analysis, creating dashboards, defining KPIs, and applying models.

You Are:

Passionate about data. You have the curiosity and self-drive to continuously learn new techniques and tools to extract value from data. You have a degree in Statistics, Economics, Computer Science or other relevant field.
A strong communicator. You understand that analysis must be presented in meaningful ways and engage in spirited discussions about the findings. You have the ability to explain technical concepts to non-technical audience.
A capable statistician. You understand the value of characterizing data by its distribution. Covariance, Bias, and Conditional Probability are concepts that you rely on every day.
An expert with SQL and a scripting language such as Python or R. You're experienced in automating efforts and crunching massive volumes of data using big data frameworks such as Spark, Hadoop or Flink.
Experienced in developing models to draw insights from data. You use regression techniques, data mining, and statistical techniques to create new, scalable solutions to solve difficult business problems. You understand when to apply the appropriate methodology to maximize impact in a pragmatic fashion.

You Will:

Accelerate product development through your understanding of the underlying data and your ability to partner with product and technical leaders to provide insights that drive growth.
Access raw data, and then transform it, analyze it, and render it in a compelling way--all using a custom analytics tool kit built from state-of-the-art open-source libraries.
Build dashboards to understand root causes to changes in metrics.
Evaluate A/B experiments to determine success of product feature launches.
Influence how Roblox interacts with its players and its platform developers

#LI-CT1"
18,Biomedical Informatician,"Stanford, CA",Stanford,CA,None Found,None Found,None Found,None Found,None Found,None Found,None Found,"A research lab in the Department of Medicine, Division of Biomedical Informatics Research at Stanford School of Medicine is seeking highly motivated individuals for multi-disciplinary research in computational health services research/public health informatics. The projects will utilize electronic health records (EHRs) to assess the quality of healthcare delivered and provide evidence that can be used to improve patient care using state-of-the-art technologies across one or more health care settings. These individuals will work with, and lead teams of postdocs and graduate students focused on healthcare quality and population health. The incumbent will, with some independence, consult with investigators to refine research questions, define hypotheses, design studies and devise analysis plans. Work with senior statistician(s) to implement analysis plan and publish findings.

Duties include:
Design study.
Develop and implement protocol for quality control.
Create analytic files with detailed documentation.
Select appropriate statistical tools for addressing a given research question.
Implement data analysis through statistical programming.
Present results for investigators using graphs and tables.
Summarize findings orally and in written form.
Mentor collaborators in areas of experimental design, quality control, and statistical analysis.
Develop oral and written dissemination of findings for conference presentations and peer-reviewed journal articles.
Oversee lower-level staff on issues related to quality control and creation of analysis files.
Design and develop applications that may involve sophisticated data manipulation. Troubleshoot and solve technical problems. Create programs to meet reporting and analysis needs. Document changes in software for end users. Serve as technical resource with respect to applications.- Other duties may also be assigned

DESIRED QUALIFICATIONS:
PhD in statistics, biostatistics, biomedical informatics. computer science, health services research.
Experience in machine learning.
Experience with large datasets and database use, particularly electronic medical records.
Experience with healthcare data.
Strong knowledge of at least one programming language (python, R, Javascript, C++) and database skills (SQL).
Experience with deep learning approaches.
Industry experience as a data scientist a plus.
Strong communication and presentation skills.
Ability to define and solve logical problems for technical applications.
EDUCATION & EXPERIENCE (REQUIRED):
Master’s degree in biostatistics, statistics or related field and three years of experience.
KNOWLEDGE, SKILLS AND ABILITIES (REQUIRED):
Proficient in at least two of R, SAS, SPSS, or STATA.
Skills in descriptive analysis, modeling of data, and graphic interfaces.
Outstanding ability to communicate technical information to both technical and non-technical audiences.
Demonstrated excellence in at least one area of expertise, which may include coordinating studies; statistical methodology such as missing data, survival analysis, statistical genetics, or informatics; statistical computing; database design (e.g., expertise in RedCAP or MySQL); graphical techniques (e.g., expertise in Illustrator).
PHYSICAL REQUIREMENTS*:
Frequently perform desk based computer tasks, seated work and use light/ fine grasping.
Occasionally stand, walk, and write by hand, lift, carry, push pull objects that weigh up to 10 pounds.- Consistent with its obligations under the law, the University will provide reasonable accommodation to any employee with a disability who requires accommodation to perform the essential functions of his or her job.
WORKING CONDITIONS:
May work extended or non-standard hours based on project or business cycle needs.
WORKING STANDARDS:
Interpersonal Skills: Demonstrates the ability to work well with Stanford colleagues and clients and with external organizations.
Promote Culture of Safety: Demonstrates commitment to personal responsibility and value for safety; communicates safety concerns; uses and promotes safe behaviors based on training and lessons learned.
Subject to and expected to comply with all applicable University policies and procedures, including but not limited to the personnel policies and other policies found in the University’s Administrative Guide, http://adminguide.stanford.edu/."
19,Senior Biostatistician,"Stanford, CA",Stanford,CA,None Found,None Found,None Found,None Found,None Found,None Found,None Found,"The Quantitative Sciences Unit (QSU) is an interdisciplinary collaborative statistics unit in the Biomedical Informatics Research Division within the Department of Medicine at Stanford University. The mission of the QSU is to facilitate cutting-edge scientific studies initiated by Stanford investigators by providing expertise in biostatics and informatics, to mentor and educate clinical investigators in research methods and to mentor data scientists. To optimally achieve this mission, the QSU members become fully integrated into individual research teams.

The QSU is seeking a highly motivated, hard-working and professional statistician to join their team. The successful candidate will join a vibrant team of academic statisticians working on a wide variety of collaborative projects in medicine. This position holds excellent career development opportunities. This is an academic staff fixed-term position.

Duties include:
Take the statistical lead on studies including; designing the study, the analysis plan and carrying out the statistical programming and data management to implement the plan
Oversee junior-level biostatisticians on data cleaning and creation of analytic files and mentor junior-level biostatisticians in the area of conducting collaborative research
Lead statistical projects related to collaborations on topics including the evaluation of statistical software or methods as well as the development of novel methods, as need arises within QSU collaborative projects
Consult with clinical and lab-based investigators on campus including the Heart Center, the Department of Medicine, the Department of Neurosurgery, and the Stanford Cancer to independently design studies and develop analysis plans. More specifically, the incumbent will meet one-on-one with the collaborator to gain background on the study and the research questions and help to refine the questions and formulate the hypotheses. The incumbent will also extract necessary information to design the study with optimal operating characteristics and to develop a sound statistical plan
Develop oral and written dissemination of findings for meetings with collaborators or for medical and/or statistical journal articles. The incumbent is also expected to develop lectures on statistical methods or statistical programming for the training of clinical investigators as needed and for the training of junior biostatisticians. In addition, the incumbent will participate in developing and writing grant proposals

REQUIRED:
Ph.D. in Biostatistics, Statistics, or related field
Capable of functioning independently and collaboratively at an advanced level under the overall direction of the QSU Director
Experience with multiple statistical programming languages such as SAS and R
Outstanding oral and written communication skills with the ability to communicate technical information to all audiences
Skilled in descriptive analysis, modeling of data, and graphic interfaces
Demonstrated expertise in statistical methodology

DESIRED:
At least two years of experience collaborating as a biostatistician is desirable
Certification in SAS
Experience supervising technical staff including training, mentoring and coaching
Experience developing and writing grant proposals.

Stanford University is an equal opportunity employer and is committed to increasing the diversity of its faculty and academic staff. It welcomes nominations of and applications from women and members of minority groups, as well as others who would bring additional dimensions to the University’s research, teaching and clinical missions."
20,Statistician - (E3),"Santa Clara, CA",Santa Clara,CA,None Found,None Found,"M.Sc., but preferred PhD Degree in Statistics with minor in Engineering/Science or related fields.
Expertise in creating and analyzing costumed design of experiments (DOEs), building complex predictive models, Bayesian inference, multivariate analysis, simulation techniques (Monte Carlo, Bootstrap), statistical/stochastic methods, and statistical software (use and scripting) including SAS-JMP and R.
Strong facilitation, presentation, mentorship and training skills and the ability to build positive working relationships with different levels of roles in an organization.
Having a proven track record of using statistical tools and linkages in the engineering and/or product development and building of causal inference, deep learning/neural network, and queries in JMP, Python, or SQL is a plus.
",None Found,"Statistics-Aided Engineering (SAE) expert liaison to engineering function and product development groups to implement complex design of experiments (DOE), statistical modeling, reliability, robust optimization, engineering statistics, and inventive problem-solving.
Contribute to the development and validation of statistical tools and usages for creating experimental designs, building predictive models, causal inference, and optimization of engineered systems.
Support execution of Applied Product Characterization methodology and tools in projects in the areas of product and process development, continuous improvement and high-value problems.
Provide consulting, training, and mentoring of statistical usages and linkages to different levels of roles within Applied Materials.
",None Found,"M.Sc., but preferred PhD Degree in Statistics with minor in Engineering/Science or related fields.
Expertise in creating and analyzing costumed design of experiments (DOEs), building complex predictive models, Bayesian inference, multivariate analysis, simulation techniques (Monte Carlo, Bootstrap), statistical/stochastic methods, and statistical software (use and scripting) including SAS-JMP and R.
Strong facilitation, presentation, mentorship and training skills and the ability to build positive working relationships with different levels of roles in an organization.
Having a proven track record of using statistical tools and linkages in the engineering and/or product development and building of causal inference, deep learning/neural network, and queries in JMP, Python, or SQL is a plus.
","Applied Materials is the leader in materials engineering solutions to produce virtually every new chip and advanced display in the world. Our expertise in modifying materials at atomic levels and on an industrial scale enables customers to transform possibilities into reality. Our innovations make possible™ the technology shaping the future. To achieve this, we employ some of the best, brightest and most talented people in the world who work together as part of a winning team.
Work in a team of Statistics-Aided Engineering experts to drive the application of advanced and state-of-the-art statistical methods, tools and usages in refining equipment design & development, and accelerating in the resolution of engineering and operations.
Key Responsibilities
Statistics-Aided Engineering (SAE) expert liaison to engineering function and product development groups to implement complex design of experiments (DOE), statistical modeling, reliability, robust optimization, engineering statistics, and inventive problem-solving.
Contribute to the development and validation of statistical tools and usages for creating experimental designs, building predictive models, causal inference, and optimization of engineered systems.
Support execution of Applied Product Characterization methodology and tools in projects in the areas of product and process development, continuous improvement and high-value problems.
Provide consulting, training, and mentoring of statistical usages and linkages to different levels of roles within Applied Materials.
Qualifications/Requirements
M.Sc., but preferred PhD Degree in Statistics with minor in Engineering/Science or related fields.
Expertise in creating and analyzing costumed design of experiments (DOEs), building complex predictive models, Bayesian inference, multivariate analysis, simulation techniques (Monte Carlo, Bootstrap), statistical/stochastic methods, and statistical software (use and scripting) including SAS-JMP and R.
Strong facilitation, presentation, mentorship and training skills and the ability to build positive working relationships with different levels of roles in an organization.
Having a proven track record of using statistical tools and linkages in the engineering and/or product development and building of causal inference, deep learning/neural network, and queries in JMP, Python, or SQL is a plus.
Company Facts:
Ticker: Nasdaq: AMAT
Market Cap: $43.5 billion
Fiscal 2018 Revenue: $17.3 billion
Fiscal 2018 R&D: $2 billion
Founded: November 10, 1967
Headquarters: Santa Clara, California
Global Presence: 93 locations in 17 countries
Manufacturing: China, Germany, Israel, Italy, Singapore, Switzerland, Taiwan, United States
Employees: ~21,000 worldwide
Patents: >12,500 issued
#LI
Qualifications
Education:
Bachelor's Degree
Skills
Certifications:
Languages:
Years of Experience:
7 - 10 Years
Work Experience:
Additional Information
Travel:
Yes, 20% of the Time
Relocation Eligible:
Yes
Applied Materials is committed to diversity in its workforce including Equal Employment Opportunity for Minorities, Females, Protected Veterans and Individuals with Disabilities."
