,Title,Location,City,State,Zip,Country,Qualifications,Skills,Responsibilities,Education,Requirement,FullDescriptions
0,"Assistant, Associate, Professor, Instructor","Pittsburgh, PA",Pittsburgh,PA,None Found,None Found,None Found,None Found,None Found,None Found,None Found,"Assistant, Associate, Professor, Instructor
Med-Pediatrics - Pennsylvania-Pittsburgh - (18001915)

The Division of Genetics at the Children's Hospital of Pittsburgh and the Department of Pediatrics, University of Pittsburgh is recruiting a Clinical Director for the Program for the Study of Neurodevelopment in Rare Disorders (NDRD). The successful candidate will direct a clinical team that provides a comprehensive multidisciplinary evaluation for patients with rare, neurogenetic disorders. The program is staffed by a neurodevelopmental pediatrician, geneticists and genetic counselor, physical and speech therapists, a research nurse, nurse practitioner, administrators, statistician, data entry and image analysis specialist, and laboratory technician. The director should be comfortable with neurodevelopmental exams with training in neurology, developmental pediatrics, or medical genetics. Faculty appointment in the Department of Pediatrics will be commensurate with level of experience. The NDRD is an internationally known clinical research program that focuses on translational research of patients with rare neurodegenerative conditions with the ultimate goal of improving their quality of life and developing treatments. We provide com prehensive .clinical services to patients. The clinical director will assure that all aspects of the clinical service are coordinated, that they interact with our immediate team as well as other specialists in the hospital. The clinical director will also interact with the NDRD research team, assure that families are properly consented for studies and recruited for research projects The Children's Hospital of Pittsburgh of UPMC is a global leader in the treatment of pediatric conditions and diseases. It is one of 10 pediatric hospitals in the United States named to U.S. News & World Report's Honor Roll of America's ""Best Children's Hospitals"" for 201 6-201 7. Children's is also at the cutting edge of research, ranking 7th among children's hospitals and schools of medicine in NIH funding for pediatric research. Known for its rich history, cultural scene, educational presence, and affordability, Pittsburgh has placed at the top of numerous lists of the most livable cities in the United States.

Interested candidates should forward their CV to: maria.escolar@chp.edu The University of Pittsburgh is an Affirmative Action/Equal Opportunity Employer and values equality of opportunity, human dignity and diversity. EEO/ AA/ M / F/Vets/Disabled

Assignment Category Fulltime-Regular
Campus Pittsburgh
Child Protection Clearances The following PA Act 153 clearances and background checks may be required prior to commencement of employment and as a condition of continued employment: PA State Police Criminal Record Check, FBI Criminal Record Check, PA Child Abuse History Clearance.
Required Attachments Other (see posting for additional details)"
1,Statistician,"Pittsburgh, PA 15213",Pittsburgh,PA,15213,None Found,"Master's degree in Statistics, Psychology, or a related Social Science field is required.
One year of relevant experience with statistical analyses and packages (e.g. SAS, SPSS, R) and Microsoft Office components (e.g. EXCEL, Word, PowerPoint) preferably in research setting.
Experience in an academic medical setting is preferred.",None Found,"Design and carry out statistical analysis
Collaborate closely with outside investigators as needed to complete publications etc.
Document analyses and constructs used in analysis.
Participate in the preparation of manuscripts and research reports and presentations from data generated by these studies.
Write new programs for data analysis and conduct new data analysis as needed.",None Found,None Found,"Job Summary:
University of Pittsburgh Physicians is hiring a Statistician to support the Clinical Quality Outcomes and Research department during business hours on Monday through Friday. The position is located at UPMC Presbyterian, and is primarily responsible for providing statistical support and direction to a large research project.

Responsibilities:
Design and carry out statistical analysis
Collaborate closely with outside investigators as needed to complete publications etc.
Document analyses and constructs used in analysis.
Participate in the preparation of manuscripts and research reports and presentations from data generated by these studies.
Write new programs for data analysis and conduct new data analysis as needed.
Qualifications
Master's degree in Statistics, Psychology, or a related Social Science field is required.
One year of relevant experience with statistical analyses and packages (e.g. SAS, SPSS, R) and Microsoft Office components (e.g. EXCEL, Word, PowerPoint) preferably in research setting.
Experience in an academic medical setting is preferred.

Licensure, Certifications, and Clearances:

UPMC is an equal opportunity employer. Minority/Females/Veterans/Individuals with Disabilities
Salary Range: $27.43 to $46.22 / hour

Union Position: No"
2,Bayesian Statistician,"West Mifflin, PA 15122",West Mifflin,PA,15122,None Found,None Found,None Found,None Found,None Found,None Found,"Description
Naval Nuclear Laboratory is seeking qualified candidates to fill the position of applied statistician at its Niskayuna, New York facility. Naval Nuclear Laboratory provides technical support for the design, development, and testing of Naval Nuclear Propulsion Plants, and training of Naval personnel.
This position requires an individual who will provide leadership on statistical issues, through collaboration and consultation with engineers and scientist across the laboratory. Areas of application include material science and engineering, nuclear reactor design, and manufacturing support. Experience or training in some or all of the following areas is desired: linear and nonlinear regression, analysis of censored data, variance component estimation, experimental design, and statistical simulation.
This position will involve conceiving, developing, and applying statistical techniques to a wide range of technical problems, and promoting the understanding and application of modern statistical techniques through appropriate courses for laboratory personnel. Knowledge of Bayesian methods is required and a proficiency in at least one of the Bayesian software languages (OpenBUGS, JAGS, and/or STAN) is highly desired, as well as proficiency in statistical programming language R.
Candidates should have a strong interest in using statistical methods to solve practical scientific and engineering problems. There are avenues to publish new research in public journals, although these opportunities may be limited due to the sensitive nature of the work.

Requirements
Senior:
MS degree in Statistics from an accredited college or university and a minimum of four years of relevant experience; or
PhD degree in Statistics from an accredited college or university.

Principal:
MS degree in Statistics from an accredited college or university and a minimum of seven years of relevant experience; or
PhD degree in Statistics from an accredited college or university and a minimum of three years of relevant experience.
Excellent written and oral communication skills
Knowledge of Bayesian methods

Preferred Skills
PhD degree in Statistics strongly preferred
Proficiency in statistical programming languages (R, JMP, SAS, etc)
Proficiency in at least one of the Bayesian software languages (OpenBUGS, JAGS, and/or STAN)"
3,Data Analyst,"Pittsburgh, PA",Pittsburgh,PA,None Found,None Found,None Found,None Found,None Found,None Found,None Found,"Data Analyst
Med-Cardiothoracic Surgery - Pennsylvania-Pittsburgh - (19008237)

The Department of Cardiothoracic Surgery has an immediate opening for a Data Analyst to collaborate and conduct analyses on completed and ongoing research projects. The Statistician is primarily responsible for providing statistical support and direction to the supervising faculty’s research projects.

Equivalent relevant work experience may be substituted for degree requirement.

Assignment Category Fulltime-Regular
Job Classification Staff.Research.III
Campus Pittsburgh
Minimum Education Level Required Baccalaureate
Minimum Experience Level Required 2-3 years experience
Work Schedule Monday- Friday, 8:30-4:30
Hiring Range $23,868.00 - $37,752.00
Relocation Offered No
Visa Sponsorship Provided Yes
Background Check For position finalists, employment with the University will require successful completion of a background check
Child Protection Clearances Not Applicable
Required Documents Resume"
4,Statistician,"West Mifflin, PA 15122",West Mifflin,PA,15122,None Found,None Found,"Experience working in a collaborative data-driven environment.
Previous manufacturing experience.
Experience authoring customer recommendations.",None Found,None Found,"Advanced knowledge of statistical skills including, but not limited to, data collection and data mining, linear/nonlinear regression, ANOVA models, parametric/nonparametric techniques, experimental design, and quality control.
Experience in the development of reports and presentation of results through tables and charts, and interpretation of results.
Ability to effectively use statistical programs including SAS, Minitab, R, NCSS and @Risk
Strong skills with Microsoft Office (MS Word, MS Excel).
Proficient written and communication skills.
Strong interpersonal skills and attention to detail.
Ability to work individually and with a team.
","Description
Are you a Statistician, looking for a challenging position at a company with excellent benefits, a great work/life balance and job stability? If so, no need to look any further!
Core Manufacturing is responsible for providing direction and oversight for manufacture and delivery of reactor core components. CM employees assume substantial responsibility, leading the resolution of production issues while balancing cost, schedule, and technical requirements. Frequent and effective communication with the vendor, Naval Reactors, and Prime interface organizations is a necessary function of the role.
QA Description:
The successful candidate will be responsible for providing direction for high-value components during production and developing the manufacturing process and inspection methods. Duties Include:
provide statistical support on vendor oversight of manufacturing and inspection processes, adapt statistical methods to characterize product attributes involving various manufacturing processes.
Analyze and interpret data in order to support qualification of new manufacturing processes and inspection systems and resolution of data integrity issues.
Provide technical support to manufacturing and development projects, as well as provided assistance on quality control issues, data analysis/interpretation and other statistical tasks related to manufacturing processes.
Evaluate and qualify process improvements to assure product specifications are met and maintained, along with aiming the process average towards design nominal and reducing process variability over time.
Development and qualification of new inspection techniques for new component designs.
Certification of completed components to technical specifications.
Create or provide technical assessment of contract specifications as needed.
Communicate frequently with vendors and other stakeholders.
Intermediate/Advanced:
Conduct exploratory research, experiments, and analyses to produce knowledge and products. Develop theories for understanding, characterizing, and organizing natural phenomena into a systematic and meaningful pattern for research into inventions, new products, or improved techniques for design, manufacturing, operation, or maintenance. Develop research proposals and approaches to provide a technically and economically sound basis for developing and evaluating new or improved products, methods, processes, and analytical and physical testing techniques. Maintain the technical excellence of the Naval Nuclear Propulsion Program.

Requirements
Advanced knowledge of statistical skills including, but not limited to, data collection and data mining, linear/nonlinear regression, ANOVA models, parametric/nonparametric techniques, experimental design, and quality control.
Experience in the development of reports and presentation of results through tables and charts, and interpretation of results.
Ability to effectively use statistical programs including SAS, Minitab, R, NCSS and @Risk
Strong skills with Microsoft Office (MS Word, MS Excel).
Proficient written and communication skills.
Strong interpersonal skills and attention to detail.
Ability to work individually and with a team.
Intermediate:
Master’s degree in a science-related field from an accredited college or university
Advanced:
Master’s degree in a science-related field from an accredited college or university and a minimum of two years relevant experience
Preferred Skills
Experience working in a collaborative data-driven environment.
Previous manufacturing experience.
Experience authoring customer recommendations."
5,Data Science Software Engineer,"Pittsburgh, PA",Pittsburgh,PA,None Found,None Found,None Found,None Found,None Found,None Found,None Found,"The Fort is the new hub for innovation and incubation at Fortive. We have the backing of a large company and the soul of a startup (a Fortune 500 startup, that is), and this is the place where that flame burns brightest.

In The Fort, we combine forces to deploy disruptive technologies and explore new ways of thinking and working. We get out of the office and into the wild to observe first-hand what our customers most need to accelerate progress for the world. We observe, listen, prototype, experiment, analyze, learn, and iterate with passion and speed to fuel Fortive’s growth and build the future. We scout breakthrough ideas and emerging trends from an expansive network stretching from Seattle to Silicon Valley to Shanghai and beyond.

The Fort is built to make growth happen. We start up, we scale up, we shake things up. We face uncertainty head-on and wrestle it to the ground. We fail fast to move our customers forward. We move the needle so much it needs a new gauge. We turn What-if? into What’s next? and How might we? into Wow, we did that! If building a data-driven app in a matter of hours or pushing the frontiers of AI or IoT before lunch sounds like your kind of thing, The Fort just might be your kind of place.

Your Impact
You are collaborative, proactive, adaptable, and gritty. You excel at facilitating and reconciling inputs across teams. You balance a passion for deep understanding of innovation with the ability to deliver extraordinary results.

These are the traits we value:
Ability to Deliver Results: A track record for being able to set a vision and strategy, organize and lead a team, and implement to meet and exceed expectations.
Entrepreneurial Attitude: A proactive outlook that provides the chutzpah needed to overcome barriers, creatively problem solve, and challenge conventional thinking.
Comfort with Ambiguity: A willingness and aptitude for spending time in and thriving with deep uncertainty and environments where there is no clear “right answer”.
Passion for Innovation: A demonstrated interest and desire to participate in innovation through personal study, on-the-job initiative, or other endeavors.
Positive Outlook: A desire to look past the challenged in search of the opportunity.
Empathy & a Teacher’s Mindset: The ability to teach and mentor effectively, successfully facilitate teams and different personalities in training sessions, and to care deeply about his/her colleague’s growth, understanding, and experience.
Bias for Action: A need for speed; demonstrated ability to make decisions quickly and to act upon them.

Alongside a team of entrepreneurial, high-performing, curious people, you’ll deliver breakthrough solutions to drive sustainable growth for Fortive. As a Data Science Software Engineer, you’ll drive execution and play a vital role in building a culture of innovation at Fortive. You will build, manage, and inspire alongside a multi-functional team, that solves for our toughest growth challenges.

Data Science Software Engineer Responsibilities:
Work with large, complex data sets. Solve difficult, non-routine analysis problems, applying advanced analytical methods as needed. Conduct analysis including data gathering/requirements specification, processing, analysis, ongoing deliverables, and presentations.
Build and prototype analysis pipelines iteratively to provide insights at scale. Develop comprehensive understanding of data structures and metrics, advocating for changes where needed for both products development and sales activity.
Interact cross-functionally with a variety of teams and businesses. Work closely with engineers to identify opportunities for, design, and assess improvements to Fortive products.
Make business recommendations (e.g. cost-benefit, forecasting, experiment analysis) with effective presentations of findings at multiple levels of stakeholders through visual displays of quantitative information.
Research and develop analysis, forecasting, and optimization methods to improve the quality of user facing products; example application areas include ads quality, search quality, end-user behavioral modeling, and live experiments.

Required Qualifications:
MS degree in computer science or a related field.
2+ years of relevant work experience in data analysis or related field. (statistics/data science /computational biology/ bioinformatics)
Experience with statistical software (e.g., R, Python, Julia, MATLAB, pandas) and database languages (e.g., SQL).

Preferred Qualifications:
PhD degree in a discipline as listed in required qualifications.
4+ years of relevant work experience (e.g., as a statistician / computational biologist / bioinformatician / data scientist), including deep expertise and experience with statistical data analysis such as linear models, multivariate analysis, stochastic models, sampling methods. Analytical engagements outside class work while at school can be included.
Applied experience with machine learning on large datasets.
Experience articulating business questions and using mathematical techniques to arrive at an answer using available data. Experience translating analysis results into business recommendations.
Demonstrated skills in selecting the right tools given a data problem. Demonstrated written and verbal communication skills.
Demonstrated leadership and self-direction. Demonstrated willingness to both teach others and learn new techniques.

Fortive is a diversified industrial growth company comprised of Professional Instrumentation and Industrial Technologies businesses that are recognized leaders in attractive markets. With 2017 revenues of $6.7 billion, Fortive’s well-known brands hold leading positions in field instrumentation, transportation, sensing, product realization, automation and specialty, and franchise distribution.

Fortive is headquartered in Everett, Washington and employs a team of more than 26,000 research and development, manufacturing, sales, distribution, service and administrative employees in more than 50 countries around the world. With a culture rooted in continuous improvement, the core of our company’s operating model is the Fortive Business System.

For more information please visit: www.fortive.com.
Fortive is a global family of more than 20 industry-leading industrial growth and technology companies, united by a shared purpose: to make the world stronger, safer and more effective by providing essential technology for the people who accelerate progress. We take on big challenges that have real impact in fast-moving fields like software development, robotics, transportation, energy and healthcare.

With more than $6.7 billion in annual revenues and a culture rooted in Kaizen, or continuous improvement, Fortive is well positioned to create essential, technology-based solutions to solve the world’s most critical challenges. Our strong capability comes from a team of smart, motivated people who proudly deliver excellence in each of our outstanding brands in the areas of field instrumentation, transportation, sensing, product realization, automation and specialty, and franchise distribution.

Fortive is headquartered in Everett, Washington and employs a team of more than 26,000 research and development, sales, marketing, product development, innovation, and service employees in more than 50 countries around the world.
This is a place where people who share a drive and passion to make a personal difference can learn, grow, and achieve. And that’s good... for you, for us, for growth.

For more information, please visit: www.fortive.com.
""The company in which you have expressed employment interest is a subsidiary or affiliate of Fortive Corporation. The subsidiary or affiliate is referred to as a """"Fortive Company."""" Fortive Corporation and all Fortive Companies are equal opportunity employers that evaluate qualified applicants without regard to race, color, national origin, religion, sex, age, marital status, disability, veteran status, sexual orientation, gender identity or expression, or other characteristics protected by law. The """"EEO is the Law"""" poster is available at: http://www.dol.gov/ofccp/regs/compliance/posters/pdf/eeopost.pdf. Individuals who need a reasonable accommodation because of a disability for any part of the employment process should call 1-866-272-5573 or e-mail applyassistance@fortive.com to request accommodation."""
6,Biostatistician - (Research),"Pittsburgh, PA 15289",Pittsburgh,PA,15289,None Found,None Found,"
Excellent knowledge of statistical theory including experimental design, categorical data analysis, analysis of variance (covariance), survival analysis, and non-parametric methods.
Effective written and verbal communication skills.
Ability to apply knowledge of basic statistical design, analysis, and programming techniques utilized in clinical research and to effectively communicate statistical concepts.
Displays willingness to work with others and assist with projects and business unit initiatives as necessary to meet the needs of the business",None Found,None Found,None Found,"Company :
Allegheny Health Network
Job Description :

JOB SUMMARY
This job will act as the lead statistician for multiple projects with any level of complexity and will be the primary contact with the sponsor for all biostatistics related activities on assigned projects. Serves as an enterprise resource for complex statistical questions, study design considerations, and protocol development.
ESSENTIAL RESPONSIBILITIES
Collaborates in the process of protocol development by choosing an appropriate study design, including statistical methodologies, calculating necessary sample size to achieve a pre-specified power, and writing the statistical section of the protocol. Sample size calculations may require some literature search to ensure that the study assumptions are correct.
Writes and reviews statistical analysis plans (SAPs) based on the protocol, including development of well-presented mock-up displays for tables, listings, and figures. Collaborates with sponsor. Creates or reviews programming specifications for analysis datasets, tables, listings, and figures.
Directs the activities of other personnel on assigned projects to ensure timely completion of high quality work. Provides independent review of project work produced by other statisticians in the department. Participates in project teams, interfacing as necessary with other departmental project team representatives.
Discusses time estimates for completion of study related activities with stakeholders and management and proactively communicates to management any difficulties with meeting these timelines. Monitors progress on study activities against agreed upon milestones and ensures the study timelines for project deliverables are met. Identifies out of scope tasks and escalates to management.
Supports business development activities by contributing to proposals, budgets, and attending sponsor bid defense meetings.
Conducts and participates in review and quality control of project deliverables, ensuring that output meets expectations and is consistent with analysis described in SAP.
Generates and/or reviews randomization schedule(s) to ensure there are no errors present and sponsor and protocol requirements are met. Performs ongoing monitoring of actual randomization scheme.
Other duties as assigned or requested.
QUALIFICATIONS
Education, Licenses/Certifications, and Experience
Minimum
MS or PhD in Biostatistics or related field.
Preferred
At least 3 years of Biostatistics experience.
Extensive experience in clinical trials or equivalent combination of education and experience.
Experience in SAS programming.
SPSS and R Programming
Large data bases Oracle.
Experience with regulatory submissions preferred.
Knowledge, Skills and Abilities
Excellent knowledge of statistical theory including experimental design, categorical data analysis, analysis of variance (covariance), survival analysis, and non-parametric methods.
Effective written and verbal communication skills.
Ability to apply knowledge of basic statistical design, analysis, and programming techniques utilized in clinical research and to effectively communicate statistical concepts.
Displays willingness to work with others and assist with projects and business unit initiatives as necessary to meet the needs of the business
SCOPE OF RESPONSIBILITY
Does this role supervise/manage other employees?
No
Compliance Requirement: As a component of job responsibilities, employees may have access to covered information, cardholder data, or other confidential customer information that must be protected at all times. In connection with this, all employees must comply with both the Health Insurance Portability Accountability Act of 1996 (HIPAA) as described in the Notice of Privacy Practices and Privacy Policies and Procedures as well as all data security guidelines established within the Company’s Handbook of Privacy Policies and Practices and Information Security Policy.

Furthermore, it is every employee’s responsibility to comply with the company’s Code of Business Conduct. This includes but is not limited to adherence to applicable federal and state laws, rules, and regulations as well as company policies and training requirements.
-
Highmark Health and its affiliates prohibit discrimination against qualified individuals based on their status as protected veterans or individuals with disabilities, and prohibit discrimination against all individuals based on their race, color, religion, sex, national origin, sexual orientation/gender identity or any other category protected by applicable federal, state or local law. Highmark Health and its affiliates take affirmative action to employ and advance in employment individuals without regard to race, color, religion, sex, national origin, sexual orientation/gender identity, protected veteran status or disability.
EEO is The Law
Equal Opportunity Employer Minorities/Women/ProtectedVeterans/Disabled/Sexual Orientation/Gender Identity (http://www1.eeoc.gov/employers/upload/eeoc_self_print_poster.pdf)
We endeavor to make this site accessible to any and all users. If you would like to contact us regarding the accessibility of our website or need assistance completing the application process, please contact number below."
7,Principal Biostatistician,"Pittsburgh, PA 15222",Pittsburgh,PA,15222,None Found,None Found,None Found,"Provide scientific/statistical insight in addressing questions from clients and propose novel solutions to technical issues
Interact with relevant stakeholders to ensure that appropriate statistical methods are adequately and consistently applied in all scientific and regulatory documents, presentations, and publications
Oversee design and execution of statistical methods (SAP), statistical analyses, and results (e.g., summary sections for clinical study reports (CSR))
Review and approve key results and statistical conclusions.
Provide guidance to the clinical and regulatory teams regarding conclusions and inferences from the data package.
Can oversee statistical deliverables such as they are consistently compliant, in timing and quality, with SOPs and departmental standards.
Performs senior-level reviews and is responsible for the datasets and outputs of a project. Ensures consistency with the SAP and reviews for correctness and quality.
Responsible for the statistical considerations in FDA submissions for Integrated Summary of Safety (ISS) and Integrated Summary of Efficacy (ISE), including but not limited to ISS/ISE SAP, data integration plan and oversight of all integrated analyses.
Provides high level of support to the programmers and medical writers on all statistical matters according to client requirements.
Prepares and reviews statistical methods and results sections for the clinical study report (CSR) with in-house medical writers.
Provides support to Data Safety Monitoring Boards (DSMB) by preparing and presenting output as the unblinded statistician.
Generates sample size calculations appropriate for the primary endpoint and based on input from the protocol.
Generates and reviews randomization schedules per the protocol and randomization specifications.
Works with the project management group to ensure timelines are appropriate given the scope of the project.
Is familiar with and stays current with the latest industry practices and updated regulatory guidelines.
Communicates competently and independently with client to coordinate the statistical and programming considerations of the project.
Demonstrates strong understanding of ICH guidelines, as applicable to statistics.
",None Found,"PhD in statistics with a minimum of 5 years of experience or MS in statistics or related field with 12 years of experience preferred.
Strong knowledge of study designs and statistical analysis methods (e.g., generalized linear and nonlinear models for correlated data, survival analysis, general imputation methods, multiplicity testing).
Experience with writing statistical sections of protocols. Experience with statistical methodologies and software for adaptive designs.
Excellent mathematical and problem-solving skills.
Hands-on experience as lead statistician or senior oversight for at least 2 NDA submissions (both ISS and ISE).
Ability to coordinate the analytical aspects of multiple projects at the same time.
Good interpersonal, oral, and written communication skills.
Self-motivated, hardworking, dependable, and positive team-oriented personality.
Knowledge of and experience with SAS.
","MMS is an award-winning, data-focused CRO that supports the pharmaceutical and biotech industries with a proven, scientific approach to complex trial data and regulatory submission challenges. Strong industry experience and a data-driven approach to drug development make MMS a valuable CRO partner, creating compelling submissions that meet rigorous regulatory standards. With a global footprint across four continents, MMS maintains a 97 percent customer satisfaction rating and was named as the Best Global Biotech CRO in the 2018 International Life Sciences Awards. For more information, visit our website or follow MMS on LinkedIn.
Roles and Responsibilities
Provide scientific/statistical insight in addressing questions from clients and propose novel solutions to technical issues
Interact with relevant stakeholders to ensure that appropriate statistical methods are adequately and consistently applied in all scientific and regulatory documents, presentations, and publications
Oversee design and execution of statistical methods (SAP), statistical analyses, and results (e.g., summary sections for clinical study reports (CSR))
Review and approve key results and statistical conclusions.
Provide guidance to the clinical and regulatory teams regarding conclusions and inferences from the data package.
Can oversee statistical deliverables such as they are consistently compliant, in timing and quality, with SOPs and departmental standards.
Performs senior-level reviews and is responsible for the datasets and outputs of a project. Ensures consistency with the SAP and reviews for correctness and quality.
Responsible for the statistical considerations in FDA submissions for Integrated Summary of Safety (ISS) and Integrated Summary of Efficacy (ISE), including but not limited to ISS/ISE SAP, data integration plan and oversight of all integrated analyses.
Provides high level of support to the programmers and medical writers on all statistical matters according to client requirements.
Prepares and reviews statistical methods and results sections for the clinical study report (CSR) with in-house medical writers.
Provides support to Data Safety Monitoring Boards (DSMB) by preparing and presenting output as the unblinded statistician.
Generates sample size calculations appropriate for the primary endpoint and based on input from the protocol.
Generates and reviews randomization schedules per the protocol and randomization specifications.
Works with the project management group to ensure timelines are appropriate given the scope of the project.
Is familiar with and stays current with the latest industry practices and updated regulatory guidelines.
Communicates competently and independently with client to coordinate the statistical and programming considerations of the project.
Demonstrates strong understanding of ICH guidelines, as applicable to statistics.
Requirements
PhD in statistics with a minimum of 5 years of experience or MS in statistics or related field with 12 years of experience preferred.
Strong knowledge of study designs and statistical analysis methods (e.g., generalized linear and nonlinear models for correlated data, survival analysis, general imputation methods, multiplicity testing).
Experience with writing statistical sections of protocols. Experience with statistical methodologies and software for adaptive designs.
Excellent mathematical and problem-solving skills.
Hands-on experience as lead statistician or senior oversight for at least 2 NDA submissions (both ISS and ISE).
Ability to coordinate the analytical aspects of multiple projects at the same time.
Good interpersonal, oral, and written communication skills.
Self-motivated, hardworking, dependable, and positive team-oriented personality.
Knowledge of and experience with SAS.
SFVxA70wlv"
