,Title,Location,City,State,Zip,Country,Qualifications,Skills,Responsibilities,Education,Requirement,FullDescriptions
0,Statistician - SPH,"Houston, TX",Houston,TX,None Found,None Found,None Found,"
Professional competency in R or other scientific programming languages as appropriate to research focus.
Familiar with Unix operating system.
Working knowledge and experience in epidemiological studies, genome-wide association studies, and candidate-gene association studies.
Good communication skills both written and verbal.",None Found,"
Bachelor’s degree in related field.","
Exerts up to 20 pounds of force occasionally and/or up to 10 pounds frequently and/or a negligible amount constantly to move objects.","Responsible for the application of standard statistical methods for conducting analysis and preparing reports. Will support study design, analysis and result interpretation for multiple epidemiologic and genetic studies of common complex diseases in humans. In the beginning of a study, this involves considerations of study design, data management and quality control. In the data collection phase, this involves interim analyses, and the presentation of reports of these interim analyses. As a study matures, this involves participation in the final analysis plan, the actual data analysis and the statistical interpretation of study findings.

Position Key Accountabilities:
Conducts statistical analyses and reports.
Verify, clean and/or reformate raw phenotypic data for database storage and analysis
Conduct epidemiological/genetic statistical analyses on large sample sets using R and specialized software.
Supervises the routing tabulation of data; edits and analyzes the final material in the form of reports and records, including detail and summary tables, graphs, and charts.
Performs statistical analyses from both large and small samples of data.
Calculates medians quantities, percentiles and coefficients of correlation.
Tests data for sampling errors and for significance differences between samples.
Performs other duties as assigned.

Preferred Certification/Skills:
Professional competency in R or other scientific programming languages as appropriate to research focus.
Familiar with Unix operating system.
Working knowledge and experience in epidemiological studies, genome-wide association studies, and candidate-gene association studies.
Good communication skills both written and verbal.

Minimum Education:
Bachelor’s degree in related field.
Minimum Experience:
Two (2) years of experience in analysis and presentation of statistical data.
May substitute required experience with equivalent years of education beyond the minimum education requirement.
Physical Requirements:
Exerts up to 20 pounds of force occasionally and/or up to 10 pounds frequently and/or a negligible amount constantly to move objects.
Security Sensitive:
This job class may contain positions that are security sensitive and thereby subject to the provisions of Texas Education Code § 51.215"
1,Biostatistician,"Houston, TX",Houston,TX,None Found,None Found,None Found,"
Demonstrates proficiency with statistical methods and applications in clinical research.
Experience in data analysis of large administrative datasets (claims, registries, EMR) and observational studies.",None Found,"
Master’s degree in related health science. PhD preferred.",None Found,"Provides statistical support for research using large administrative datasets among other various data sources.

Department: Ctr Mgmt & Policy in Pop Hlth
Location: Texas Medical Center- Houston, TX
FLSA: FT/ Exempt

Position Key Accountabilities:
Collaborates with investigators to determine study design, contribute to protocol development, and write statistical analysis plans.
Performs statistical analysis and inference, and writes and presents reports summarizing findings including publications in peer-reviewed journals.
Develops systems for monitoring the quality of different datasets.
May write program code to analyze data using statistical analysis software.
Ensures high-quality statistical support is provided for investigational studies, projects, registries and basic research using advanced statistical skills and knowledge of clinical research.
Maintains expertise in state-of-the-art data manipulation and statistical methodology.
May conduct ad hoc analyses.
Interviews clients/users and departmental personnel for problem definition to ensure that programs are written that fit the users' needs or changes are made to resolve existing problems.
May write, test and implement data queries. May code straight-forward to somewhat complex queries and ensure queries conform to departmental standards and are documented and stored for other users.
May assist with acceptance testing of purchased software, implementation of software programs, and/or upgrades to existing software to ensure user/clients' needs are met.
Performs other duties as assigned.
Certification/Skills:
Demonstrates proficiency with statistical methods and applications in clinical research.
Experience in data analysis of large administrative datasets (claims, registries, EMR) and observational studies.
Preferred:
Experience in Database and writing SQL server queries and procedures.
Knowledge of computer hardware, software, mathematics, and programming.
Demonstrated experience in SAS, SQL, or R
Minimum Education:
Master’s degree in related health science. PhD preferred.
Minimum Experience:
Two years of statistician experience.
Physical Requirements:
Exerts up to 50 pounds of force occasionally and/or up to 20 pounds frequently and/or up to 10 pounds constantly to move objects.
Security Sensitive:
This job class may contain positions that are security sensitive and thereby subject to the provisions of Texas Education Code § 51.215"
2,Ultimate Hoops Statistician,"Cypress, TX 77433",Cypress,TX,77433,None Found,None Found,None Found,"
Assures all players are checked in and present on official scoresheets
Tracks all relevant statistics during games
Works closely with League Coordinator to ensure member satisfaction
Assists in game preparations and/or clean up as needed
Actively promotes Ultimate Hoops and Life Time Fitness to members and non-members
Articulates extensive knowledge of Ultimate Hoops and Life Time Fitness programs, products, services, policies and procedures to prospective and current members",None Found,"
High School Diploma or GED
Experience tracking full statistical data for basketball games","Description
Position Summary
The Statistician assists in the execution of Ultimate Hoops Basketball League by tracking full statistics for League games.
Job Duties and Responsibilities
Assures all players are checked in and present on official scoresheets
Tracks all relevant statistics during games
Works closely with League Coordinator to ensure member satisfaction
Assists in game preparations and/or clean up as needed
Actively promotes Ultimate Hoops and Life Time Fitness to members and non-members
Articulates extensive knowledge of Ultimate Hoops and Life Time Fitness programs, products, services, policies and procedures to prospective and current members
Position Requirements
High School Diploma or GED
Experience tracking full statistical data for basketball games"
3,Statistician,"Houston, TX 77056",Houston,TX,77056,None Found,None Found,None Found,None Found,None Found,None Found,"alliantgroup, LP is currently experiencing explosive growth! As a national consulting firm focused on being the voice to the middle market, our mission is simple: Strengthening American businesses. How do we do this? We hire the brightest talent with the most diverse backgrounds who are passionate about making a difference.
The Statistician will analyze and interpret data from various sources and provide expert opinions. The primary responsibilities will include compiling reports, charts, and tables based on established statistical methods while working directly with senior leadership.
Masters in Statistics, Applied Mathematics or similar degree
1-3 years of experience in the field or in a related area
Experience compiling reports, charts and tables based on established statistical methods
Analyzes and interprets data from various sources
Relies on experience and judgment to plan and accomplish goals
Proven track record of meeting deadlines
Superior analytical and problem solving skills
Self-starter and works well with minimal supervision
Proficient with Microsoft Excel, Word, SAS, R, and/or LaTeX preferred but not required
Flexibility to travel for business and training purposes
Work location is Houston, TX
Do Work That Matters. alliantgroup."
4,Credit Card,"Houston, TX",Houston,TX,None Found,None Found,None Found,None Found,None Found,None Found,None Found,"Company: Compass Bank dba BBVA Compass
Location: Houston, Texas. United States
Job type: Employment | Corporate Risk
Published on: 7th October 2019
Our Company
At BBVA, we are leading the transformation of global banking with the aim of bringing the opportunities of this new era within everyone’s reach. We are a global financial institution present in 30 countries with over 75 million customers. We are a bank with over 126,000 employees across the world and every one of those employees is leading and designing his/her professional career with the help of tools provided by the organisation to make that happen.
Corporate responsibility is an intrinsic part of our business model, promoting inclusion and financial education while supporting research and culture. Being part of BBVA means developing your career in one of the most innovative companies in finance.
We started out with the spirit of helping others make the best financial decisions. That spirit remains with us today and encourages us to keep moving forward, prioritising innovation and digital transformation so that we can bring the opportunities of this new era within everyone’s reach.
Our values define our identity; they are what drives us to make our goals a reality and they guide all of our actions and the decisions we make.
The customer comes first.We think big.We are one team.
Job description

The Retail Models & Analytics group is part of the Risk Innovation, Data and Analytics organization. It is responsible for the development and implementation of risk scorecards, fraud models and credit risk strategies across the customer lifecycle for all Retail Credit portfolios.
This individual will responsible for developing and optimizing analytically driven credit risk strategies on Retail Credit Card and Consumer Direct portfolios, with a focus on the Digital Bank. This includes developing risk strategies for new risk scorecards or optimizing existing strategies. The individual will also integrate customer level risk scores into reactive decision points and into account management strategies. And also to undertake complex analytics to support key strategic initiatives for growth, innovation or risk mitigation.

Responsibilities
Develop and optimize credit risk strategies for Credit Cards and Consumer Direct portfolios using analytical techniques and statistical analysis to meet pre-defined goals
Build credit risk strategies for originations, account management and collections
Meet strategic business targets for auto-decisioning
Develop risk based pricing models and strategies to meet RAROC targets
Integrate new data sources and solutions into credit risk strategies
Responsible for integrating customer level risk scores into reactive and account management decisoning
Developing a program to track expected versus actual behavioral and performance measures for appropriate portfolios, populations, and segmentation end-nodes
Enhance the analytic framework for credit decisioning and pricing
New quantitatively driven challenger strategies and pilot programs across the customer lifecycle
Develop and present analysis results and recommendations to senior leaders
Lead a small team of analytic / statistician resources
Undertake ad-hoc data analytics as required
br>
Education/Experience

Master''s Degree in a quantitative discipline with a minimum of ten (10) years of experience in a credit risk analytics or portfolio management role and three (3) years of experience developing data driven credit risk strategies for a credit card or other unsecured portfolio.
Working experience with SAS, including E-Miner and SQL
Preferred experience working for a top 10 national U.S. credit card issuer
Work experience may substitute for education requirement.

Lic/Cert/Reg

Required: None required
Preferred: None preferred



At BBVA, we believe that having a team made up of people with different ways of viewing the world and of taking on each challenge makes us a better bank. That is why we actively support diversity and inclusion, and we invite you to apply, regardless of your race, gender, age, sexual orientation, country of origin, experience, studies, etc.
We nurture a collaborative and inclusive work environment that enables us to show and develop the best we each have to offer.
Pay Transparency Policy Statement
The contractor will not discharge or in any other manner discriminate against employees or applicants because they have inquired about, discussed, or disclosed their own pay or the pay of another employee or applicant. However, employees who have access to the compensation information of other employees or applicants as a part of their essential job functions cannot disclose the pay of other employees or applicants to individuals who do not otherwise have access to compensation information, unless the disclosure is (a) in response to a formal complaint or charge, (b) in furtherance of an investigation, proceeding, hearing, or action, including an investigation conducted by the employer, or (c) consistent with the contractor’s legal duty to furnish information (41 C.F.R. 60-1.35 (c)).
Individuals with Disabilities
BBVA Compass, BBVA Securities Inc., and BBVA S.A. New York Branch invite all interested and qualified applicants to apply for employment opportunities. If you are a U.S.-based job seeker with a disability who is unable to use our online tools to search and apply for jobs, please contact us by emailing: disabilityaccessjobs.us@bbva.com or by calling toll-free (in the U.S.) 1-844-664-9275. Please indicate the specific type of assistance needed*.
The disability access telephone line and email address are reserved solely for job seekers with disabilities requesting accessibility assistance or an accommodation. Please do not call about the status of your job application if you do not require accessibility assistance or an accommodation. Messages left for other purposes, such as following up on an application or non-disability related or technical issues, will not receive a response.
EEO Statement
BBVA Compass, BBVA Securities Inc., and BBVA S.A. New York Branch have a firm and unwavering policy to provide equal employment opportunity without regard to age, citizenship, color, disability, ethnic origin, gender, gender identity and expression, marital status, nationality, national origin, race, religion, sexual orientation, genetic predisposition, protected veteran status, or any other status or classification protected by federal, state or local law. This policy includes all job groups, classifications and organizational units. With regard to employment, this policy extends to applicants and covers our recruiting, hiring, promotion, transfer, demotion, discipline, termination, benefits, compensation and training practices as well as social and recreational activities. View the ""EEO is the Law"" & ""View the EEO is the Law Supplement Poster"" poster. BBVA Compass, BBVA Securities, Inc., and BBVA NY are equal opportunity and affirmative action employer."
