,Title,Location,City,State,Zip,Country,Qualifications,Skills,Responsibilities,Education,Requirement,FullDescriptions
0,Delivery Director,"Houston, TX",Houston,TX,None Found,None Found,None Found,None Found,None Found,None Found,None Found,"The Company
-----------

Arundo is a software company based in Oslo, Norway; Houston, TX; and Palo Alto, CA, with presence in 7 locations in Europe and the Americas. Our software enables advanced analytics, machine learning, and IoT applications for more efficient, safer, and more effective physical systems in heavy industries such as energy, chemicals, and shipping. Founded in 2015, Arundo consists of around 100 software engineers, data scientists, designers, and industrial domain experts.

Our team members are passionate about being part of a company that can solve tough problems and create innovative solutions. We believe in a fun environment, where our people can be fearless and feel empowered to always do the right thing. Arundites come from many different backgrounds including academia, industry, and even a submarine! We look for smart, creative thinkers with a player-coach mindset who can wear multiple hats and contribute to our exciting future!

The Role
--------

Our Delivery Director is responsible for the delivery of Arundo SaaS software and data science solutions to our strategic customers -- enabling sustained business value capture. The Delivery Director is responsible for our portfolio of customers in the Americas region, including direct leadership of one or more customer deliveries. In addition, the role will have oversight of the regional Delivery function. Leading our Delivery function includes working with, data scientists, solution architects, software engineers, and field engineers to scope, develop and operationalize state-of-the-art machine learning and other analytical solutions. Moreover, the position includes direct management and mentorship of Delivery Leads, Field Engineers and Solution Architects. The position reports to the VP of Delivery for the Americas but will also have regular access and support from the General Manager Americas as well as Head of Data Science Americas.

The ideal Delivery Director combines industrial and enterprise software experience with a proven record in technology consulting and/or enterprise software implementation. Common for all is a passion for working with highly talented people in delivering customer value through advanced technical solutions.

As a Delivery Director, you work closely with your team to shape process, execution and solution design for customer projects and the implementation of a growing product portfolio, as well as working to improve our overall Delivery processes and standards.

A key element of the position includes support of presales activities -- partnering with our sales team and our data science leadership to assess opportunities, manage risks and guide the prospective customer towards positive outcomes. In this role, you are a peer of the VP of Sales for the Americas and a trusted advisor of the sales executives as well as the prospective customer.

We value critical thinking, self-motivation, and the ability to deal with ambiguity. You should bring a cool head, have strong project management skills and a strong technological interest and background. You enjoy solving complex problems, you are a good communicator, and enjoy working closely with customers and talented people to deliver extraordinary results. And you will enjoy getting 'hands on' and learning our product/platform -- and even give product/solution demos to our customers. We love people who innovate, use data to make decisions, and can express themselves thoughtfully. We want you to be passionate about delivering a great customer experience and love contributing to achieve excellence in all you do.

Responsibilities
----------------

Customer project delivery leadership


Responsible for shaping projects and product implementation in the Americas through mentorship of your direct reports
Consulted for continued process and template refinement in a global fashion
Responsible for successful project delivery, leading a delivery team consisting of data scientists, solution architects, software engineers, and field engineers
Responsible for collecting and providing product feedback to our Product Management and Product Engineering teams
Works with customers to identify and quantify opportunities to create business value through the use of machine learning and IoT technologies
Consulted on project scoping, scheduling, and delivery according to plan
Hiring, weekly 1-on-1s, coaching and feedback
Mentors team on collaborative design, development, and delivery efforts of customer solutions
In some projects, leads project workshops such as kick-offs, executive touchpoints and key go-live activities in order to demonstrate excellence to your direct reports
Builds professional rapport with customers and partners
Mentors and cultivates excellence in customer reports and slide development and presentation

Presales leadership


Responsible as an individual contributor and senior leader/mentor for executing presales activities such as discovery workshops and demos
Responsible for production and quality control of statements of work
Consulted on proposal templates and quality reviews for specific proposals
Participation and presentation at external conferences and events; as well as writing blog articles and whitepapers

Qualifications
--------------

Education


Bachelor's degree in Science, Technology, Engineering, Math or equivalent experience

Needed Work Experience


7 or more years leading complex, technology-oriented projects in technology or industrial companies, or equivalent experience from management or technology consulting
3 or more years as an individual contributor in technical/presales activities conducting discovery, assessing/shaping scopes of work, demoing software and explaining project scoping (i.e. phases, assumptions, risk, roles/responsibilities)
Direct management experience: hiring, 1-on-1s, feedback, coaching and delegation
Consistent track record of strong results and impact in customer facing role for more than 5 years
Operational domain knowledge from an industrial environment (oil and gas E&P or process manufacturing); ideally, as a practitioner but a technologist or consultant into those industries are considered as well

Preferred Work Experience


Experience with I0T, cloud technology and/or development of machine learning models
Conceptual, end-user or installation knowledge of industrial technology such as HMI, PLC, DCS, process historians, alarm management & other such applications
Experience as a software or data engineer using modern languages and PaaS development is an advantage; as is having lead software-related transformations

Personal Skills and Capabilities


Strong people leadership skills with the ability to motivate and inspire others to achieve great results
Highly analytical and strong problem-solving skills
Written and verbal communication skills
Enjoys crafting beautiful and clear customer presentations
Enjoys working in a dynamic and customer-focused environment
Strong listening skills and the ability to identify and resolve issues
Ability to maintain composure in complex and stressful situations
Responds to customer needs quickly and effectively, and is able to adapt to changes to deliver results
Able to lead complex customer and stakeholder relationships

Who are we?
-----------


We are a values driven company with an inclusive and autonomous culture
We have highly talented and dedicated people
We work in a collaborative environment with our offices in the US and EMEA
You'll have the opportunity to work with cutting edge technology
We have a FUN environment - we take fun seriously and have appointed a VP of Fun
We have regular team building activities
We have several social clubs of own choice (Data Science Club, Running Club, Females@Arundo)
We collaboration with Stanford/StartX and MIT/STEX25
We're at a prime location with nice facilities in Downtown Houston
We have a free snack bar and Old-school arcade games in the office
Competitive salary, and participation in our employee stock option plan
Benefits plan including 401k retirement plan

We are an equal opportunity employer and value diversity at our company. We do not discriminate on the basis of race, religion, color, national origin, gender, sexual orientation, age, marital status, veteran status, or disability status.

Location
--------

Houston, TX

Travel
------


In general, most work is conducted from Arundo offices
Required travel may approach 2-3 days per week during key phases in customer projects. But in general, Arundo does not favor a full on-site presence in our projects.

Additional Information
----------------------


You must successfully pass a pre-employment background check and drug screen
You are able to work for any US employer without requiring sponsorship

This job description is intended to describe the general nature and level of the work being performed by individuals in the position. It is not intended to include every job duty and responsibility specific to the position. Arundo reserves the right to amend and change responsibilities to meet business and organizational needs as necessary."
1,Azure Data Engineer,"Houston, TX 77006",Houston,TX,77006,None Found,"At least 5 years of consulting or client service delivery experience on Azure
",DevOps on an Azure platform,None Found,None Found," Proven ability to build, manage and foster a team-oriented environment
","Are you ready to step up to the New and take your technology expertise to the next level?
 Join Accenture and help transform leading organizations and communities around the world. The sheer scale of our capabilities and client engagements, in conjunction with the way we collaborate, operate and deliver value, provides an unparalleled opportunity to grow and advance. Choose Accenture and make delivering innovative work part of your extraordinary career.
 People in our Client Delivery & Operations career track drive delivery and capability excellence through the design, development and/ or delivery of a solution, service, capability or offering. They grow into delivery-focused roles, and can progress within their current role, laterally or upward. We partner with our clients to help transform their data into an ‘Appreciating Business Asset.’

As part of our Data Business Group, you will lead technology innovation for our clients through robust delivery of world-class solutions. You will build better software better! There will never be a typical day and that’s why people love it here. The opportunities to make a difference within exciting client initiatives are unlimited in the ever-changing technology landscape. You will be part of a highly collaborative and growing network of technology and data experts, who are taking on today’s biggest, most complex business challenges using the latest data and analytics technologies. We will nurture your talent in an inclusive culture that values diversity. You will have an opportunity to work in roles such as Data Scientist, Data Engineer, or Chief Data Officer covering all aspects of Data including Data Management, Data Governance, Data Intelligence, Knowledge Graphs, and IoT. Come grow your career in Technology at Accenture!

The Azure Technical Architect Delivery is responsible for delivering Data On Cloud projects for Azure based deals. The ideal candidate would also be responsible for developing and delivering Azure cloud solutions to meet todays high demand in areas such as AIML, IoT, advanced analytics, open source, enterprise collaboration, microservices, serverless, etc. The Azure Data Engineer is a highly performant engineer responsible for delivering Cloud based Big Data and Analytical Solutions at our clients. Responsibilities include evangelizing data on cloud solutions with customers, leading Business and IT stakeholders through designing a robust, secure and optimized Azure architectures and ability to be hands-on delivering the target solution. This role will work with customers and leading internal engineering teams in delivering big data soltuions on cloud. Using Azure public cloud technologies, our Data Engineer professionals implement state of the art, scalable, high performance Data On Cloud solutions that meet the need of todays corporate and emerging digital applications

 Role & Responsibilities:Provide subject matter expertise and hands on delivery of data capture, curation and consumption pipelines on Azure and HadoopAbility to build cloud data solutions and provide domain perspective on storage, big data platform services, serverless architectures, hadoop ecosystem, vendor products, RDBMS, DW/DM, NoSQL databases and security.Participate in deep architectural discussions to build confidence and ensure customer success when building new solutions and migrating existing data applications on the Azure platform.Conduct full technical discovery, identifying pain points, business and technical requirements, “as is” and “to be” scenarios.
- Build full technology stack of services required including PaaS (Platform as-a-service), IaaS (Infrastructure as-a-service), SaaS (software as-a-service), operations, management and automation.Apply Accenture methodology, Accenture reusable assets, and previous work experience to delivery consistently high-quality work.Stay educated on new and emerging technologies/patterns/methodologies and market offerings that may be of interest to our clients.Adapt to existing methods and procedures to create possible alternative solutions to moderately complex problems.Understand the strategic direction set by senior management as it relates to team goals.Use considerable judgment to define solution and seeks guidance on complex problems.Primary upward interaction is with direct supervisor. May interact with peers and/or management levels at a client and/or within Accenture. Establish methods and procedures
on new assignments with guidance.
Manage small teams of deliver engineers successfully delivering work efforts

 (if in an independent contributor role) at a client or within Accenture.
Extensive travel may be required

Basic Qualifications
At least 5 years of consulting or client service delivery experience on Azure
At least 5 years of experience in developing data ingestion, data processing and analytical pipelines for big data, relational databases, NoSQL and data warehouse solutions
Extensive experience providing practical direction within the Azure Native and HadoopMinimum of 5 years of hands-on experience in Azure and Big Data technologies such as Powershell, C#, Java, Node.js, Python, SQL, ADLS/Blob, Spark/SparkSQL, Hive/MR, Pig, Oozie and streaming technologies such as Kafka, EventHub, NiFI etc.
Extensive hands-on experience implementing data migration and data processing using Azure services: Networking, Windows/Linux virtual machines, Container, Storage, ELB, AutoScaling, Azure Functions, Serverless Architecture, ARM Templates, Azure SQL DB/DW, Data Factory, Azure Stream Analytics, Azure Analysis Service, HDInsight, Databricks Azure Data Catalog, Cosmo Db, ML Studio, AI/ML, etc.
 Cloud migration methodologies and processes including tools like Azure Data Factory, Event Hub, etc.
5+ years of hands on experience in programming languages such as Java, c#, node.js, python, pyspark, spark, SQL, Unix shell/Perl scripting etc.
Minimum of 5 years of RDBMS experience
Experience in using Hadoop File Formats and compression techniquesExperience working with Developer tools such as Visual Studio, GitLabs, Jenkins, etc.
Experience with private and public cloud architectures, pros/cons, and migration considerations.
Bachelors or higher degree in Computer Science or a related discipline.

Candidate Must Have Completed The Following Certifications
MCSA Cloud Platform (Azure) Training & Certification
MCSE Cloud Platform & Infratsructiure Training & Certification
MCSD Azure Solutions Architect Training & Certification

Nice-to-Have Skills/Qualifications:
DevOps on an Azure platform
Experience developing and deploying ETL solutions on Azure
IoT, event-driven, microservices, containers/Kubernetes in the cloud
Familiarity with the technology stack available in the industry for metadata management: Data Governance, Data Quality, MDM, Lineage, Data Catalog etc.
Familiarity with the Technology stack available in the industry for data management, data ingestion, capture, processing and curation: Kafka, StreamSets, Attunity, GoldenGate, Map Reduce, Hadoop, Hive, Hbase, Cassandra, Spark, Flume, Hive, Impala, etc.
- Multi-cloud experience a plus - Azure, AWS, Google

Professional Skill Requirements
 Proven ability to build, manage and foster a team-oriented environment
 Proven ability to work creatively and analytically in a problem-solving environment
 Desire to work in an information systems environment
 Excellent communication (written and oral) and interpersonal skills
 Excellent leadership and management skills
 Excellent organizational, multi-tasking, and time-management skills
 Proven ability to work independently

All of our professionals receive comprehensive training covering business acumen, technical and professional skills development. You'll also have opportunities to hone your functional skills and expertise in an area of specialization. We offer a variety of formal and informal training programs at every level to help you acquire and build specialized skills faster. Learning takes place both on the job and through formal training conducted online, in the classroom, or in collaboration with teammates. The sheer variety of work we do, and the experience it offers, provide an unbeatable platform from which to build a career.

Applicants for employment in the US must have work authorization that does not now or in the future require sponsorship of a visa for employment authorization in the United States and with Accenture (i.e., H1-B visa, F-1 visa (OPT), TN visa or any other non-immigrant status).

Candidates who are currently employed by a client of Accenture or an affiliated Accenture business may not be eligible for consideration.

Accenture is a Federal Contractor and an EEO and Affirmative Action Employer of Females/Minorities/Veterans/Individuals with Disabilities.

Equal Employment Opportunity

All employment decisions shall be made without regard to age, race, creed, color, religion, sex, national origin, ancestry, disability status, veteran status, sexual orientation, gender identity or expression, genetic information, marital status, citizenship status or any other basis as protected by federal, state, or local law.

Job candidates will not be obligated to disclose sealed or expunged records of conviction or arrest as part of the hiring process.

Accenture is committed to providing veteran employment opportunities to our service men and women."
2,Sr Data Engineer,"Houston, TX 77021",Houston,TX,77021,None Found,None Found,None Found,None Found,None Found,None Found,"MAJOR RESPONSIBILITIES:
Develop and optimize the bioinformatics pipeline systems at Baylor Genetics.
Develop and Install software and assist in administration of Linux systems in a virtualized environment, optimizing storage access and managing scientific software.
Assist in managing systems for the bioinformatics group.
Develop software and modify existing software as needed.
Have deep experience with programming languages.
Vast experience with using databases including relational and NoSQL structures.
JOB QUALIFICATIONS (REQUIRED):
Computer systems administration and programming background.

SKILLS:
Senior Bioinformatics software Engineer (10+ years) with strong background in genomics.
Great communication skills
Experience with building, optimizing, and architecting bioinformatic data pipelines
Experience with administration of Linux systems and software installation.
Strong experience with compiled programming languages (e.g. Java, C++, etc.) and interpreted programming languages (Python, Perl, bash etc.)
Deep knowledge of SQL and NoSQL databases and big data.
Background with genomic cluster e.g. SLURM a plus.
Experience with optimizing a distributed system based on solr a plus.
Working previously in health care related company a plus.
Knowledge of Agile methodology and frameworks like Scrum and Kanban a plus.

BACKGROUND:
Bachelor’s degree and ten (10) years background in bioinformatics software engineering and Linux/Unix Administration"
3,AWS Data Engineer,"Houston, TX 77006",Houston,TX,77006,None Found,"At least 5 years of Consulting or client service delivery experience on Amazon AWS (AWS)At least 5 years of experience in developing data ingestion, data processing and analytical pipelines for big data, relational databases, NoSQL and data warehouse solutionsExtensive experience providing practical direction within the AWS Native and HadoopExperience with private and public cloud architectures, pros/cons, and migration considerations.Minimum of 5 years of hands-on experience in AWS and Big Data technologies such as Java, Node.js, C##, Python, SQL, EC2, S3, Lambda, Spark/SparkSQL, Hive/MR, Pig, Oozie and streaming technologies such as Kafka, Kinesis, NiFI etc.Extensive hands-on experience implementing data migration and data processing using AWS services: VPC/SG, EC2, S3, AutoScaling, CloudFormation, LakeFormation, DMS, Kinesis, Kafka, Nifi, CDC processing Redshift, Snowflake, RDS, Aurora, Neptune, DynamoDB, Hive, NoSQL, Cloudtrail, CloudWatch, Docker, Lambda, Spark,Glue, Sage Maker, AI/ML, API GW, etc.5+ years of hands on experience in programming languages such as Java, c#, node.js, python, pyspark, spark, SQL, Unix shell/Perl scripting etc.Minimum of 5 years of RDBMS experienceExperience in using Hadoop File Formats and compression techniquesExperience working with DevOps tools such as GitLabs, Jenkins, CodeBuild, CoePipeline CodeDeploy, etc.Bachelors or higher degree in Computer Science or a related discipline.","DevOps on an AWS platform. Multi-cloud experience a plus.Experience developing and deploying ETL solutions on AWS using tools like Talend, Informatica, MatillionStrong in Java, C##, Spark, PySpark, Unix shell/Perl scriptingIoT, event-driven, microservices, containers/Kubernetes in the cloud",None Found,None Found," Proven ability to build, manage and foster a team-oriented environment Proven ability to work creatively and analytically in a problem-solving environment Desire to work in an information systems environment Excellent communication (written and oral) and interpersonal skills Excellent leadership and management skills","Are you ready to step up to the New and take your technology expertise to the next level?

Join Accenture and help transform leading organizations and communities around the world. The sheer scale of our capabilities and client engagements, in conjunction with the way we collaborate, operate and deliver value, provides an unparalleled opportunity to grow and advance. Choose Accenture and make delivering innovative work part of your extraordinary career.

People in our Client Delivery & Operations career track drive delivery and capability excellence through the design, development and/ or delivery of a solution, service, capability or offering. They grow into delivery-focused roles, and can progress within their current role, laterally or upward. We partner with our clients to help transform their data into an ‘Appreciating Business Asset.’

As part of our Data Business Group, you will lead technology innovation for our clients through robust delivery of world-class solutions. You will build better software better! There will never be a typical day and that’s why people love it here. The opportunities to make a difference within exciting client initiatives are unlimited in the ever-changing technology landscape. You will be part of a highly collaborative and growing network of technology and data experts, who are taking on today’s biggest, most complex business challenges using the latest data and analytics technologies. We will nurture your talent in an inclusive culture that values diversity. You will have an opportunity to work in roles such as Data Scientist, Data Engineer, or Chief Data Officer covering all aspects of Data including Data Management, Data Governance, Data Intelligence, Knowledge Graphs, and IoT. Come grow your career in Technology at Accenture!

The Amazon AWS Data Engineer is responsible for delivering Data On Cloud projects for Amazon AWS based deals. The ideal candidate would be responsible for developing and delivering AWS cloud solutions to meet today’s high demand in areas such as AIML, IoT, advanced analytics, open source, enterprise collaboration, microservices, serverless, etc. The AWS Data Engineer is a highly performant engineer responsible for delivering Cloud based Big Data and Analytical Solutions at our clients. Responsibilities include building data on cloud solutions at customers, leading Business and IT stakeholders through designing a robust, secure and optimized AWS solutions and ability to be hands-on delivering the target solution. This role will work with customers and leading internal engineering teams in delivering big data soltuions on cloud. Using Amazon AWS public cloud technologies, our AWS Data Engineer professionals implement state of the art, scalable, high performance Data On Cloud solutions that meet the need of today’s corporate and emerging digital applications.

Role & Responsibilities:
Provide subject matter expertise and hands on delivery of data capture, curation and consumption pipelines on AWS and HadoopAbility to build cloud data solutions and provide domain perspective on storage, big data platform services, serverless architectures, hadoop ecosystem, RDBMS, DW/DM, NoSQL databases and security.Participate in deep architectural discussions to build confidence and ensure customer success when building new solutions and migrating existing data applications on the AWS platform.
- Build full technology stack of services required including PaaS (Platform as-a-service), IaaS (Infrastructure as-a-service), SaaS (software as-a-service), operations, management and automation.Apply Accenture methodology, Accenture reusable assets, and previous work experience to delivery consistently high-quality work.Stay educated on new and emerging technologies/patterns/methodologies and market offerings that may be of interest to our clients.Understand the strategic direction set by senior management as it relates to team goals.Use considerable judgment to define solution and seeks guidance on complex problems.Primary upward interaction is with direct supervisor. May interact with peers and/or management levels at a client and/or within Accenture. Establish methods and procedures
on new assignments with guidance.Manage small teams of delivery engineers successfully delivering work efforts (if in an independent contributor role) at a client or within Accenture.Able to travel up to 100% (M-TH)

Basic QualificationsAt least 5 years of Consulting or client service delivery experience on Amazon AWS (AWS)At least 5 years of experience in developing data ingestion, data processing and analytical pipelines for big data, relational databases, NoSQL and data warehouse solutionsExtensive experience providing practical direction within the AWS Native and HadoopExperience with private and public cloud architectures, pros/cons, and migration considerations.Minimum of 5 years of hands-on experience in AWS and Big Data technologies such as Java, Node.js, C##, Python, SQL, EC2, S3, Lambda, Spark/SparkSQL, Hive/MR, Pig, Oozie and streaming technologies such as Kafka, Kinesis, NiFI etc.Extensive hands-on experience implementing data migration and data processing using AWS services: VPC/SG, EC2, S3, AutoScaling, CloudFormation, LakeFormation, DMS, Kinesis, Kafka, Nifi, CDC processing Redshift, Snowflake, RDS, Aurora, Neptune, DynamoDB, Hive, NoSQL, Cloudtrail, CloudWatch, Docker, Lambda, Spark,Glue, Sage Maker, AI/ML, API GW, etc.5+ years of hands on experience in programming languages such as Java, c#, node.js, python, pyspark, spark, SQL, Unix shell/Perl scripting etc.Minimum of 5 years of RDBMS experienceExperience in using Hadoop File Formats and compression techniquesExperience working with DevOps tools such as GitLabs, Jenkins, CodeBuild, CoePipeline CodeDeploy, etc.Bachelors or higher degree in Computer Science or a related discipline.

Candidate Must Have Completed The Following Certifications
§ Certified AWS Developer - Associate
§ Certified AWS DevOps – Professional (Nice to have)
§ Certified AWS Big Data Specialty (Nice to have)

Nice-to-Have Skills/Qualifications:DevOps on an AWS platform. Multi-cloud experience a plus.Experience developing and deploying ETL solutions on AWS using tools like Talend, Informatica, MatillionStrong in Java, C##, Spark, PySpark, Unix shell/Perl scriptingIoT, event-driven, microservices, containers/Kubernetes in the cloud
Experience in Apache Maven a plusUnderstanding and implementation of Data Lake architecturesUnderstanding NoSQL technologies such as MongoDB, Cassandra, Hbase is a plusUnderstanding Solr, Elasticsearch is a plus

Professional Skill Requirements Proven ability to build, manage and foster a team-oriented environment Proven ability to work creatively and analytically in a problem-solving environment Desire to work in an information systems environment Excellent communication (written and oral) and interpersonal skills Excellent leadership and management skills

All of our professionals receive comprehensive training covering business acumen, technical and professional skills development. You'll also have opportunities to hone your functional skills and expertise in an area of specialization. We offer a variety of formal and informal training programs at every level to help you acquire and build specialized skills faster. Learning takes place both on the job and through formal training conducted online, in the classroom, or in collaboration with teammates. The sheer variety of work we do, and the experience it offers, provide an unbeatable platform from which to build a career.

Applicants for employment in the US must have work authorization that does not now or in the future require sponsorship of a visa for employment authorization in the United States and with Accenture (i.e., H1-B visa, F-1 visa (OPT), TN visa or any other non-immigrant status).

Candidates who are currently employed by a client of Accenture or an affiliated Accenture business may not be eligible for consideration.

Accenture is a Federal Contractor and an EEO and Affirmative Action Employer of Females/Minorities/Veterans/Individuals with Disabilities.

Equal Employment Opportunity

All employment decisions shall be made without regard to age, race, creed, color, religion, sex, national origin, ancestry, disability status, veteran status, sexual orientation, gender identity or expression, genetic information, marital status, citizenship status or any other basis as protected by federal, state, or local law.

Job candidates will not be obligated to disclose sealed or expunged records of conviction or arrest as part of the hiring process.

Accenture is committed to providing veteran employment opportunities to our service men and women."
4,2020 University New Hire - Data Engineer,"Houston, TX 77042",Houston,TX,77042,None Found,None Found,None Found,None Found,None Found,None Found,"JOIN US IN PROVIDING ENERGY AND IMPROVING LIVES.

At Phillips 66, we Provide Energy and Improve Lives, guided by our values of Safety, Honor and Commitment. Phillips 66 is dedicated to helping University New Hires make a smooth transition into the professional world. That is why we have developed career-specific programs designed to give you the tools you need to maximize your potential and succeed in your new career.

Information Technology (IT) is a valued business partner inside Phillips 66, driving digital transformation through the use of new technologies and delivery processes to impact the bottom line. By using agile product management and a DevOps approach to delivery, IT at Phillips 66 works directly with the businesses on their highest priorities. We believe in continuous learning and through our Digital University, we commit to making the latest skills training available throughout your career.

As a Phillips 66 IT University New Hire , you will have the unique opportunity to undergo a rigorous and exciting six-week program, Experience 66. The program provides you with a solid foundation to help jump start your career at Phillips 66 before beginning your new role.

Following this program, you will move into the role of Data Engineer New Hire where you will play a key role in contributing to the success of advanced analytics and artificial intelligence projects across the company, by partnering with respective business owners and leveraging data to identify areas of improvement & optimization. The role sits in the sweet spot between technology and business worlds and provides opportunity for high business impact and working with seasoned business leaders. Start your career at our headquarters in Houston, TX.

Responsibilities:
Create systems for storing, extracting, transferring, loading, and modeling big data to be used for both production systems and machine learning projects

Implement data engineering systems in Microsoft Azure, AWS, HANA and other systems, including open source data science tools to meet the needs of our internal customer.

Build end-to-end solutions to solve high value business needs in a sustainable, innovative manner

Engage in constant process improvement, always looking for opportunities to increase efficiency and reduce failures

Requirements for a Phillips 66 Data Engineer University New Hire:

Basic/Required:
Legally authorized to work in the job posting country

Pursuing a Bachelor’s or Master’s degree in Computer Science, Analytics, Data Science, Engineering, Mathematics, or equivalent field of study

Graduating in Winter 2019 or Spring/Summer 2020

Preferred:
A minimum cumulative GPA of 3.0 on a 4.0 scale

Previous internship or co-op participant in related industry

Previous internship with Phillips 66

Phillips 66 SHIELD Scholar recipient

Willing to work in any of our operating locations

Proficiency in R or Python and familiarity with data science packages in that language

Understanding of Computer Science fundamentals in object-oriented design, data structures, algorithm design, cloud technologies and problem solving

Familiarity with Agile Development

To apply and be considered:
You must apply through your university prior to university deadlines (if applicable) AND

Apply online by going to http://www.p66oncampus.jobs and complete the entire application process

Attach an electronic copy of your resume and unofficial transcript

Answer all prescreening questions and provide your eSignature

Candidates for regular U.S. positions must be a U.S. citizen or national, or an alien admitted as permanent resident, refugee, asylee or temporary resident under 8 U.S.C. 1160(a)(1). Individuals with temporary visas such as E, F-1, H-1, H-2, L, B, J, or TN or who need sponsorship for work authorization now or in the future, are not eligible for hire.

About Phillips 66

Phillips 66 is a diversified energy manufacturing and logistics company. With a portfolio of Midstream, Chemicals, Refining, and Marketing and Specialties businesses, the company processes, transports, stores and markets fuels and products globally. Phillips 66 Partners, the company’s master limited partnership, is integral to the portfolio. Headquartered in Houston, the company has 14,300 employees committed to safety and operating excellence. Phillips 66 had $58 billion of assets as of March 31, 2019. For more information, visit http://www.phillips66.com/ or follow us on Twitter @Phillips66Co and @P66oncampus.

Phillips 66 is an EEO and Affirmative Action Employer of Females/Minorities/Veterans/Individuals with Disabilities

Requisition ID: 51351

Location: Texas - Houston

Job Field: Internships, Graduate Positions, and Student Programs"
5,Data Engineer,"Houston, TX 77072",Houston,TX,77072,None Found,None Found,None Found,"Enhance and further develop Big Data processing pipelines for data sources containing structured and unstructured data
Data Warehousing with Data modeler experience
Monitor and optimize key infrastructure components such as Databases, EC2 Clusters, and other aspects of the stack
Help promote best practices for Big Data development
Act as a bridge between the infrastructure and application engineering teams
Provide infrastructure support with a focus on cloud based computing
Build and support visualization and exploration capabilities around our Data Sets
Work with the Data Extraction and Data Science engineers on normalization and analytical processes
Work in an Agile manner with business users and data scientists to understand and discover the potential business value of new and existing Data Sets and help productize those discoveries
Help design and implement disaster recovery efforts
Analyze requirements and architecture specifications to create detailed design
Research areas of interest to the team and help facilitate solutions
Design Cloud Architecture, SaaS, PaaS, and SaaS
",None Found,None Found,"Tailored Brands, Inc.’s purpose is to help our customers love how they look. We accomplish this by providing a personal, convenient, one-of-a-kind shopping experience with compelling products and world-class service. We help fulfill this mission by providing our employees with an engaging and inclusive workplace focused on teamwork, growth and respect.


Tailored Brands currently has an exciting opportunity to join our engineering team consisting of developers from a wide array of backgrounds. Our data team primarily focuses on Java, SQL and Python. Our team is a tight knit, friendly group of engineers that are dedicated to learning from and teaching to each other. Team members regularly contribute to and optimize our engineering practices and processes.


Key Responsibilities:
Enhance and further develop Big Data processing pipelines for data sources containing structured and unstructured data
Data Warehousing with Data modeler experience
Monitor and optimize key infrastructure components such as Databases, EC2 Clusters, and other aspects of the stack
Help promote best practices for Big Data development
Act as a bridge between the infrastructure and application engineering teams
Provide infrastructure support with a focus on cloud based computing
Build and support visualization and exploration capabilities around our Data Sets
Work with the Data Extraction and Data Science engineers on normalization and analytical processes
Work in an Agile manner with business users and data scientists to understand and discover the potential business value of new and existing Data Sets and help productize those discoveries
Help design and implement disaster recovery efforts
Analyze requirements and architecture specifications to create detailed design
Research areas of interest to the team and help facilitate solutions
Design Cloud Architecture, SaaS, PaaS, and SaaS

Required Experience:
Bachelor’s degree in Computer Science or Information Systems required; Masters preferred
3-5 years minimum retail work experience (preferred) with:
Production deployments
Traditional ETL, SQL and RDBMS: Oracle, MSSQL, MySQL, DataStage, and Talend
Object Oriented programming languages development (Java/Python preferred) as well as SQL and Unix Shell scripting
Modern data technical stack experience such as: Hadoop, Hive, Pig, Sqoop, Flume, MapReduce, Spark, Storm, Apex, Kafka, NiFi, HBase, and MongoDB
Knowledge and experience with:
Datalakes design, Teradata and/or Snowflake (preferred)
Nice to have AWS and Azure Cloud
BigData technologies and techniques, NoSQL systems (Hortonworks/Hadoop Ecosystem, Cassandra, Couchbase)


Required Experience, continued:
Exposure working with:
Rest/SOAP clients
Relational and Non-relational Data Modeling
Data Warehousing concepts
Familiarity with:
Git/SVN
UC4 and BMC Control-M
Jboss/JavaEE
Object Oriented Design Patterns
Serialization technologies such as Apache Avro
MicroStrategy and Tableau Data Visualization concepts
#LI-JE1
Work Environment, Physical & Mental Demands
Ability to sit and work at a computer keyboard for extended periods of time
Ability to stoop, kneel, bend at the waist, and reach on a daily basis
Able to lift and move up to 25 pounds occasionally
Must utilize visual acuity, speech and hearing, hand and eye coordination and manual dexterity necessary to operate a computer and office equipment
Hours may exceed 40 hours per week+

Note: To perform this job successfully, an individual must be able to perform each essential duty satisfactorily. The requirements listed are representative of the knowledge, skill, and/or ability required and is not intended to be an exhaustive list of all duties, responsibilities or qualifications associated with this job.



Work Locations: 01099I IT Dept. 6380 Rogerdale Rd Houston 77072
Job: Information Technology (IT)
Organization: Tailored Shared Services
Shift: Day Job"
6,"Data Engineer, Energy Platform - Houston, TX","Houston, TX",Houston,TX,None Found,None Found,None Found,None Found,None Found,None Found,"Legal authorization to work in the US on a full-time basis for anyone other than current employer
Bachelor's degree in a relevant technical discipline.
5+ years of experience with demonstrable proficiency in one or more DB and data pipeline tooling: mySQL, PostgreSQL, OSI Pi historian, TimescaleDB, Streamsets, Apache Drill, Apache Parquet, Dremio …
You are passionate about building scalable, high performing, data pipelines, and analytic catalogs.
Experience with object-oriented/object function scripting languages: Python, Java, C++, Scala, etc
Proficient with Containerized environments and workloads
Excellent analytical, problem-solving, and troubleshooting skills.
Experience architecting, deploying, and supporting production applications.
You care deeply about performance, accessibility and API design.
Great communication skills.
Work locations may include Houston, TX or San Francisco, CA","Job Description
If you want to bring your technical expertise, ‘challenge-accepted!’ mentality and passion for building amazing products with real-world impact for hundreds of millions of people come join our group! We have been looking for you! We have an amazing team with deep backgrounds across technology and energy.

Shell New Energies

Shell is leading the transition towards a low-carbon future. We aim to cut the net carbon footprint of our energy products in half by 2050. Our New Energies business, set up in 2016, supports this ambition. New Energies is an emerging opportunity, in which we plan to invest on average $1-2 billion a year until 2020 as we look for commercial investments in new and fast-growing segments of the energy industry.

Shell New Energies focuses on two areas: new fuels and power. New Fuels consists of investments in hydrogen, biofuels, and electric vehicle charging. In Power, we are building up positions across the full electricity value chain, including in renewable generation, retail energy, distributed energy resources, power trading and marketing, and grid services. Within these focus areas, we look for ways to connect customers with new business models for mobility and energy services, enabled by digital technologies and decentralization of energy systems. Development of our IoT platform for Shell New Energy will be paramount in achieving these goals.

Energy Platform Team

The Energy Platform team is a nimble, cross-functional, deeply technical and passionate group that embodies the speed and agility of a startup while embracing the scale of one of the largest companies in the world. Achieving a balance between agility and global scale provides unique opportunities, and the Energy Platform Team borrows from best-in-class product development, continuous delivery, and commercialization techniques while adapting them to the unique global context within Shell.

The Energy Platform team is empowered to coordinate and align Shell’s energy management platform objectives, strategies, and execution approaches across the company, as well as to design, deliver and maintain a mission-critical component of Shell’s ability to deliver differentiated products, offerings,and capabilities across its expanding global footprint.

We are looking for a Data Engineer with the ability to bring their expertise and excitement for solving complex problems while building one of the largest IoT platforms in the world. There will be no shortage of opportunities to lead, eat, drink, and be merry with the most dynamic team ever assembled in the energy industry.

Build, on a daily basis, real-time and big data processing pipelines, optimizing for scalability and performance, under multiple datastore concepts (Relational, NoSQL, Graph).
Proficient in building large scale ETL jobs, leveraging big data infrastructure (Hadoop, Spark, Kafka) and modern container orchestration environments (Kubernetes).
Comfortable working in a fast-paced environment building, running, testing and shipping data pipelines to serve ML/AI workloads under a common API.
Willing to work with a cross-functional team of market analysts, data scientists & software developers to translate their data needs into features inside the Energy Platform.
Create data tooling that assists data scientists and analysts in building low latency, scalable and resilient pipelines for machine learning and optimization workloads.
Enthusiast of data quality, lifecycle and provenance management, helping establish a DataOps centric culture within Engineering teams.
Advanced working knowledge of query authoring and tooling for cross source data aggregation: APIs, 3rd party DB, Object Storages, messaging bus.
You have a proven history of working on large scale ETL jobs for data wrangling and cleansing of IoT time-series & telemetry data, as well as IIoT unstructured datasets, focusing on serving machine learning orchestrations.
You have experience with Analytical Expression Compiling languages, for runtime analytics during SQL querying.
Requirements
Legal authorization to work in the US on a full-time basis for anyone other than current employer
Bachelor's degree in a relevant technical discipline.
5+ years of experience with demonstrable proficiency in one or more DB and data pipeline tooling: mySQL, PostgreSQL, OSI Pi historian, TimescaleDB, Streamsets, Apache Drill, Apache Parquet, Dremio …
You are passionate about building scalable, high performing, data pipelines, and analytic catalogs.
Experience with object-oriented/object function scripting languages: Python, Java, C++, Scala, etc
Proficient with Containerized environments and workloads
Excellent analytical, problem-solving, and troubleshooting skills.
Experience architecting, deploying, and supporting production applications.
You care deeply about performance, accessibility and API design.
Great communication skills.
Work locations may include Houston, TX or San Francisco, CA
Company Description
Shell is a global group of energy and petrochemical companies with about 84,000 employees across more than 70 countries. We aim to meet the world’s growing need for more and cleaner energy solutions in ways that are economically, environmentally and socially responsible. We have expertise in exploration, production, refining and marketing of oil and natural gas, and the manufacturing and marketing of chemicals. As a global energy company operating in a challenging world, we set high standards of performance and ethical behaviors. We are judged by how we act and how we live up to our core values of honesty, integrity and respect for people. Our Business Principles are based on these. They promote trust, openness, teamwork and professionalism, as well as pride in what we do and how we conduct business.Building on our core values, we aspire to sustain a diverse and inclusive culture where everyone feels respected and valued, from our employees to our customers and partners. A diverse workforce and an inclusive work environment are vital to our success, leading to greater innovation and better energy solutions.
Disclaimer
Please note: We occasionally amend or withdraw Shell jobs and reserve the right to do so at any time, including prior to the advertised closing date.

Before applying, you are advised to read our data protection policy. This policy describes the processing that may be associated with your personal data and informs you that your personal data may be transferred to Royal Dutch/Shell Group companies around the world.

The Shell Group and its approved recruitment consultants will never ask you for a fee to process or consider your application for a career with Shell. Anyone who demands such a fee is not an authorised Shell representative and you are strongly advised to refuse any such demand.

Shell participates in E-Verify.

All qualified applicants will receive consideration for employment without regard to race, color, sex, national origin, age, religion, disability, sexual orientation, gender identity, protected veteran status, citizenship, genetic information or other protected status under federal, state or local laws.

Shell is an Equal Opportunity Employer - Minorities/Females/Veterans/Disability.
Employment TypeFull Time
Skillpool
IT Data and Analytics, Information
Work LocationHouston
No. of Positions
1
Job Expires01-Nov-2019"
7,Data Engineer,"Houston, TX",Houston,TX,None Found,None Found,None Found,"
3+ years experience in data/software engineering or related field
Fluency in Python and SQL, experience with Golang, C, C++, Java, or Scala is a plus
Demonstrated experience with distributed computing (Kafka, Storm, Spark, Hadoop, etc.)
Experience with NoSQL databases
Proficiency in using and managing cloud infrastructure, preferably AWS
Linux and Bash competence
Experience integrating with Salesforce a plus","
Establish and maintain best practices for our data infrastructure
Develop next-gen data pipelining and ETL based on open source data pipeline tools and cloud-based ecosystems that can deal with varied data types from disparate sources
Develop and tune data storage and processing systems at scale
Build real-time data processing systems
Build automated systems to continually monitor data quality and integrity
Work closely with stakeholders across Vroom to ensure data is accurate, timely, and useful",None Found,None Found,"Vroom.com is a venture-backed, fast-growing start-up focused on revolutionizing the car buying experience. Our approach is unique in that we recondition pre-owned vehicles to a high standard, sell online, and deliver anywhere across the US. We have experienced tremendous growth in our first 5 years of operation and have become a disruptive force in the automotive industry. Vroom is an exciting, accelerating workplace, and there's no better time to join the team than right now.

We are building a team of experienced Data Engineers to ensure that our data infrastructure supports and helps drive the dramatic growth that we expect! We're looking for an exceptional data engineer to help us organize, test, and operationalize our data. Our business depends on putting the right data in front of the right people at the right time. As a Data Engineer in this dynamic environment, you will be instrumental in pulling data from multiple sources, performing extensive analysis, and applying a variety of data science models to provide our internal customers with recommendations and feedback.
Responsibilities
Establish and maintain best practices for our data infrastructure
Develop next-gen data pipelining and ETL based on open source data pipeline tools and cloud-based ecosystems that can deal with varied data types from disparate sources
Develop and tune data storage and processing systems at scale
Build real-time data processing systems
Build automated systems to continually monitor data quality and integrity
Work closely with stakeholders across Vroom to ensure data is accurate, timely, and useful
Skills
3+ years experience in data/software engineering or related field
Fluency in Python and SQL, experience with Golang, C, C++, Java, or Scala is a plus
Demonstrated experience with distributed computing (Kafka, Storm, Spark, Hadoop, etc.)
Experience with NoSQL databases
Proficiency in using and managing cloud infrastructure, preferably AWS
Linux and Bash competence
Experience integrating with Salesforce a plus
Benefits

This full-time role offers competitive compensation; health, dental, and vision insurance through United Healthcare; a 401k plan; fully company-paid short term disability, long term disability, and life insurance; access to a healthcare concierge service with virtual visits; and 15 annualized days of paid vacation.

But our biggest benefit is being part of a low-ego, high performing team that's transforming the used car market into a modern, online and data-driven industry. We are looking for people who want to be a part of a contemporary startup culture. What gets us out of bed is working with talented people on a mission that matters.

To Apply

If you think you might be who we’re looking for, apply below with your resume and a cover letter telling us why you think you’d be a great addition to the team."
8,Manager Azure Data Engineer,"Houston, TX",Houston,TX,None Found,None Found,None Found,None Found,"
Lead, design, develop, and deliver large-scale Azure data systems, data processing, and data transformation projects.
Execute technical feasibility assessments and project estimates for moving databases and data processing to Azure.
Design and advocate solutions using modern cloud technologies, design principles, integration points, and automation methods.
Mentor and share knowledge with customers as well as provide architecture reviews, discussions, and prototypes.
Participate in overall engagement from strategy, assessment, migration, and implementations.
Work with customers to deploy, manage, and audit best practices for cloud products.","
5 to 10 years of professional experience in the information technology industry.
BS in Computer Science or equivalent education/professional experience is required.","
Demonstrated experience designing, implementing, and supporting enterprise-grade technical solutions in the cloud for meeting complex business data requirements.
Experience with Databricks and using Spark for data processing.
Experience with Azure Data Factory – ADF.
Advanced experience with different query languages (i.e. T-SQL, PostgreSQL, PL-SQL).
Experience designing and building data marts, warehouses, customer profile databases, etc.
Experience with data modeling, table design, and mapping business needs to data structures.
Experience with Azure Data Lake, Azure SQL Data Warehouse, and Cosmos DB are a plus.
Experience with Data Management Gateway, Azure Storage Options, Stream Analytics, and Event Hubs is a plus.
Experience with other cloud based big data architectures is a plus.","This position is for a Senior Azure Data Engineer within our North American team who will be designing and implementing Azure data projects for our clients. This qualified individual will work closely with clients to ensure that data technologies meet their needs and keep pace with the rapid changes in Publicis Sapient’s operations and policies/procedures.

Responsibilities:
Lead, design, develop, and deliver large-scale Azure data systems, data processing, and data transformation projects.
Execute technical feasibility assessments and project estimates for moving databases and data processing to Azure.
Design and advocate solutions using modern cloud technologies, design principles, integration points, and automation methods.
Mentor and share knowledge with customers as well as provide architecture reviews, discussions, and prototypes.
Participate in overall engagement from strategy, assessment, migration, and implementations.
Work with customers to deploy, manage, and audit best practices for cloud products.
Requirements:
Demonstrated experience designing, implementing, and supporting enterprise-grade technical solutions in the cloud for meeting complex business data requirements.
Experience with Databricks and using Spark for data processing.
Experience with Azure Data Factory – ADF.
Advanced experience with different query languages (i.e. T-SQL, PostgreSQL, PL-SQL).
Experience designing and building data marts, warehouses, customer profile databases, etc.
Experience with data modeling, table design, and mapping business needs to data structures.
Experience with Azure Data Lake, Azure SQL Data Warehouse, and Cosmos DB are a plus.
Experience with Data Management Gateway, Azure Storage Options, Stream Analytics, and Event Hubs is a plus.
Experience with other cloud based big data architectures is a plus.
Experience/Education:
5 to 10 years of professional experience in the information technology industry.
BS in Computer Science or equivalent education/professional experience is required.
Personal Attributes:
Strong and innovative approach to problem solving and finding solutions.
Excellent communicator (written and verbal, formal, and informal).
Flexible and proactive/self-motivated working style with strong personal ownership.
Ability to multi-task and prioritize under pressure.
Ability to work independently with minimal supervision as well as in a team environment.
Flexibility and mobility is required to deliver this role as there may be requirements to spend time onsite with our clients to enable delivery of the first class services we pride ourselves in."
9,Azure Data Architect,"Houston, TX 77006",Houston,TX,77006,None Found,"At least 5 years of consulting or client service delivery experience on Azure
",DevOps on an Azure platform,None Found,None Found," Proven ability to build, manage and foster a team-oriented environment
","Are you ready to step up to the New and take your technology expertise to the next level?
Join Accenture and help transform leading organizations and communities around the world. The sheer scale of our capabilities and client engagements, in conjunction with the way we collaborate, operate and deliver value, provides an unparalleled opportunity to grow and advance. Choose Accenture and make delivering innovative work part of your extraordinary career.
People in our Client Delivery & Operations career track drive delivery and capability excellence through the design, development and/ or delivery of a solution, service, capability or offering. They grow into delivery-focused roles, and can progress within their current role, laterally or upward. We partner with our clients to help transform their data into an ‘Appreciating Business Asset.’

As part of our Data Business Group, you will lead technology innovation for our clients through robust delivery of world-class solutions. You will build better software better! There will never be a typical day and that’s why people love it here. The opportunities to make a difference within exciting client initiatives are unlimited in the ever-changing technology landscape. You will be part of a highly collaborative and growing network of technology and data experts, who are taking on today’s biggest, most complex business challenges using the latest data and analytics technologies. We will nurture your talent in an inclusive culture that values diversity. You will have an opportunity to work in roles such as Data Scientist, Data Engineer, or Chief Data Officer covering all aspects of Data including Data Management, Data Governance, Data Intelligence, Knowledge Graphs, and IoT. Come grow your career in Technology at Accenture!

The Azure Technical Architect Delivery is responsible for delivering Data On Cloud projects for Azure based deals. The ideal candidate would also be responsible for developing and delivering Azure cloud solutions to meet todays high demand in areas such as AIML, IoT, advanced analytics, open source, enterprise collaboration, microservices, serverless, etc. The Regional Azure Technical Architect is a highly performant Azure Architect responsible for delivering Cloud based Big Data and Analytical Solutions to our clients. Responsibilities include evangelizing data on cloud solutions with customers, leading Business and IT stakeholders through designing a robust, secure and optimized Azure architectures and ability to be hands-on delivering the target solution. This role will work with customers and leading internal data engineers in delivering big data solutions on cloud. Using Azure public cloud technologies, our Technical Architect professionals implement state of the art, scalable, high performance Data On Cloud solutions that meet the need of today's corporate and emerging digital applications.

Role & Responsibilities:Work with Sales and Bus Dev teams in providing Azure Technical Architecture expertise while pursuing client opportunities.Ability to build cloud architectures and provide prescriptive guidance across network, storage, Big Data Platform Services, serverless architectures, hadoop ecosystem, vendor products, RDBMS & NoSQL databases and security.Participate in deep architectural discussions to build confidence and ensure customer success when building new solutions and migrating existing data applications on the Azure platform.Conduct full technical discovery, identifying pain points, business and technical requirements, “as is” and “to be” scenarios.
- Assess the full technology stack of services required including PaaS (Platform as-a-service), IaaS (Infrastructure as-a-service), SaaS (software as-a-service), operations, management and automation.Lead the discussions and early analysis of the cloud concepts as it relates to Clients’s Journey to Cloud methodology so that clear use cases are developed and prioritized as well as transitioning these concepts from ideas to proof-of-concepts all the way to production delivery with the full support of the appropriate teams.Compare solution alternatives across both technical and business parameters which support the define cost and service requirements.Apply Accenture methodology, Accenture reusable assets, and previous work experience to delivery consistently high-quality work.Stay educated on new and emerging technologies/patterns/methodologies and market offerings that may be of interest to our clients.Adapt to existing methods and procedures to create possible alternative solutions to moderately complex problems.Understand the strategic direction set by senior management as it relates to team goals.Use considerable judgment to define solution and seeks guidance on complex problems.Prepare and deliver product messaging in an effort to highlight value proposition and unique differentiators.Primary upward interaction is with direct supervisor. May interact with peers and/or management levels at a client and/or within Accenture. Establish methods and procedures
on new assignments with guidance.
Manage small teams of deliver engineers successfully delivering work efforts (if in an independent contributor role) at a client or within Accenture.
Extensive travel may be required

Qualifications
Basic Qualifications
At least 5 years of consulting or client service delivery experience on Azure
At least 10 years of experience in big data, database and data warehouse architecture and delivery
Minimum of 5 years of professional experience in 2 of the following areas:
§ Solution/technical architecture in the cloud
§ Big Data/analytics/information analysis/database management in the cloud
§ IoT/event-driven/microservices in the cloud
Experience with private and public cloud architectures, pros/cons, and migration considerations.
Extensive hands-on experience implementing data migration and data processing using Azure services: Networking, Windows/Linux virtual machines, Container, Storage, ELB, AutoScaling, Azure Functions, Serverless Architecture, ARM Templates, Azure SQL DB/DW, Data Factory, Azure Stream Analytics, Azure Analysis Service, HDInsight, Databricks Azure Data Catalog, Cosmo Db, ML Studio, AI/ML, etc.
 Cloud migration methodologies and processes including tools like Azure Data Factory, Event Hub, etc.
 - Familiarity with the Technology stack available in the industry for data management, data ingestion, capture, processing and curation: Kafka, StreamSets, Attunity, GoldenGate, Map Reduce, Hadoop, Hive, Hbase, Cassandra, Spark, Flume, Hive, Impala, etc.
Bachelors or higher degree in Computer Science or a related discipline.

Candidate Must Have Completed The Following Certifications
MCSA Cloud Platform (Azure) Training & Certification
MCSE Cloud Platform & Infratsructiure Training & Certification
MCSD Azure Solutions Architect Training & Certification

Nice-to-Have Skills/Qualifications:
DevOps on an Azure platform
Experience developing and deploying ETL solutions on Azure
Strong in Power BI, Java, C##, Spark, PySpark, Unix shell/Perl scripting
Familiarity with the technology stack available in the industry for metadata management: Data Governance, Data Quality, MDM, Lineage, Data Catalog etc.
- Multi-cloud experience a plus - Azure, AWS, Google

Professional Skill Requirements
 Proven ability to build, manage and foster a team-oriented environment
 Proven ability to work creatively and analytically in a problem-solving environment
 Desire to work in an information systems environment
 Excellent communication (written and oral) and interpersonal skills
 Excellent leadership and management skills
 Excellent organizational, multi-tasking, and time-management skills
 Proven ability to work independently

All of our professionals receive comprehensive training covering business acumen, technical and professional skills development. You'll also have opportunities to hone your functional skills and expertise in an area of specialization. We offer a variety of formal and informal training programs at every level to help you acquire and build specialized skills faster. Learning takes place both on the job and through formal training conducted online, in the classroom, or in collaboration with teammates. The sheer variety of work we do, and the experience it offers, provide an unbeatable platform from which to build a career.

Applicants for employment in the US must have work authorization that does not now or in the future require sponsorship of a visa for employment authorization in the United States and with Accenture (i.e., H1-B visa, F-1 visa (OPT), TN visa or any other non-immigrant status).

Candidates who are currently employed by a client of Accenture or an affiliated Accenture business may not be eligible for consideration.

Accenture is a Federal Contractor and an EEO and Affirmative Action Employer of Females/Minorities/Veterans/Individuals with Disabilities.

Equal Employment Opportunity

All employment decisions shall be made without regard to age, race, creed, color, religion, sex, national origin, ancestry, disability status, veteran status, sexual orientation, gender identity or expression, genetic information, marital status, citizenship status or any other basis as protected by federal, state, or local law.

Job candidates will not be obligated to disclose sealed or expunged records of conviction or arrest as part of the hiring process.

Accenture is committed to providing veteran employment opportunities to our service men and women."
10,Data Engineer M/F - Houston Office,"Houston, TX",Houston,TX,None Found,None Found,None Found,None Found,None Found,None Found,None Found,"Passionate about tech? Interested in Energy? Come work for Kayrros, a fast-growing start-up using artificial intelligence to transform the world’s biggest industry.

Kayrros is headquartered in Paris, with offices in New York, Houston, London, and Singapore. By working for Kayrros, you will join an energetic team of 150 people, with diverse professional backgrounds—from data science and petroleum engineering to sales and marketing—and over 15 different nationalities and 10 spoken languages.

Our team of energy experts and tech wizards are working to bring transparency to the global energy market. We employ innovative technologies, like satellite imagery processing and artificial intelligence, to capture and analyse data across the energy sector. Combined with our expert analysis, we give our clients valuable information on global market movements to make better business decisions—whether that’s trading, investing or managing their operations.

In September 2018, Kayrros received €21M in Serie B funding to continue breaking the boundaries of the energy market.

We are currently recruiting for our Houston office,

a Data Engineer M/F

Data Engineers play a central role in Kayrros. Working hand in hand with Data Scientists and Analysts they gather and process raw data at scale and work closely with Software Engineers to integrate innovations and algorithms into our production system.

As a data engineer, you will therefore have to:

Architect, build and test industry-grade geospatial data pipelines leveraging Kayrros existing technologies.

Work collaboratively with data scientists and software engineers to deploy data science models at scale in a production environment.

As the first Data Engineer of the Houston office, be able to work autonomously with the remote support of the Paris headquarter infrastructure and data teams.

Provide technical support to Data Scientists during exploratory analysis

Evaluate performance and optimize all parts of the stack

Continuously provide ideas to improve products

Work in a creative, fast-pace environment.
Technology stack


Languages: mainly Python (pypark, airflow). Knowledge in Java and/or C is a plus.

Tools : Message brokers (RabbitMQ, Kafka), machine learning packages (Sci-kit learn, Pandas), tests

(Unittest...)

Stack data: Hadoop (Apache Spark, Hbase...), Elasticsearch

Infrastructure : Docker, Rancher, AWS S3/OpenIO, GitlabProfile

Profile
Minimum three years of industry experience building successful data pipelines at scale with an emphasis on software engineering, software architecture, code quality, best practices
Bachelor's or Masters in Math, Engineering, Computer Science, or other quantitative field preferred.
Strong Python 3 skills to write reusable, testable and efficient code and coach others in doing so.
Experience with some of the following components: Spark, Docker, Elasticsearch, Pandas, Scikit-learn is a must.
Experience with geospatial and geolocation data is a plus.
Ability to work in a fast-paced environment
Please note that we do not sponsor US visa."
11,Lead Data Engineer,"Houston, TX",Houston,TX,None Found,None Found,None Found,None Found,None Found,None Found,None Found,"You are curious, persistent, logical and clever a true techie at heart. You enjoy living by the code of your craft and developing elegant solutions for complex problems. If this sounds like you, this could be the perfect opportunity to join EPAM as a Lead Data Enigneer. Scroll down to learn more about the position’s responsibilities and requirements.
What You’ll Do
Architecture design of holistic Cloud data ecosystem with a focus on Google Cloud Platform capabilities and features
Architecture design of Production, Staging/QA, and Development infrastructures running is 24/7 environments
Robust and consistent Cloud Strategy design aligned with business objectives
Provide guidelines for data migration approaches and techniques including ingest, store, process, analyze and explore/visualize data
Assistance with data migration and transformation
Evangelize Cloud computing expertise internally and externally to drive Cloud Adoption
What You Have
A degree in an associated field and/or other advanced certification along with significant experience
In-depth cloud professional, competent of quickly establishing connections and credibility in how to address the business needs via design and operate cloud-based solutions
Experience in Agile or PMI methodology managed projects
Experience in enterprise applications, and big data solutions
Experience in platform and cloud migrations, including migration factory
In-depth experience with databases and tools analysis
In-depth experience with ETL tools
Processes design and development for the data modeling, mining, and analysis
Extensive experience in methodologies and processes for large-scale databases management on-premises and cloud environment
In-depth understanding and knowledge of distributed version control systems like Git
Strong understanding of concepts and experience with StackDriver and other cloud-based monitoring tools including application level and logging
Nice to have
Google Cloud Certified Professional Data Engineer
Experience Creating automated tooling for cloud platforms
Experience with architecting and handling large datasets, structured and semi-structured data formats
Experience with streaming processing
Experience with messaging platforms
Experience with performance testing and tuning
Experience with GCP based security hardening including IAM, ACL, firewall rules, data traffic encryption
What We Offer
Medical, Dental and Vision Insurance (Subsidized)
Health Savings Account
Flexible Spending Accounts (Healthcare, Dependent Care, Commuter)
Short-Term and Long-Term Disability (Company Provided)
Life and AD&D Insurance (Company Provided)
Employee Assistance Program
Unlimited access to LinkedIn learning solutions
Matched 401(k) Retirement Savings Plan
Paid Time Off
Legal Plan and Identity Theft Protection
Accident Insurance
Employee Discounts
Pet Insurance"
12,Big Data Engineer,"Houston, TX",Houston,TX,None Found,None Found,None Found,None Found,None Found,None Found,None Found,"Equal Opportunity Employer: Minority/Female/Disability/Veteran
WM Logistics, LLC seeks a Big Data Engineer at our facility in Houston, Texas to create software solutions focused on large scale data analytics leveraging big data tools & technology. Position requires Bachelor’s Degree in Computer Science, Electrical Engineering, MIS, or related field. Must have 10 years of previous experience related to software development, software engineering, coding, and working with enterprise data warehouse databases, large databases or big data solutions and technologies. Must have experience with software development project life cycles, experience with large or enterprise databases, and SQL programming. Must also have experience with JavaScript, Angular, HTML 5, or jQuery. Must have experience using Amazon web services, Scala, and Oracle. Job location: Houston, TX. To apply, go to www.wm.com
I understand that applying to this job indicates that I have the legal right to work in the United States. I agree to perform physical duties of this position as outlined in the job with or without reasonable accommodations. I understand that if offered the position, I will be required to pass a drug screen."
13,"Data Strategy Specialist - Business & Data Analysis, Cloud, AWS, Azure, Big Data","Houston, TX 77006",Houston,TX,77006,None Found,None Found, 3+ years with business responsibilities (Business Analyst or Project Lead) of data and analytics solutions spanning:,None Found,None Found,None Found,"Are you ready to step up to the New and take your technology expertise to the next level?

Join Accenture and help transform leading organizations and communities around the world. The sheer scale of our capabilities and client engagements, in conjunction with the way we collaborate, operate and deliver value, provides an unparalleled opportunity to grow and advance. Choose Accenture and make delivering innovative work part of your extraordinary career.

People in our Client Delivery & Operations career track drive delivery and capability excellence through the design, development and/ or delivery of a solution, service, capability or offering. They grow into delivery-focused roles, and can progress within their current role, laterally or upward. We partner with our clients to help transform their data into an ‘Appreciating Business Asset.’

As part of our Data Business Group, you will lead technology innovation for our clients through robust delivery of world-class solutions. You will build better software better! There will never be a typical day and that’s why people love it here. The opportunities to make a difference within exciting client initiatives are unlimited in the ever-changing technology landscape. You will be part of a highly collaborative and growing network of technology and data experts, who are taking on today’s biggest, most complex business challenges using the latest data and analytics technologies. We will nurture your talent in an inclusive culture that values diversity. You will have an opportunity to work in roles such as Data Scientist, Data Engineer, or Chief Data Officer covering all aspects of Data including Data Management, Data Governance, Data Intelligence, Knowledge Graphs, and IoT. Come grow your career in Technology at Accenture!

The North America Data Strategy & Architecture capability is part of the Data Business Group (DBG) within Accenture Technology. This team provides advisory services to clients that create an architecture blueprint and an execution roadmap to rotate to “Data in the New” and become intelligent data driven enterprises.

 Connect business vision and current state problems with data, analytics and technology solutions and architectural patterns Interview business stakeholders to understand their vision and challenges Understand and document current state pain points including limitations caused by existing data, analytics and technology gaps Identify and detail business ‘use cases’, or ways that stakeholders would like to drive business value (e.g. increase revenue, decrease expenses, increase efficiency) through data and analytics Aggregate use cases into business consumption patterns detailing the data and technology designs that would support the execution of multiple use cases Ensure alignment between the client’s business needs of the future state with data and technology architecture, operating model and governance recommendations Synthesize business needs with enabling target state recommendations into a vision that client executives, department heads, business and technical resources can understand and align around Develop an execution roadmap detailing a strategic journey from current state to realization of the future state vision with incremental release of technical and operational features and business value Analyze business case for execution against the strategy, including the collection of business case inputs (costs, value drivers) as well as the calculation of return on investment Present data strategy to clients and gain buy in Participate in defining data governance strategy and operating model

Required Skills 3+ years with business responsibilities (Business Analyst or Project Lead) of data and analytics solutions spanning:
o Data Management solutions with capabilities, such as Data Ingestion, Data Curation, Metadata and Catalog, Data Security, Data Modeling, Data Wrangling
o Data Warehousing / BI / Reporting solutions that generate business value using platforms and technologies such as Hadoop, Teradata, Netezza, Greenplum, MapReduce, Spark, etc.
o Data Science, AI / ML, Advanced Analytic solutions that meet business problems 3+ years of consulting experience, interviewing business stakeholders and developing relationships within client organizations Strong communication, presentation, written and facilitation skills Superior critical thinking, analytical and problem-solving skills Ability to interface with client at any level, executive to engineer Competent in leveraging Microsoft Office tools, specifically PowerPoint, Word, and Excel
 Able to travel up to 100% (Mon-Thu)

Optional Skills (Plus): Industry knowledge in Life Sciences, Financial Services or Healthcare Experience in data governance and operating model
 Experience in compiling business cases and roadmaps for data, analytics and technology investments

All of our professionals receive comprehensive training covering business acumen, technical and professional skills development. You'll also have opportunities to hone your functional skills and expertise in an area of specialization. We offer a variety of formal and informal training programs at every level to help you acquire and build specialized skills faster. Learning takes place both on the job and through formal training conducted online, in the classroom, or in collaboration with teammates. The sheer variety of work we do, and the experience it offers, provide an unbeatable platform from which to build a career.

Applicants for employment in the US must have work authorization that does not now or in the future require sponsorship of a visa for employment authorization in the United States and with Accenture (i.e., H1-B visa, F-1 visa (OPT), TN visa or any other non-immigrant status).

Candidates who are currently employed by a client of Accenture or an affiliated Accenture business may not be eligible for consideration.

Accenture is a Federal Contractor and an EEO and Affirmative Action Employer of Females/Minorities/Veterans/Individuals with Disabilities.

Equal Employment Opportunity

All employment decisions shall be made without regard to age, race, creed, color, religion, sex, national origin, ancestry, disability status, veteran status, sexual orientation, gender identity or expression, genetic information, marital status, citizenship status or any other basis as protected by federal, state, or local law.

Job candidates will not be obligated to disclose sealed or expunged records of conviction or arrest as part of the hiring process.

Accenture is committed to providing veteran employment opportunities to our service men and women."
14,Google Data Engineer,"Houston, TX 77006",Houston,TX,77006,None Found,"Minimum of 3 years previous Consulting or client service delivery experience on Google GCP
",DevOps on an GCP platform. Multi-cloud experience a plus.,None Found,None Found,"Proven ability to build, manage and foster a team-oriented environment
Proven ability to work creatively and analytically in a problem-solving environment
Desire to work in an information systems environment
Excellent communication (written and oral) and interpersonal skills
Excellent leadership and management skills","Are you ready to step up to the New and take your technology expertise to the next level?
Join Accenture and help transform leading organizations and communities around the world. The sheer scale of our capabilities and client engagements, in conjunction with the way we collaborate, operate and deliver value, provides an unparalleled opportunity to grow and advance. Choose Accenture and make delivering innovative work part of your extraordinary career.
People in our Client Delivery & Operations career track drive delivery and capability excellence through the design, development and/ or delivery of a solution, service, capability or offering. They grow into delivery-focused roles, and can progress within their current role, laterally or upward. We partner with our clients to help transform their data into an ‘Appreciating Business Asset.’

As part of our Data Business Group, you will lead technology innovation for our clients through robust delivery of world-class solutions. You will build better software better! There will never be a typical day and that’s why people love it here. The opportunities to make a difference within exciting client initiatives are unlimited in the ever-changing technology landscape. You will be part of a highly collaborative and growing network of technology and data experts, who are taking on today’s biggest, most complex business challenges using the latest data and analytics technologies. We will nurture your talent in an inclusive culture that values diversity. You will have an opportunity to work in roles such as Data Scientist, Data Engineer, or Chief Data Officer covering all aspects of Data including Data Management, Data Governance, Data Intelligence, Knowledge Graphs, and IoT. Come grow your career in Technology at Accenture!

The Google GCP Data Engineer is responsible for delivering Data On Cloud projects for Google GCP based deals. The ideal candidate would be responsible for developing and delivering GCP cloud solutions to meet today’s high demand in areas such as AI/ML, IoT, advanced analytics, open source, enterprise collaboration, microservices, serverless, etc. The GCP Data Engineer is a highly performant engineer responsible for delivering Cloud based Big Data and Analytical Solutions for our clients. Responsibilities include building data on cloud solutions for customers, leading Business and IT stakeholders through designing a robust, secure and optimized GCP solutions and ability to be hands-on delivering the target solution. This role will work with customers and leading internal engineering teams in delivering big data solutions on cloud. Using Google GCP cloud technologies, our GCP Data Engineer professionals implement state of the art, scalable, high performance Data On Cloud solutions that meet the need of today’s corporate and emerging digital applications.

Basic Qualifications
Minimum of 3 years previous Consulting or client service delivery experience on Google GCP
Minimum of 3 years of RDBMS experience
Minimum pf 3 years of experience in developing data ingestion, data processing and analytical pipelines for big data, relational databases, NoSQL, data lake and data warehouse solutions
Experience with private and public cloud architectures, pros/cons, and migration considerations.
Extensive hands-on experience implementing data migration and data processing using GCP services etc:
Data Ingestion : Cloud Pub/Sub, Data Transfer Service, Cloud IoT Core
Data Storage : Cloud Spanner, Cloud Storage, Cloud Datastore, Cloud SQL, Cloud Bigtable, Cloud Memorystore
Streaming Data Pipeline : Cloud Dataflow, Cloud Dataproc, Cloud Dataprep, Apache Beam
Data Warehousing & Data Lake : BigQuery, Cloud Storage
Advanced Analytics : Cloud ML engine, Google Data Studio, Google Datalab, Tensorflow & Sheets
Bachelors or higher degree in Computer Science or a related discipline.
Able to trval 100% M-TH

Candidate Must Have Completed The Following Certifications
Certified GCP Developer - Associate
Certified GCP DevOps – Professional (Nice to have)
Certified GCP Big Data Specialty (Nice to have)

Nice-to-Have Skills/Qualifications:
DevOps on an GCP platform. Multi-cloud experience a plus.
Experience developing and deploying ETL solutions on GCP using tools like Talend, Informatica, Matillion
IoT, event-driven, microservices, containers/Kubernetes in the cloud

Professional Skill Requirements
Proven ability to build, manage and foster a team-oriented environment
Proven ability to work creatively and analytically in a problem-solving environment
Desire to work in an information systems environment
Excellent communication (written and oral) and interpersonal skills
Excellent leadership and management skills

All of our professionals receive comprehensive training covering business acumen, technical and professional skills development. You'll also have opportunities to hone your functional skills and expertise in an area of specialization. We offer a variety of formal and informal training programs at every level to help you acquire and build specialized skills faster. Learning takes place both on the job and through formal training conducted online, in the classroom, or in collaboration with teammates. The sheer variety of work we do, and the experience it offers, provide an unbeatable platform from which to build a career.

Applicants for employment in the US must have work authorization that does not now or in the future require sponsorship of a visa for employment authorization in the United States and with Accenture (i.e., H1-B visa, F-1 visa (OPT), TN visa or any other non-immigrant status).

Candidates who are currently employed by a client of Accenture or an affiliated Accenture business may not be eligible for consideration.

Accenture is a Federal Contractor and an EEO and Affirmative Action Employer of Females/Minorities/Veterans/Individuals with Disabilities.

Equal Employment Opportunity

All employment decisions shall be made without regard to age, race, creed, color, religion, sex, national origin, ancestry, disability status, veteran status, sexual orientation, gender identity or expression, genetic information, marital status, citizenship status or any other basis as protected by federal, state, or local law.

Job candidates will not be obligated to disclose sealed or expunged records of conviction or arrest as part of the hiring process.

Accenture is committed to providing veteran employment opportunities to our service men and women."
15,Senior Data Engineer - Information Technology,"Houston, TX 77002",Houston,TX,77002,None Found,None Found,None Found,None Found,None Found,None Found,"Seeking a Senior Data Engineer
This exciting role will deepen and broaden your skills with leading edge technologies in the data and analytics space. Team members have a chance to make a difference in operational efficiency and help to improve customer experiences through data-driven insights. Let’s explore!

Job overview and responsibilities
United Airlines is seeking talented people to join the Data Engineering team. Data Engineering organization is responsible for driving data driven insights & innovation to support the data needs for commercial and operational projects with a digital focus. As a Data Engineer on the team:
 You will partner with various teams to define and execute data acquisition, transformation, processing and make data actionable for operational and analytics initiatives that create sustainable revenue and share growth
 Design, develop, and implement streaming and near-real time data pipelines that feed systems that are the operational backbone of our business.
 Execute unit tests and validating expected results to ensure accuracy & integrity of data and applications through analysis, coding, writing clear documentation and problem resolution.
 This role will also drive the adoption of data processing and analysis within the Hadoop environment and help cross train other members of the team
 Leverage strategic and analytical skills to understand and solve customer and business centric questions
 Coordinate and guide cross-functional projects that involve team members across all areas of the enterprise, vendors, external agencies and partners
 Leverage data from a variety of sources to develop data marts and insights that provide a comprehensive understanding of the business
 Develop and implement innovative solutions leading to automation
 Use of Agile methodologies to manage projects
 Mentor and train junior engineers

Required
 BS/BA, in computer science or related STEM field
 We are seeking creative, driven, detail-oriented individuals who enjoy tackling tough problems with data and insights. Individuals who have a natural curiosity and desire to solve problems are encouraged to apply
 10+ years of IT experience in software development
 5+ years of development experience using Java, Python, Scala
 5+ years of experience with Big Data technologies like Hadoop, Hive, HBASE, Kafka, Nifi
 5+ years of experience with relational database systems like MS SQL Server, Oracle, Teradata
 Must be legally authorized to work in the country of employment for any employer without sponsorship
Preferred
 Masters in computer science or related STEM field
 Experience with cloud based systems like AWS, AZURE or Google Cloud
 Certified Developer / Architect on AWS
 Strong experience with continuous integration & delivery using Agile methodologies
 Data engineering experience with transportation/airline industry
 Strong problem-solving skills
 Strong knowledge in Big Data


Equal Opportunity Employer – Minorities/Women/Veterans/Disabled/LGBT"
16,Data Engineer,"Houston, TX",Houston,TX,None Found,None Found,None Found,"Experience working on Hadoop platform components
Knowledge of Big Data tools, such as zookeeper, Kafka Streaming.
Shell scripting experience
Experience with integration of data from multiple data sources (NoSQL, Mongo, SQL)
Experience working with Structured/Unstructured data.
Experience creating ETL pipelines
Experience in Docker builds and Git file versioning
Demonstrated ability to quickly learn new tools and paradigms to deploy cutting edge solutions.
Knowledge of programming in Python
Knowledge of MapR
Knowledge of Scala framework
Experience with Spark, Storm or Flink","Integrate Data from multiple data sources
Create ETL Pipelines
Work under the guidance of Lead to develop based on design/architecture.",None Found,None Found,"Need for a well-demonstrated Data Engineer who will work with the Data Science team to complete a major data project.
Mode of Interview : Telephonic/F2F
Job Skills:
Experience working on Hadoop platform components
Knowledge of Big Data tools, such as zookeeper, Kafka Streaming.
Shell scripting experience
Experience with integration of data from multiple data sources (NoSQL, Mongo, SQL)
Experience working with Structured/Unstructured data.
Experience creating ETL pipelines
Experience in Docker builds and Git file versioning
Demonstrated ability to quickly learn new tools and paradigms to deploy cutting edge solutions.
Knowledge of programming in Python
Knowledge of MapR
Knowledge of Scala framework
Experience with Spark, Storm or Flink
Minimum Experience: 8 Yrs
Roles & Responsibilities:
Integrate Data from multiple data sources
Create ETL Pipelines
Work under the guidance of Lead to develop based on design/architecture.
Education:
Bachelor’s Degree in Computer Science or equivalent work experience. Masters preferred"
17,"Data Engineer-Full Stack-Houston, TX-1535","Houston, TX",Houston,TX,None Found,None Found,None Found,None Found,None Found,None Found,None Found,"DirectViz Solutions DVS, is a high-level strategic consulting services firm that meets mission needs for Government clients, is seeking a full-time Data Engineer-Full Stack. This position is located in Houston, TX. U.S. citizenship is required with the ability to obtain and maintain a government security clearance.

Data Engineer-Full Stack
We are currently seeking a Data Engineer Full Stack to contribute to an exciting federal project to create, transform, and modernize applications and data platforms. This is an exciting opportunity which will allow qualified candidates to further develop their skills and expand their area of expertise.

RESPONSIBILITIES:
Work closely with the Project Manager, Technical Lead, and development team to provide overall data-engineering support and to understand project and application requirements.
Lead technical efforts and development teams in the creation of customized infrastructure, applications, and tools designed to meet user requirements.
As an engineer, build and deliver data storage, integrate with existing data, and migrate the built big data applications to cloud computing platform by leveraging new technologies.
Collect, build, cleanse, assemble and refine datasets to support the variety of data analytics needs put forward by business stakeholders including data scientists, law enforcement officials, and agency analysts.
Build data ingestion and pipeline processes for innovative analytics platforms using best practices and open source tools such as, NiFi.
Develop and apply quantitative and qualitative analytic methods to identify, collect, process and analyze large data sets for specified purposes.
Develop analytical solutions that are scalable, repeatable, effective, and meet the expectations of the decision-makers and stakeholders.
Networking, database, cloud engineering, security engineering teams to comply with the data security policies and procedures and trouble-shoot and resolve any issues in data engineering deliveries.

REQUIREMENTS:
Education and Tools/Technology
Bachelor's Degree in Information Technology, Computer Science, quantitatively-focused social sciences, or other quantitative fields.
4+ years of experience working with large and varying data sets, applying qualitative and quantitative analysis to interpret the data.
Experience developing complex data ingestion, analysis, and visualization pipelines from disparate data sources in varying formats.
4+ years of experience utilizing open source tools and programming languages at least 2: Python, R, Java, Groovy, and/or SQL.
2+ years of experience with at least 2 AWS Cloud/Storage/ETL, NiFi, HBase, ElasticSearch, Kibana, Janus Graph, PostgreSQL, Kafka.

Subject Matter Expertise and Knowledge
Knowledge and experience with Agile, Scrum and DevOps principles and practices and working on collaborative development teams. Experience acting as the technical lead for development teams.
Demonstrated extensive experience working in large-scale data environments which includes real time and batch processing requirements, as well as graph databases.
Extensive knowledge and experience with Agile, Scrum and DevOps principles and practices and working on collaborative development teams.
Outstanding interpersonal and communication skills with the ability to effectively communicate with diverse audiences and influence cross functionally.
Strong writing skills and experience conveying highly technical material to non-technical audiences.
Experience designing and delivering large scale, 24-7, mission-critical data pipelines and features using modern big data architectures.
Working knowledge of data security management policies and procedures.
Must be a U.S. Citizen with the ability to obtain and maintain a government suitability clearance.
DirectViz Solutions, LLC provides equal employment opportunity to all individuals regardless of race, color, creed, religion, gender, age, sexual orientation, national origin or ancestry, disability, genetic information, veteran status, gender identification or any other characteristic protected by state, federal or local law."
18,"Senior Data Engineer-Strategy, Innovation and Planning","Houston, TX 77046",Houston,TX,77046,None Found,None Found,None Found,None Found,None Found,None Found,"Duties:


Source data sets, both internal and external, that support machine learning and AI use cases. Leverage enterprise data lake architecture.

Ingest, curate, and provide access to structured and unstructured data sets

Build robust data pipelines on public Cloud using AWS Kinesis, Kafka or other Lambda technologies.

Responsible to collect, process, and compute business metrics from activity & persisted data using Python/Spark.

Process, cleanse, and verify the integrity of data used for analysis; optimize data for consumption.

Build scalable OLAP backend storage for data in PB scale.

Develop data set processes for data discovery, modeling, mining, and archival.


Requirements:


Must have a Master's Degree in Computer Science, Software Engineering, or related field.

Must have 3 years of experience in software or data engineering positions performing the following:

Big data engineering

Working with data processing technologies such as Hadoop, Spark, Hive / Pig, and Java / MapReduce

Working with ETL/SQL including fundamental and optimization query techniques, normal forms, and processing semi-structured data, including CSV, XML, XQuery, JSON, and Parquet.

Data services using Amazon Web Services (AWS), Azure, and / or Google Cloud

Utilizing programming languages such as Java, Python or Scala

Operationalizing data sourcing/loading including automating/scheduling data ingestion.

Utilizing experience with: Parallel computing, batch processing, and stream processing using tools such as Kinesis or Kafka; data warehousing and columnar databases such as Redshift; and NoSQL databases including AWS S3, MongoDB, Cassandra, HBase, and DynamoDB.

Send resume to: Stephanie Nagy, HR Global Mobility Specialist, Invesco Group Services, Inc., 11 Greenway Plaza, Suite 1000, Houston, TX 77046."
19,Data Specialist,"Houston, TX",Houston,TX,None Found,None Found,None Found,None Found,None Found,None Found,None Found,"Regular-Full time
Union/Non:
This is a non-union position
W E= unlimited potential
We didn’t get to be a leader in energy delivery or ranked on the Global 100 Most Sustainable Corporations index on our own. We did it in partnership with outstanding individuals who work together as a team to fuel people’s quality of life. Individuals like you. And now we’re looking for just such an individual to join our team.
To learn more about us, visit www.enbridge.com .
Life takes energy. The Enbridge Technology + Innovation Lab works with data that powers our products to improve safety and reliability. By working hands-on with ground-breaking technology, the lab pioneers the development of innovative products through small agile teams. Our teams incorporate a variety of multidisciplinary skills, including industrial predictive algorithms, machine learning, and sentiment analysis.
As a Data Engineer, you’ll help ingest, transform and store clean and enriched data in ready for business intelligence consumption.
Who you are
You’ll have experience in a Data Engineer role (5+ years), with a Graduate degree in Computer Science, Statistics, Informatics, Information Systems or another quantitative field
You build and maintain optimal data pipeline architecture.
You assemble large, complex data sets that meet functional / non-functional business requirements.
You identify, design, and implement internal process improvements: automating manual processes, optimizing data delivery, re-designing infrastructure for greater scalability, data quality checks, minimize Cloud cost, etc.
You build the infrastructure required for optimal extraction, transformation, and loading of data from a wide variety of data sources using SQL, Data Bricks, No-SQL
You build analytics tools that utilize the data pipeline to provide actionable insights into customer acquisition, operational efficiency and other key business performance metrics.
You document and communicate standard methods and tools used.
You work with other data engineers, data ingestion specialists, and experts across the company to consolidate methods and tool standards where practical.
You’re experienced using the following software/tools:
Big data tools: Hadoop, HDI, & Spark
Relational SQL and NoSQL databases, including COSMOS
Data pipeline and workflow management tools: Data Bricks (Spark), ADF, Dataflow
Microsoft Azure
Stream-processing systems: Storm, Streaming-Analytics, IoT Hub, Event Hub
Object-oriented/object function scripting languages: Python, Scala, SQL
What you’ll do
You’ll work independently on complex data engineering problems to support data science strategy of products
You’ll use broad and deep technical knowledge in the data engineering space to tackle complex data problems for product teams, with a core focus on using technical expertise
You’ll improve the data availability by acting as a liaison between Lab teams and source systems
You’ll collect, blend, and transform data using ETL tools, database management system tools, and code development
You’ll implement data models and structures data in ready-for business consumption formats
You’ll aggregate data across various warehousing models (e.g. OLAP cubes, star schemas, etc.) for BI purposes
You’ll collaborate with business teams and understand how data needs to be structured for consumption
We build advanced technology products to deliver energy in a safe and reliable way to fuel a rapidly innovating world. Here in our new Technology + Innovation Lab we believe in Agile way of working, focus on our people and value craftsmanship, in a ‘work is play’ environment where we offer a flexible, fun, and modern working style to support individual needs.
Apply now to start a career with unlimited potential!
We accept applications submitted via our online recruiting system only ( https://careers.enbridge.com ).
Enbridge is an Equal Opportunity and Affirmative Action Employer and is committed to provide employment opportunities to all individuals, without regard to race, religion, age, sex, color, national origin, sexual orientation, gender identity, veteran status, or disability. Accommodation for applicants with disabilities is available on request during the recruitment process. Applicants with disabilities can request accessible formats or communication supports by contacting careers@enbridge.com .
We appreciate your interest in working with us; however, only those applicants selected for interviews will be contacted.
Final candidates for this position may be required to undergo a security screening, including a criminal records check."
20,"Data Engineer, Agile Hub - Houston, TX","Houston, TX",Houston,TX,None Found,None Found,None Found,None Found,None Found,None Found,"Must have legal authorization to work in the US on a full-time basis for anyone other than current employer
Bachelor's Degree preferably higher, in mathematics, statistics, computer science, or another relevant discipline
Minimum five (5) years of relevant experience with a strong background in data and software engineering, with experience of writing code.
Strong experience with Python and relevant libraries.
The ability to work across structured, semi-structured, and unstructured data, extracting information and identifying irregularities and linkages across disparate data sets.
Meaningful experience in distributed processing.
Deep understanding of information security principles to ensure compliant handling and management of client data.
Experience in traditional data warehousing / ETL tools.
Experience and interest in cloud infrastructure and containerization.
Preferably some experience programming with Julia.
Experience or interest in building robust and practical data pipelines on top of cloud infrastructure will also be an advantage.","Job Description
The Data Engineer collects data from source systems, cleans data and adds metadata for context. Builds data pipelines and ensures that there is appropriate automation in the end-to-end process of gathering and loading data for advanced analytical processing. Builds a robust, fault-tolerant data pipeline that cleans, transforms and aggregates unorganized and messy data from multiple sources into a consolidated data model. This enables the deployment of analytical models and helps data scientists develop models and generate insights more quickly. Develops understanding of data availability, content and quality across a domain and uses this to support product owners and data scientists with feasibility assessments for new features and use cases.

We’re looking to you to bring your strong technical expertise in data engineering to help us find ways of increasing customer value and assist in the setup of a best-practice data science process, including determining the direction of future tooling, and how the company engages overall in data science.

Calling on your expertise in software engineering and writing code, you’ll be pivotal to the drive to build products, working within small product teams across multiple projects that rely on data from a range of locations and systems.

Plus, you’ll use your strong people skills to easily nurture and influence trustworthy, collaborative relationships with a range of virtual stakeholders, confidently and clearly communicating complex solutions.

Requirements
Must have legal authorization to work in the US on a full-time basis for anyone other than current employer
Bachelor's Degree preferably higher, in mathematics, statistics, computer science, or another relevant discipline
Minimum five (5) years of relevant experience with a strong background in data and software engineering, with experience of writing code.
Strong experience with Python and relevant libraries.
The ability to work across structured, semi-structured, and unstructured data, extracting information and identifying irregularities and linkages across disparate data sets.
Meaningful experience in distributed processing.
Deep understanding of information security principles to ensure compliant handling and management of client data.
Experience in traditional data warehousing / ETL tools.
Experience and interest in cloud infrastructure and containerization.
Preferably some experience programming with Julia.
Experience or interest in building robust and practical data pipelines on top of cloud infrastructure will also be an advantage.
Company Description
Shell is a global group of energy and petrochemical companies with about 84,000 employees across more than 70 countries. We aim to meet the world’s growing need for more and cleaner energy solutions in ways that are economically, environmentally and socially responsible. We have expertise in exploration, production, refining and marketing of oil and natural gas, and the manufacturing and marketing of chemicals.

As a global energy company operating in a challenging world, we set high standards of performance and ethical behaviors. We are judged by how we act and how we live up to our core values of honesty, integrity and respect for people. Our Business Principles are based on these. They promote trust, openness, teamwork and professionalism, as well as pride in what we do and how we conduct business.

Building on our core values, we aspire to sustain a diverse and inclusive culture where everyone feels respected and valued, from our employees to our customers and partners. A diverse workforce and an inclusive work environment are vital to our success, leading to greater innovation and better energy solutions.
Disclaimer
Please note: We occasionally amend or withdraw Shell jobs and reserve the right to do so at any time, including prior to the advertised closing date.

Before applying, you are advised to read our data protection policy. This policy describes the processing that may be associated with your personal data and informs you that your personal data may be transferred to Royal Dutch/Shell Group companies around the world.

The Shell Group and its approved recruitment consultants will never ask you for a fee to process or consider your application for a career with Shell. Anyone who demands such a fee is not an authorised Shell representative and you are strongly advised to refuse any such demand.

Shell participates in E-Verify.

All qualified applicants will receive consideration for employment without regard to race, color, sex, national origin, age, religion, disability, sexual orientation, gender identity, protected veteran status, citizenship, genetic information or other protected status under federal, state or local laws.

Shell is an Equal Opportunity Employer - Minorities/Females/Veterans/Disability.
Employment TypeFull Time
Skillpool
IT Service Management & Delivery
Work LocationHouston - EP Center Americas
No. of Positions
1
Job Expires01-Nov-2019"
21,Data Engineer,"Houston, TX 77046",Houston,TX,77046,None Found,None Found,"Comfortable working with ambiguity (e.g. imperfect data, loosely defined concepts, ideas, or goals) and translating these into more tangible outputs
Strong analytical and critical thinking skills
Self-motivated. Capable of working with little or no supervision
Strong written and verbal communication skills
Enjoy challenging and thought-provoking work and have a strong desire to learn and progress
Ability to manage multiple tasks and requests
Must demonstrate a positive, team-focused attitude
Ability to react positively under pressure to meet tight deadlines
Good inter-personal skills combined with willingness to listen
Structured, disciplined approach to work, with attention to detail
Flexible – able to meet changing requirements and priorities
Maintenance of up-to-date knowledge in the appropriate technical areas
Able to work in a global, multicultural environment","Work on new and innovative portfolio construction and analytics applications along with other experienced developers.
Identify, ingest, and enrich a diverse set of structured and unstructured big data into datasets for analysis.
Operate and extend the data research platform to deliver production-quality data on time for analysis.
Own end-to-end data workflows and develop deep domain expertise to ensure data quality and completeness
Experiment with new technologies and acquire new skills to find creative solutions to the unique challenges we will encounter along the way","
Masters in Statistics, Computer Science or other similar advanced degrees from a top tier educational institution preferred
CFA, CPA, CIPM, CAIA, and/or FRM preferred, but not required.",None Found,"Invesco is a leading global asset management firm with more than $888.2 billion* in assets under management. We provide our retail and institutional clients a diverse and comprehensive range of investment capabilities to help people get more out of life. Invesco is publicly traded on the New York Stock Exchange (IVZ) and has about 7,000 employees in over 20 countries.
(*As of December 31, 2018)


About Invesco Technology

At Invesco Technology, we are strategic problem solvers. Our mission is to create world-class technology solutions to enable global operations, lead in the innovative use of data and emerging technologies to redefine the investment experience, and help our clients “get more out of life."" This mission is fueled by our high-performing teams, which thrive on collaboration, operate on shared trust, and leverage diversity of thought to deliver valuable results every day to Invesco, clients, and partners.

We wholeheartedly believe that our success is driven by our people. That is why we invest heavily in our top talent, providing opportunities for continuous learning and professional development. Our employees are encouraged and supported in taking advantage of development opportunities tied to their goals and are recognized for employing new skills to make an impact beyond the scope of their daily roles.

To continue building our high-performing, OneTech Team, we are seeking candidates who champion innovation, operate effectively in an agile environment, challenge the status quo and are empowered to take risks


Job Purpose (Job Summary):
We’re seeking a Senior Data Engineer to join a fast-paced agile development team using the latest technologies to build portfolio construction and analysis applications. In this position, you will work closely with the Invesco Global Solutions group to envision, design, and deploy scalable technology solutions. You’ll be expected to have basic to intermediate investments knowledge to quickly and accurately collect and visualize investment processes. The environment is demanding, and you will be challenged. We expect that you are fluent in all things data, and you also understand the nuances of financial services and our investment capabilities. You’ll be a part of a dynamic, collaborative team that wants to hear your input because you have a sound foundation in technology and investments. The ideal candidate is passionate about speed, quality, automation, and continuous delivery. We’re actively cultivating a culture of innovation and excellence, and while not for everyone, this environment will be challenging and rewarding for the right individual who welcomes dynamism and solving complex problems. Our team is sensitive to an ever-evolving technological landscape where thirst for knowledge and learning is mandatory, and the mastery of new skills and best practices is essential.

Key Responsibilities / Duties:
Work on new and innovative portfolio construction and analytics applications along with other experienced developers.
Identify, ingest, and enrich a diverse set of structured and unstructured big data into datasets for analysis.
Operate and extend the data research platform to deliver production-quality data on time for analysis.
Own end-to-end data workflows and develop deep domain expertise to ensure data quality and completeness
Experiment with new technologies and acquire new skills to find creative solutions to the unique challenges we will encounter along the way

Work Experience / Knowledge:
Minimum 2 - 4 years of proven experience developing data analytics and visualization software and workflows
Intermediate experience with Python and libraries like numpy, pandas, scipy, and matplotlib
Intermediate database programming experience with both SQL (e.g. Oracle, SQL Server, PostgreSQL, MySQL) and noSQL (e.g. MongoDB, Parquet) data stores.
Basic to Intermediate experience with data visualization tools (e.g. Plotly, PowerBI, Tableau, Plotly Dash, or RShiny)
Basic to intermediate experience with HTML, CSS, React.js, and other front-end technologies.
Intermediate to advanced experience with Microsoft Excel
Basic to intermediate experience with Linux server administration
Containerized environments (Docker or LXC), git, continuous integration (e.g. Bamboo, Jenkins, Travis-CI, or CircleCI), documentation (e.g. Sphinx), IT security, distributed computing, and parallel computation
Basic to Intermediate understanding of Equity, Fixed Income, and Derivative instruments

Skills / Other Personal Attributes Required:
Comfortable working with ambiguity (e.g. imperfect data, loosely defined concepts, ideas, or goals) and translating these into more tangible outputs
Strong analytical and critical thinking skills
Self-motivated. Capable of working with little or no supervision
Strong written and verbal communication skills
Enjoy challenging and thought-provoking work and have a strong desire to learn and progress
Ability to manage multiple tasks and requests
Must demonstrate a positive, team-focused attitude
Ability to react positively under pressure to meet tight deadlines
Good inter-personal skills combined with willingness to listen
Structured, disciplined approach to work, with attention to detail
Flexible – able to meet changing requirements and priorities
Maintenance of up-to-date knowledge in the appropriate technical areas
Able to work in a global, multicultural environment

Formal Education: (minimum requirement to perform job duties)

Masters in Statistics, Computer Science or other similar advanced degrees from a top tier educational institution preferred
CFA, CPA, CIPM, CAIA, and/or FRM preferred, but not required.

Working Conditions:
Normal office environment with little exposure to noise, dust and temperatures
The ability to lift, carry or otherwise move objects of up to 10 pounds is also necessary
Normally works a regular schedule of hours, however hours may vary depending upon the project or assignment

FLSA (US Only): Nonexempt

The above information on this description has been designed to indicate the general nature and level of work performed by employees within this role. It is not designed to contain or be interpreted as a comprehensive inventory of all duties, responsibilities and qualifications required of employees assigned to this job. The job holder may be required to perform other duties as deemed appropriate by their manager from time to time.

Invesco's culture of inclusivity and its commitment to diversity in the workplace are demonstrated through our people practices. We are proud to be an equal opportunity employer. All qualified applicants will receive consideration for employment without regard to race, creed, color, religion, sex, gender, gender identity, sexual orientation, marital status, national origin, citizenship status, disability, age, or veteran status. Our equal opportunity employment efforts comply with all applicable U.S. state and federal laws governing non-discrimination in employment."
22,2020 University Intern - Data Engineer,"Houston, TX 77042",Houston,TX,77042,None Found,None Found,None Found,None Found,None Found,None Found,"JOIN US IN PROVIDING ENERGY AND IMPROVING LIVES.

At Phillips 66, we Provide Energy and Improve Lives guided by our values of Safety, Honor and Commitment. Internships are a great way for us to get to know you and for you to get to know our company. We will offer you the same types of challenging assignments as our full-time hires, and you will participate in our company-wide internship program.

Internship activities may include the following:
Orientation and training events, field trips, social activities, weekly seminars and opportunities to meet and interact with functional leaders

Participating in continuous coaching conversations with your manager, who will provide guidance throughout your internship

An assigned mentor to provide further guidance. Your mentor will help you navigate both technical challenges of your role and give assistance in navigating through the day-to-day questions on working in the corporate world

Giving a presentation at the end of your assignment to senior leaders in the IT organization. This presentation is an opportunity to share what you achieved in your work assignment and projects and provide feedback on what you learned from the internship program.

The Data Engineer will play a key role in contributing to the success of advanced analytics and artificial intelligence projects across the company, by partnering with respective business owners and leveraging data to identify areas of improvement & optimization. The role sits in the sweet spot between technology and business worlds and provides opportunity for high business impact and working with seasoned business leaders.

An internship with Phillips 66 Data Engineering is more than a summer job that will look good on your resume. It’s an excellent opportunity to roll up your sleeves and make important contributions as a valued member of our team. You will not only enhance your knowledge but will also learn how it applies and impacts the energy business daily. You’ll gain first-hand experience in the energy industry and participate in other activities that are based on service, networking, and learning. Your summer experience will include:

Create systems for storing, extracting, transferring, loading, and modeling big data to be used for both production systems and machine learning projects

Implement data engineering systems in Microsoft Azure, AWS, HANA and other systems, including open source data science tools to meet the needs of our internal customer

Build end-to-end solutions to solve high value business needs in a sustainable, innovative manner

Network with professionals at all levels in the company

Learn about the Oil & Gas industry and the extensive use of technology that makes it possible

Internship opportunities are located at our headquarters in Houston, Texas

Requirements for a Phillips 66 Data Engineer Internship:
Basic/Required:
Legally authorized to work in the job posting country

Pursuing a Bachelor’s or Master’s degree in Computer Science, Analytics, Data Science, Engineering, Mathematics, or equivalent field of study

Currently enrolled in an undergraduate or postgraduate program as a Sophomore or higher

Scheduled to graduate from a Bachelor’s or Master’s degree program August 2020 or later

Available for a minimum of ten continuous weeks

Preferred:
A minimum cumulative GPA of 3.0 on a 4.0 scale

Previous internship or co-op participant in related industry

Previous internship with Phillips 66

Phillips 66 SHIELD Scholar recipient

Willing to work in any of our operating locations

Proficiency in R or Python and familiarity with data science packages in that language

Understanding of Computer Science fundamentals in object-oriented design, data structures, algorithm design, cloud technologies and problem solving

Familiarity with Agile Development

To apply and be considered:
You must apply through your university prior to university deadlines (if applicable) AND

Apply online by going to http://www.p66oncampus.jobs and complete the entire application process

Attach an electronic copy of your resume and unofficial transcript

Answer all prescreening questions and provide your eSignature

Candidates for regular U.S. positions must be a U.S. citizen or national, or an alien admitted as permanent resident, refugee, asylee or temporary resident under 8 U.S.C. 1160(a)(1). Individuals with temporary visas such as E, F-1, H-1, H-2, L, B, J, or TN or who need sponsorship for work authorization now or in the future, are not eligible for hire.

About Phillips 66

Phillips 66 is a diversified energy manufacturing and logistics company. With a portfolio of Midstream, Chemicals, Refining, and Marketing and Specialties businesses, the company processes, transports, stores and markets fuels and products globally. Phillips 66 Partners, the company’s master limited partnership, is integral to the portfolio. Headquartered in Houston, the company has 14,300 employees committed to safety and operating excellence. Phillips 66 had $58 billion of assets as of March 31, 2019. For more information, visit http://www.phillips66.com/ or follow us on Twitter @Phillips66Co and @P66oncampus.

Phillips 66 is an EEO and Affirmative Action Employer of Females/Minorities/Veterans/Individuals with Disabilities

Requisition ID: 51207

Location: Texas - Houston

Job Field: Internships, Graduate Positions, and Student Programs"
23,Big Data Engineer,"Houston, TX",Houston,TX,None Found,None Found,None Found,None Found,None Found,None Found,None Found,"Onica is one of the fastest growing AWS Premier Partners in North America. As a full spectrum AWS integrator, we assist hundreds of companies to realize the value, efficiency, and productivity of the cloud. We take customers on their journey to enable, operate, and innovate using cloud technologies – from migration strategy to operational excellence and immersive transformation.

If you like a challenge, you'll love it here, because we're solving complex business problems every day, building and promoting great technology solutions that impact our customers' success. The best part is, we're committed to you and your growth, both professionally and personally.

Location: Texas or California

Overview

Our Data Engineers are experienced technologists with technical depth and breadth, along with strong interpersonal skills. In this role, you will work directly with customers and our team to help enable innovation through continuous, hands-on, deployment across technology stacks. You will work to build data pipelines and by developing data engineering code ( as well as writing complex data queries and algorithms.

What You'll Be Doing


Build complex ETL code
Build complex SQL queries using MongoDB, Oracle, SQL Server, MariaDB, MySQL
Work on Data and Analytics Tools in the Cloud
Develop code using Python, Scala, R languages
Work with technologies such as Spark, Hadoop, Kafka, etc.
Build complex Data Engineering workflows
Create complex data solutions and build data pipelines
Establish credibility and build impactful relationships with our customers to enable them to be cloud advocates
Capture and share industry best practices amongst the Onica community
Attend and present valuable information at Industry Events
Traveling up to 50% of the time

Qualifications & Experience


3+ years design & implementation experience with distributed applications
2+ years of experience in database architectures and data pipeline development
Demonstrated knowledge of software development tools and methodologies
Presentation skills with a high degree of comfort speaking with executives, IT management, and developers
Excellent communication skills with an ability to right level conversations
Technical degree required; Computer Science or Math background desired
Demonstrated ability to adapt to new technologies and learn quickly

What's in It for You


Cloud community-minded, meetups/conferences around North America
Generous vacation policy
Professional development and training
Cell reimbursement and wellness program
Retirement plan
Recognition program
Pet-friendly
Flexible work environment
Community involvement and activities
Unlimited snacks and beverages!

If you get a thrill working with cutting-edge technology and love to help solve customers' problems, we'd love to hear from you. It's time to rethink the possible. Are you ready?"
24,Data Engineer,"Houston, TX 77021",Houston,TX,77021,None Found,None Found,None Found,None Found,None Found,None Found,"MAJOR RESPONSIBILITIES:
Develop, Operate and help administer the bioinformatics pipeline systems at Baylor Genetics.
Install software and assist in administration of linux systems in a virtualized environment, optimizing storage access and managing scientific software installations.
Assist in managing systems for the bioinformatics group.
Develop software and modify existing software as needed.
Have familiarity with programming languages.
Familiarity with database activities including relational and NoSQL structures.
JOB QUALIFICATIONS (REQUIRED):
Computer systems administration and programming background.

SKILLS:
Bioinformatics Pipeline Engineer
Great communication skills
Experience with administration of Linux systems and software installation
Experience or exposure to one or more compiled programming languages (e.g. Java, C++, etc.) and one or more interpreted programming languages (Python, Perl, bash etc.)
Working knowledge of SQL; Experience with big data, NoSQL databases, and health care a plus.
Knowledge of Agile methodology and frameworks like Scrum and Kanban a plus.

BACKGROUND:
Bachelor's degree in Computer Science or a related field or scientific degree AND two (2) years background in Linux/Unix Administration"
25,Senior Azure Data Engineer,"Houston, TX",Houston,TX,None Found,None Found,None Found,None Found,None Found,None Found,None Found,"The data engineer will collaborate within a team of technologists to produce enterprise scale solutions for our clients’ needs. They will utilize deep understanding of data integration and big data design principles in creating custom solutions or implementing package solutions. You will independently drive design decisions to insure the necessary health of the overall solution.

Roles & Responsibilities:
Lead, design, develop, and deliver large-scale Azure data systems, data processing, and data transformation projects.
Execute technical feasibility assessments and project estimates for moving databases and data processing to Azure.
Design and advocate solutions using modern cloud technologies, design principles, integration points, and automation methods.
Mentor and share knowledge with customers as well as provide architecture reviews, discussions, and prototypes.
Participate in overall engagement from strategy, assessment, migration, and implementations.
Work with customers to deploy, manage, and audit best practices for cloud products.

Requirements
Demonstrated experience designing, implementing, and supporting enterprise-grade technical solutions in the cloud for meeting complex business data requirements. Experience with Databricks and using Spark for data processing.
Experience with Azure Data Factory – ADF.
Advanced experience with different query languages (i.e. T-SQL, PostgreSQL, PL-SQL). Experience designing and building data marts, warehouses, customer profile databases, etc.
Experience with data modeling, table design, and mapping business needs to data structures.
Experience with Azure Data Lake, Azure SQL Data Warehouse, and Cosmos DB are a plus. Experience with Data Management Gateway, Azure Storage Options, Stream Analytics, and Event Hubs is a plus.
Experience with other cloud based big data architectures is a plus.

Experience/Education
5 to 10 years of professional experience in the information technology industry.
BS in Computer Science or equivalent education/professional experience is required.
Personal Attributes
Strong and innovative approach to problem solving and finding solutions.
Excellent communicator (written and verbal, formal, and informal).
Flexible and proactive/self-motivated working style with strong personal ownership.
Ability to multi-task and prioritize under pressure.
Ability to work independently with minimal supervision as well as in a team environment. Flexibility and mobility are required to deliver this role as there may be requirements to spend time onsite with our clients to enable delivery of the first class services, we pride ourselves in.
GD-POST"
26,"Senior Associate, Data Engineering","Houston, TX",Houston,TX,None Found,None Found,None Found,None Found,None Found,None Found,None Found,"This position is for a Senior Associate Data Engineer within our North American team who will be designing and implementing data projects for our clients.
The qualified individual will work closely with clients to ensure that data technologies meet their needs and keep pace with the rapid changes in Publicis Sapient’s operations and policies/procedures.
RESPONSIBILITIES:
Lead, design, develop, and deliver large-scale Azure data systems, data processing, and data transformation projects.
Execute technical feasibility assessments and project estimates for moving databases and data processing to Azure.
Design and advocate solutions using modern cloud technologies, design principles, integration points, and automation methods.
Mentor and share knowledge with customers as well as provide architecture reviews, discussions, and prototypes.
Participate in overall engagement from strategy, assessment, migration, and implementations.
Work with customers to deploy, manage, and audit best practices for cloud products.
REQUIREMENTS:
Demonstrated experience designing, implementing, and supporting enterprise-grade technical solutions in the cloud for meeting complex business data requirements.
Experience with Databricks and using Spark for data processing.
Experience with Azure Data Factory – ADF.
Advanced experience with different query languages (i.e. T-SQL, PostgreSQL, PL-SQL).
Experience designing and building data marts, warehouses, customer profile databases, etc.
Experience with data modeling, table design, and mapping business needs to data structures.
Experience with Azure Data Lake, Azure SQL Data Warehouse, and Cosmos DB are a plus.
Experience with Data Management Gateway, Azure Storage Options, Stream Analytics, and Event Hubs is a plus.
Experience with other cloud based big data architectures is a plus.
EXPERIENCE/EDUCATION:
5 to 10 years of professional experience in the information technology industry.
BS in Computer Science or equivalent education/professional experience is required.
PERSONAL ATTRIBUTES:
Strong and innovative approach to problem solving and finding solutions.
Excellent communicator (written and verbal, formal, and informal).
Flexible and proactive/self-motivated working style with strong personal ownership.
Ability to multi-task and prioritize under pressure.
Ability to work independently with minimal supervision as well as in a team environment.
Flexibility and mobility is required to deliver this role as there may be requirements to spend time onsite with our clients to enable delivery of the first class services we pride ourselves in.

LI-SNNA*
GD-POST"
27,"Senior Associate, Data Engineering (Azure)","Houston, TX",Houston,TX,None Found,None Found,None Found,None Found,None Found,None Found,None Found,"This position is for a Senior Associate Data Engineer within our North American team who will be designing and implementing data projects for our clients.
The qualified individual will work closely with clients to ensure that data technologies meet their needs and keep pace with the rapid changes in Publicis Sapient’s operations and policies/procedures.
RESPONSIBILITIES:
Lead, design, develop, and deliver large-scale Azure data systems, data processing, and data transformation projects.
Execute technical feasibility assessments and project estimates for moving databases and data processing to Azure.
Design and advocate solutions using modern cloud technologies, design principles, integration points, and automation methods.
Mentor and share knowledge with customers as well as provide architecture reviews, discussions, and prototypes.
Participate in overall engagement from strategy, assessment, migration, and implementations.
Work with customers to deploy, manage, and audit best practices for cloud products.
REQUIREMENTS:
Demonstrated experience designing, implementing, and supporting enterprise-grade technical solutions in the cloud for meeting complex business data requirements.
Experience with Databricks and using Spark for data processing.
Experience with Azure Data Factory – ADF.
Advanced experience with different query languages (i.e. T-SQL, PostgreSQL, PL-SQL).
Experience designing and building data marts, warehouses, customer profile databases, etc.
Experience with data modeling, table design, and mapping business needs to data structures.
Experience with Azure Data Lake, Azure SQL Data Warehouse, and Cosmos DB are a plus.
Experience with Data Management Gateway, Azure Storage Options, Stream Analytics, and Event Hubs is a plus.
Experience with other cloud based big data architectures is a plus.
EXPERIENCE/EDUCATION:
5 to 10 years of professional experience in the information technology industry.
BS in Computer Science or equivalent education/professional experience is required.
PERSONAL ATTRIBUTES:
Strong and innovative approach to problem solving and finding solutions.
Excellent communicator (written and verbal, formal, and informal).
Flexible and proactive/self-motivated working style with strong personal ownership.
Ability to multi-task and prioritize under pressure.
Ability to work independently with minimal supervision as well as in a team environment.
Flexibility and mobility is required to deliver this role as there may be requirements to spend time onsite with our clients to enable delivery of the first class services we pride ourselves in.

LI-SNNA*
GD-POST"
28,Data Engineer - Spark Data Engineer,"Spring, TX",Spring,TX,None Found,None Found,None Found,"
Extensive experience using statistics, mathematics, algorithms and programming languages to solve big data challenges.
Fluent in structured and unstructured data, its management, and modern data transformation methodologies.
Ability to define and create complex models to pull valuable insights, predictions and innovation from data.
Effectively and creatively tell stories and create visualizations to describe and communicate data insights.
Strong analytical and problem-solving skills.
Excellent written and verbal communication skills; mastery in English and local language.
Ability to effectively communicate data insights and negotiate options at senior management levels.","
Mines data using modern tools and programming languages.
Defines and implements models to uncover patterns and predictions creating business value and innovation.
Manages relationships with business partners to evaluate and foster data driven innovation, provide domain-specific expertise in cross-organization projects/initiatives.
Ties insights into effective visualizations communicating business value and innovation potential.
Maintains proficiency within the data science domain by keeping up with technology and trend shifts. Contributes to industry data science domain initiatives.
Leads project team(s) of data science professionals, assuring insights are communicated regularly and effectively, reviewing designs, models and accuracy and data compliance.
Collaborates and communicates with project team regarding project progress and issue resolution.
Communicates and drives data insights/innovation into the business.
Represents the data science team for all phases of larger and more-complex development projects.
Provides guidance, training and mentoring to less experienced staff members.
Strong Scala, Python programming experience is a must
Databricks Spark experience","
Bachelor's, Master's or PHD degree in Mathematics, Economics, Physics, Computer Science, or equivalent.
6-10 years’ professional experience.",None Found,"Overview
HP Engineering entails utilizing established engineering disciplines to test and safeguard the manufacturing standards for new and existing HP products. Working with internal stakeholders and outsourced development partners, you will develop and execute solutions to resolve any existing issues, ensuring that our operating processes are cost-effective and uphold the highest quality.
Full Time
Level: Middle
Travel: Minimal (if any)
Success profile
What makes a successful Engineer at HP? Check out the top traits we’re looking for and see if you have the right mix.

Communicator
Deadline-oriented
Entrepreneurial
Open-minded
Problem-solver
Team Player
Rewards
Medical
Holidays
Flex Time
Life and Disability Insurance
Work/Life Balance
Onsite Gym/ Fitness Center
We are looking for a talented Spark Data Engineer, to join a great team at HP! In this role, you'll bring advanced subject matter knowledge to solve complex business issues, and we'll look to your Spark data engineering subject matter expertise! In this role, you will frequently contribute to the development of new ideas and methods. You will also get to work on complex, interesting problems, where analysis of situations or data requires an in-depth evaluation of multiple factors. We'd love for you to lead and/or provide expertise to functional project teams, and you may also participate in cross-functional initiatives.
We'll rely on your experience and expertise to provide direction and guidance to process improvements, including in helping to establish/advise on policies. You'll have the opportunity to work with a number of external clients, helping to provide them with effective solutions and insights. We'll trust you to utilize significant independent judgment within broadly defined policies and practices, including determining the best method for accomplishing work and achieving objectives. We'd love for you to also use your deep experience to occasionally help mentor and guide less experienced employees. Key skills will by Python, Scala, and Databricks Spark, as applied in a data engineering capacity. If you love data engineering as much as we do, we'd love to learn more about you!
Responsibilities
Mines data using modern tools and programming languages.
Defines and implements models to uncover patterns and predictions creating business value and innovation.
Manages relationships with business partners to evaluate and foster data driven innovation, provide domain-specific expertise in cross-organization projects/initiatives.
Ties insights into effective visualizations communicating business value and innovation potential.
Maintains proficiency within the data science domain by keeping up with technology and trend shifts. Contributes to industry data science domain initiatives.
Leads project team(s) of data science professionals, assuring insights are communicated regularly and effectively, reviewing designs, models and accuracy and data compliance.
Collaborates and communicates with project team regarding project progress and issue resolution.
Communicates and drives data insights/innovation into the business.
Represents the data science team for all phases of larger and more-complex development projects.
Provides guidance, training and mentoring to less experienced staff members.
Strong Scala, Python programming experience is a must
Databricks Spark experience
Knowledge & Skills
Extensive experience using statistics, mathematics, algorithms and programming languages to solve big data challenges.
Fluent in structured and unstructured data, its management, and modern data transformation methodologies.
Ability to define and create complex models to pull valuable insights, predictions and innovation from data.
Effectively and creatively tell stories and create visualizations to describe and communicate data insights.
Strong analytical and problem-solving skills.
Excellent written and verbal communication skills; mastery in English and local language.
Ability to effectively communicate data insights and negotiate options at senior management levels.
Scope & Impact
Collaborates with peers, junior engineers, data scientists and project team.
Typically interacts with high- level Individual Contributors, Managers, Directors and Program Core Teams.
Leads multiple projects requiring data engineering solutions development.
Drives design innovation.
Education & Experience
Bachelor's, Master's or PHD degree in Mathematics, Economics, Physics, Computer Science, or equivalent.
6-10 years’ professional experience.
#Li-Post"
29,Sr. Data Engineer (Houston),"Houston, TX",Houston,TX,None Found,None Found,None Found,None Found,None Found,None Found,None Found,"Darby Consulting is looking for an experienced Sr. Data Engineer with Azure experience to support our client in the oil and gas industry. The Sr. Data Engineer will have a minimum of four years working with big data processing utilizing Azure Dev Ops, Azure Data Factory and Azure Data Warehouse in an Agile development environment. This position is offered to candidates based in the Houston-area on a 1099 Independent Contractor or W2-Hourly Employee basis. Excellent pay, relocation assistance, top-tier client, excellent work environment, long-term assignment and flexible work schedule are just a few of the many perks for this opportunity.

WORK HOURS AND LOCATION
Services to be provided in Houston, TX during normal business hours (typically Monday through Friday from 8:00AM to 5:00PM, excluding holidays when the client office is closed).

ABOUT DARBY CONSULTING

If you've worked for a few consulting firms by now, you know there's a lot of ""great"" places to work. We've worked with many of them too. But, let's be honest: if everyone claims to be great, then great really is just the new average.

Our goal is to build an amazing place to work. That means designing and building a company that goes beyond average. We want amazing. For us, Amazing is the opportunity to join a growing company of highly talented and experienced professionals. It's about learning and working alongside great people who care as much about you and your success as they do about their clients. Amazing is about flexibility, work-life balance and opportunities to deliver solutions for respected companies who value your knowledge, skills and experience. If you want great, there's a lot of companies out there. But if you want amazing, welcome to Darby Consulting!

WHAT WE DO

Darby Consulting is a full-service IT consulting firm specializing in IT project management, systems design and deployment of software and hardware-related projects. Supporting clients in the energy, government and education sectors, Darby helps growing organizations to maximize the value from their IT projects by integrating experienced and specialized IT project professionals, success-based methodology and cloud-based project management tools at affordable rates for growing organizations."
30,Google Technical Architect,"Houston, TX 77006",Houston,TX,77006,None Found,"Minimum 5 years of Consulting or client service delivery experience on Google GCP
",DevOps on an GCP platform. Multi-cloud experience a plus.,None Found,None Found,"Proven ability to build, manage and foster a team-oriented environment
Proven ability to work creatively and analytically in a problem-solving environment
Desire to work in an information systems environment
Excellent communication (written and oral) and interpersonal skills
Excellent leadership and management skills","Are you ready to step up to the New and take your technology expertise to the next level?
Join Accenture and help transform leading organizations and communities around the world. The sheer scale of our capabilities and client engagements, in conjunction with the way we collaborate, operate and deliver value, provides an unparalleled opportunity to grow and advance. Choose Accenture and make delivering innovative work part of your extraordinary career.
People in our Client Delivery & Operations career track drive delivery and capability excellence through the design, development and/ or delivery of a solution, service, capability or offering. They grow into delivery-focused roles, and can progress within their current role, laterally or upward. We partner with our clients to help transform their data into an ‘Appreciating Business Asset.’

As part of our Data Business Group, you will lead technology innovation for our clients through robust delivery of world-class solutions. You will build better software better! There will never be a typical day and that’s why people love it here. The opportunities to make a difference within exciting client initiatives are unlimited in the ever-changing technology landscape. You will be part of a highly collaborative and growing network of technology and data experts, who are taking on today’s biggest, most complex business challenges using the latest data and analytics technologies. We will nurture your talent in an inclusive culture that values diversity. You will have an opportunity to work in roles such as Data Scientist, Data Engineer, or Chief Data Officer covering all aspects of Data including Data Management, Data Governance, Data Intelligence, Knowledge Graphs, and IoT. Come grow your career in Technology at Accenture!

The Google Cloud Platform (GCP) Technical Architect Delivery is responsible for delivering Data On Cloud projects for Google GCP based deals. The ideal candidate would also be responsible for developing and delivering Google GCP cloud solutions to meet todays high demand in areas such as AI/ML, IoT, advanced analytics, open source, enterprise collaboration, microservices, serverless, etc. The Regional Google GCP Technical Architect is a highly performant GCP Architect responsible for delivering Cloud based Big Data and Analytical Solutions to our clients. Responsibilities include evangelizing data on cloud solutions with customers, leading Business and IT stakeholders through designing a robust, secure and optimized GCP architectures and ability to be hands-on delivering the target solution. This role will work with customers and leading internal data engineers in delivering big data soltuions on cloud. Using Google GCP public cloud technologies, our Technical Architect professionals implement state of the art, scalable, high performance Data On Cloud solutions that meet the need of todays corporate and emerging digital applications.

Role & Responsibilities:Work with Sales and Bus Dev teams in providing Data and GCP Technical Architecture expertise while pursuing client opportunities.Ability to build cloud architectures and provide prescriptive guidance across network, storage, Big Data Platform Services, serverless architectures, hadoop ecosystem, vendor products, RDBMS & NoSQL databases and security.Participate in deep architectural discussions to build confidence and ensure customer success when building new solutions and migrating existing data applications on the GCP platform.Conduct full technical discovery, identifying pain points, business and technical requirements, “as is” and “to be” scenarios.
- Assess the full technology stack of services required including PaaS (Platform as-a-service), IaaS (Infrastructure as-a-service), SaaS (software as-a-service), operations, management and automation.Lead the discussions and early analysis of the cloud concepts as it relates to Clients’s Journey to Cloud methodology so that clear use cases are developed and prioritized as well as transitioning these concepts from ideas to proof-of-concepts all the way to production delivery with the full support of the appropriate teams.Compare solution alternatives across both technical and business parameters which support the define cost and service requirements.Apply Accenture methodology, Accenture reusable assets, and previous work experience to delivery consistently high-quality work.Stay educated on new and emerging technologies/patterns/methodologies and market offerings that may be of interest to our clients.Adapt to existing methods and procedures to create possible alternative solutions to moderately complex problems.Understand the strategic direction set by senior management as it relates to team goals.Use considerable judgment to define solution and seeks guidance on complex problems.Prepare and deliver product messaging in an effort to highlight value proposition and unique differentiators.Primary upward interaction is with direct supervisor. May interact with peers and/or management levels at a client and/or within Accenture. Establish methods and procedures
on new assignments with guidance.
Manage small teams of delivery engineers successfully delivering work efforts (if in an independent contributor role) at a client or within Accenture.
Extensive travel may be required

Basic Qualifications
Minimum 5 years of Consulting or client service delivery experience on Google GCP
Minimum 10 years of experience in big data, database and data warehouse architecture and delivery
Bachelors degree or 12 years previous professional experience
Able to travel 100% (M-TH)
Minimum of 5 years of professional experience in 2 of the following areas:
Solution/technical architecture in the cloud
Big Data/analytics/information analysis/database management in the cloud
IoT/event-driven/microservices in the cloud
Experience with private and public cloud architectures, pros/cons, and migration considerations.
Extensive hands-on experience implementing data migration and data processing using GCP services etc.:
Data Ingestion : Cloud Pub/Sub, Data Transfer Service, Cloud IoT Core
Streaming Data Pipeline : Cloud Dataflow, Cloud Dataproc, Cloud Dataprep, Apache Beam
Data Warehousing & Data Lake : BigQuery, Cloud Storage
Advanced Analytics : Cloud ML engine, Google Data Studio, Tensorflow & Sheets

Familiarity with the Technology stack available in the industry for data management, data ingestion, capture, processing and curation: Kafka, StreamSets, Attunity, GoldenGate, Map Reduce, Hadoop, Hive, Hbase, Cassandra, Spark, Flume, Hive, Impala, etc.
Bachelors or higher degree in Computer Science or a related discipline.

Candidate Must Have Completed The Following Certifications
Certified GCP Solutions Architect - Associate
Certified GCP Solutions Architect – Professional (Nice to have)
Certified GCP Big Data Specialty (Nice to have)
Certified GCP AI/ML Specialty (Nice to have)

Nice-to-Have Skills/Qualifications:
DevOps on an GCP platform. Multi-cloud experience a plus.
Experience developing and deploying ETL solutions on GCP
Strong in Java, C##, Spark, PySpark, Unix shell/Perl scripting
Familiarity with the technology stack available in the industry for metadata management: Data Governance, Data Quality, MDM, Lineage, Data Catalog etc.
- Multi-cloud experience beyond GCP a plus - AWS and Azure

Professional Skill Requirements
Proven ability to build, manage and foster a team-oriented environment
Proven ability to work creatively and analytically in a problem-solving environment
Desire to work in an information systems environment
Excellent communication (written and oral) and interpersonal skills
Excellent leadership and management skills

All of our professionals receive comprehensive training covering business acumen, technical and professional skills development. You'll also have opportunities to hone your functional skills and expertise in an area of specialization. We offer a variety of formal and informal training programs at every level to help you acquire and build specialized skills faster. Learning takes place both on the job and through formal training conducted online, in the classroom, or in collaboration with teammates. The sheer variety of work we do, and the experience it offers, provide an unbeatable platform from which to build a career.

Applicants for employment in the US must have work authorization that does not now or in the future require sponsorship of a visa for employment authorization in the United States and with Accenture (i.e., H1-B visa, F-1 visa (OPT), TN visa or any other non-immigrant status).

Candidates who are currently employed by a client of Accenture or an affiliated Accenture business may not be eligible for consideration.

Accenture is a Federal Contractor and an EEO and Affirmative Action Employer of Females/Minorities/Veterans/Individuals with Disabilities.

Equal Employment Opportunity

All employment decisions shall be made without regard to age, race, creed, color, religion, sex, national origin, ancestry, disability status, veteran status, sexual orientation, gender identity or expression, genetic information, marital status, citizenship status or any other basis as protected by federal, state, or local law.

Job candidates will not be obligated to disclose sealed or expunged records of conviction or arrest as part of the hiring process.

Accenture is committed to providing veteran employment opportunities to our service men and women."
31,Data Engineer Southwest,"Houston, TX 77006",Houston,TX,77006,None Found,None Found,None Found,None Found,None Found,None Found,"We are:
Applied Intelligence, the people who love using data to tell a story. We’re also the world’s largest team of data scientists, data engineers, and experts in machine learning and AI. A great day for us? Solving big problems using the latest tech, serious brain power, and deep knowledge of just about every industry. We believe a mix of data, analytics, automation, and responsible AI can do almost anything—spark digital metamorphoses, widen the range of what humans can do, and breathe life into smart products and services. Want to join our crew of sharp analytical minds? Visit us here to find out more about Applied Intelligence.

You are:
An expert engineer with an eye for AI. You want to change how the world works and lives by taking AI out of the lab and into everyday life.

The work:
You’ll be part of a team with incredible end-to-end digital transformation capabilities that shares your passion for digital technology and takes pride in making a tangible difference. If you want to contribute on an incredible array of the biggest and most complex projects in the digital space, consider a career with Accenture Digital.

Here’s what you need:
Minimum 2+ years of experience in designing, implementing large scale data pipelines for data curation and analysis, operating in production environments using Spark, pySpark, SparkSQL, with Java, Scala or Python on premise or on Cloud (AWS, Google or Azure)
Minimum 1 year of designing and building performant data tiers (or refactoring existing ones), that supports scaled AI and Analytics, using different Cloud native data stores on AWS (Kinesis, S3. GLUE, DynamoDB etc.) or Azure (HDInsights, AzureData Factory) or GCP (DataProc, PubSub, BigQuery) as well as using NoSQL and Graph Stores.
Minimum 1 year of designing and building streaming data ingestion, analysis and processing pipelines using Kafka, Kafka Streams, Spark Streaming and similar cloud native technologies
Minimum 1-year performance engineering, profiling, debugging very large big data and ML production solutions on Spark and native Cloud technologies
Bonus points if:

Minimum 6 months of experience in implementation with Databricks.
Minimum 1 year of designing and building secured and governed Big Data ETL pipelines, using Talend or Informatica technologies; for data curation and analysis of large le production deployed solutions.
Experience implementing smart data preparation tools such as Palate, Trifacta, Tamr for enhancing analytics solutions.
Minimum 1 year of building Business Data Catalogs or Data Marketplaces for powering business analytics using technologies such as Alation, Collibra, Informatica or custom solutions


Important information

Applicants for employment in the US must have work authorization that does not now or in the future require sponsorship of a visa for employment authorization in the United States and with Accenture.

Accenture is an EEO and Affirmative Action Employer of Females/Minorities/Veterans/Individuals with Disabilities.

Equal Employment Opportunity

All employment decisions shall be made without regard to age, race, creed, color, religion, sex, national origin, ancestry, disability status, veteran status, sexual orientation, gender identity or expression, genetic information, marital status, citizenship status or any other basis as protected by federal, state, or local law.

Job candidates will not be obligated to disclose sealed or expunged records of conviction or arrest as part of the hiring process.

Accenture is committed to providing veteran employment opportunities to our service men and women.

Candidates who are currently employed by a client of Accenture or an affiliated Accenture business may not be eligible for consideration."
32,Data Engineer,"Houston, TX",Houston,TX,None Found,None Found,None Found,"
Thrives in a fast-paced, startup environment, is adaptable and versatile
3+ years of python
Experience in python data libraries (pandas, luigi, dask, etc)
Solid understanding of data structures and algorithms
Building distributed data systems
",None Found,None Found,None Found,"
Houston, TX
Data department

Alice helps small business owners launch and grow. Since launching in May 2017, our goal is to help 6 million owners succeed through our free digital platform,
helloalice.com [http://www.helloalice.com]. Alice serves all entrepreneurs and we wholeheartedly believe that if underserved business owners -- women, people of color, veterans, the LGBTQ+ community, entrepreneurs with disabilities, people in small towns, and immigrants -- are provided better access to resources, they can change the world. Our vision is to be financially successful while making a positive impact on economies and job creation.

Alice is growing a diverse team, and we’re looking for a Data Engineer to help us fulfill our mission of connecting all entrepreneurs to the resources they need to grow and scale their businesses. We’re leading a movement to connect every founder, regardless of geography, capitalization, prior experience, or cultural constraints, to the experts, tools, knowledge, and communities that will propel their companies forward. Alice is a Series A-backed company with teams in Houston, TX and San Francisco, CA. We are helping hundreds of thousands of owners a week in all fifty states. Led by co-founders Elizabeth Gore and Carolyn Rodz, we are hiring self-starters who can build the plane while flying it.

Engineering is key to scaling our mission, and we’re growing our data engineering team to build new features, improve our AI, and better serve entrepreneurs from around the world. We believe in working fast, but smart, and work toward measurable results. As the first member of the data team you will be able to have a huge impact on the technologies, architecture, and tools we use. Data is key to Alice’s success and this position will have big visibility throughout the organization.

Required Skills/Experiences:

Thrives in a fast-paced, startup environment, is adaptable and versatile
3+ years of python
Experience in python data libraries (pandas, luigi, dask, etc)
Solid understanding of data structures and algorithms
Building distributed data systems

Desired Skills / Experiences

AWS and Google Cloud management
Ansible, Terraform or other cloud orchestration libraries
RabbitMQ, Kafka or other queuing systems
gRPC or other RPC libraries
Protobufs
Machine learning and statistics libraries
Scraping websites for relevant information

Our company values are important to us. We thought we would share them with you as someone interested in joining our team.

INNOVATE ALWAYS. Seek out unique perspectives, diverse experiences, and disconnected dots. These are the seeds of big ideas and exceeded expectations, made even better through constant collaboration.
EMBRACE FAILURE. Learn from the inevitable failures that result from innovation, and move forward quickly with a pioneering spirit. Champion the doers, celebrate their contributions to the team, and don't shy away from difficult conversations.
DRIVE THE MISSION FORWARD. Everything we do is through the inclusive lens of helping all business owners launch and grow, regardless of who they are or where they come from. Hold yourself to the highest standards of quality and equality in everything you do.
EVERYONE TAKES OUT THE TRASH. No task is too small for the success of our company or our owners. Always be thoughtful and practice extreme kindness toward our team, partners, and owners.
SIMPLIFY AND COMMIT. Maintain a bias toward efficiency, acting quickly and testing often. Recognize the opportunity cost of every decision, commit to deadlines, be on time, and search for simple, smart solutions.

Alice is an Equal Employment Opportunity employer that will consider all qualified applicants, regardless of race, color, religion, gender, sexual orientation, marital status, gender identity or expression, national origin, genetics, age, disability status, protected veteran status, or any other characteristic protected by applicable law.

www.helloalice.com [http://www.helloalice.com/] // Twitter
[https://twitter.com/HelloAlice] // Facebook
[http://www.facebook.com/aliceconnects] // Instagram
[https://www.instagram.com/helloalice_com/] // LinkedIn
[https://www.linkedin.com/company/25067438/]"
