,Title,Location,City,State,Zip,Country,Qualifications,Skills,Responsibilities,Education,Requirement,FullDescriptions
0,Senior Machine Learning Engineer,"Chicago, IL",Chicago,IL,None Found,None Found,None Found,"
Master's or PhD in Statistics, Mathematics, Computer Science, Economics, or related quantitative field.
3+ years of experience demonstrating trajectory of professional growth in data science or machine learning
Skilled in the the following:
Machine learning, data science modeling - using scikit-learn, tensorflow, pytorch, and relevant technologies
Python - scikit-learn, pandas, numpy
Python unit testing framework - pytest, nosetest, or other testing frameworks
AWS ecosystem, and preferably with docker and/or Linux/Unix experience
Relational databases and SQL including MySQL, Postgres, SQL Server, Oracle, or equivalent
Web service architecture, e.g. REST, SOAP, etc.
Version control systems using Git, Bitbucket, SVN, or Team Foundation
Software engineering practices
Strong analytical and problem solving ability with strong attention to detail and accuracy.
","
Develop data and predictive models for solving business problems, and in improving GoHealth's software products and business processes
Evangelize software engineering best practices and proactively identify technical debt and other issues related to improving SLA
Seek out ways to automate and accelerate development of data-driven products, and then implementing them
Maintain and look to improve our Machine Learning Deployment Pipeline on AWS Sagemaker
Collaborate with business stakeholders, business operations, and product engineering teams in analyzing business problems, building and testing solutions and data models, and implementing the algorithms and results of the models
Work closely with Data Engineers in designing the schemas and data pipelines needed for downstream use by regression models and jobs
Author formal and informal reports that effectively communicate the models and the results to both technical and non-technical audiences
Confer with Data Science, Product, and Engineering stakeholders:
To define and implement new data-powered products, and predictive models
To deploy and maintain them in production as RESTful services and/or batch jobs
",None Found,None Found,"We're a data driven organization that looks to leverage data to help drive future business strategy and operations across the organization. We're seeking a talented Senior Machine Learning Engineer who will support GoHealth's marketing, business operations, product engineering, and executive teams using knowledge discovered from the analysis and modeling of various sets of GoHealth's data. As a senior member of our data team, you will also be responsible for contributing to the deployment, maintenance and continual improvement of our real-time production models, as well as the underlying AWS deployment pipeline.

Responsibilities:

Develop data and predictive models for solving business problems, and in improving GoHealth's software products and business processes
Evangelize software engineering best practices and proactively identify technical debt and other issues related to improving SLA
Seek out ways to automate and accelerate development of data-driven products, and then implementing them
Maintain and look to improve our Machine Learning Deployment Pipeline on AWS Sagemaker
Collaborate with business stakeholders, business operations, and product engineering teams in analyzing business problems, building and testing solutions and data models, and implementing the algorithms and results of the models
Work closely with Data Engineers in designing the schemas and data pipelines needed for downstream use by regression models and jobs
Author formal and informal reports that effectively communicate the models and the results to both technical and non-technical audiences
Confer with Data Science, Product, and Engineering stakeholders:
To define and implement new data-powered products, and predictive models
To deploy and maintain them in production as RESTful services and/or batch jobs

Skills and Experience:

Master's or PhD in Statistics, Mathematics, Computer Science, Economics, or related quantitative field.
3+ years of experience demonstrating trajectory of professional growth in data science or machine learning
Skilled in the the following:
Machine learning, data science modeling - using scikit-learn, tensorflow, pytorch, and relevant technologies
Python - scikit-learn, pandas, numpy
Python unit testing framework - pytest, nosetest, or other testing frameworks
AWS ecosystem, and preferably with docker and/or Linux/Unix experience
Relational databases and SQL including MySQL, Postgres, SQL Server, Oracle, or equivalent
Web service architecture, e.g. REST, SOAP, etc.
Version control systems using Git, Bitbucket, SVN, or Team Foundation
Software engineering practices
Strong analytical and problem solving ability with strong attention to detail and accuracy.

Additional Information:

Open vacation policy
401k program with company match
Medical, dental, vision, and life insurance benefits
Flexible spending accounts
Subsidized gym memberships
Commuter and transit benefits
Professional growth opportunities
Casual dress code
Generous employee referral bonuses
Happy hours, ping-pong tournaments, and more company-sponsored events
GoHealth is an Equal Opportunity Employer

"
1,"Associate Cloud Developer, A2C","Chicago, IL",Chicago,IL,None Found,None Found,None Found,None Found,None Found,None Found,None Found,"Bachelor’s Degree in a STEM related field such as computer science, computer engineering, or equivalent experienceFamiliarity with one of the following programming languages: Java, Python, Ruby, Node.js, C#, or C++Familiarity with Networking fundamentals, Security, Databases (Relational and/or NoSQL), Operating Systems (Unix, Linux, and/or Windows)

Amazon Web Services (AWS) is looking for motivated technologists who possess a unique balance of technical depth, business knowledge, and strong interpersonal skills. You will partner with customers and several AWS teams to craft highly scalable, flexible and resilient cloud architectures that address customer business problems. As a trusted customer advocate, you will help organizations understand best practices around cloud-based solutions, and how to migrate existing workloads to the cloud. You will have the opportunity to help shape and execute a strategy to build min- share and broad use of AWS within organizations.

Professional Services
At AWS, we have a credo of “Work hard. Have fun. Make history”. In this role, you will love what you do and instinctively know how to make work fun. You will be dynamic, creative, and willing to take on any challenge and make a big impact.

Here are some of the qualities we are searching for:
Be great fun to work with. At AWS, we have a credo of “Work hard. Have fun. Make history”. In this role, you will love what you do, and instinctively know how to make work fun. You will be dynamic and creative, and willing to take on any challenge and make a big impact.
An affinity for the new and unknown. We are always experimenting with innovative technologies including cloud computing, Machine Learning, and Internet of Things.
Enjoy working with customers of all shapes and sizes. You will have a passion for educating, training, designing, and building solutions for a diverse and challenging set of customers ranging from small businesses to large enterprises.
During your first year as an Associate Cloud Developer, you will receive instruction and on-the-job training on a range of AWS services and solutions. By the end of your first year, you will choose a specialty track suited to your strengths and preferences (subject to business availability). These tracks include:

Application Developer – AppDev resources are specialists in designing applications that run natively in the cloud. They are experts in building programs that run on any number of platforms including virtualized instances, containers, or serverless architecture.
Cloud Infrastructure Architect – An expert in cloud-based networking and system rollouts. CIAs specialize in network performance, infrastructure provisioning, and building Application Programming Interfaces (APIs).
DevOps Specialist – A leader in building advanced computing systems that harness continuous integration/continuous deployment pipelines and utilize the strengths of cloud computing to build scalable and economical systems for customers.
Data Lake & Analytics Specialist – This role will specifically focus on data processing capabilities and helping our customers and partners to remove the constraints that prevent our customers from leveraging their data to develop business insights. Engagements will include migration of existing applications and development of new applications using AWS cloud services.
Data Warehouse & Massive Parallel Processing Specialist – This role will specifically focus on large scale data warehousing and database migration capabilities. Engagements will include Redshift implementations and helping customers to migrate from their existing on-premises data warehouses using other databases to Amazon Redshift.
Data & Machine Learning Engineer – In this role, you will work with our partners and customers with a focus on our AWS Analytics and ML services offering such Amazon Kinesis, AWS Glue, Amazon Redshift, Amazon EMR, Athena, Amazon SageMaker, and more. You will help our customers and partners to remove the constraints that prevent them from leveraging their data to develop business insights.

Ability to travel to provide Professional Services is required for this role.

Troubleshooting: Experience with QA, testing, helpdesk, IT support, or any technician or quality assurance type workCloud Awareness: Experience implementing a cloud-based technology solution in a school project or while working for a companyExperience with systems administration (Linux/Windows) or network administration (DNS, IPsec, BGP, VPN, Load Balancing)Passion for experiencing new technologies, cultures, and locations in the US and around the world
Amazon is an Equal Opportunity Employer – Minority / Women / Disability / Veteran / Gender Identity / Sexual Orientation / Age.

Pursuant to the San Francisco Fair Chance Ordinance, we will consider for employment qualified applicants with arrest and conviction records.

Pursuant to the Los Angeles Fair Chance Ordinance, we will consider for employment qualified applicants with arrest and conviction records."
2,Machine Learning Engineer Lead,"Chicago, IL 60626",Chicago,IL,60626,None Found,None Found,None Found,"
Independently develop predictive models, leveraging internal and external data, to optimize sales performance, customer experience, and marketing spend. Build models in a cloud environment, and work with the team to ensure any business-accepted models can be deployed to production.
Understand and define business problems and identify the data needed to solve problems.
Coordinate with business analysts and data engineers to gather data for analysis. Lead testing of data quality and completeness for modeling attributes.
Produce written reports and recommendations for internal consumption, including problem statement, methods, interpretation of findings, and business implications.
Provide ad-hoc support to internal clients for data mining and other analytics.
Mentor junior data scientists and data analysts.
Technology is always changing. Continue improving machine learning and programming skills.",None Found,"
Interested candidates must submit an application and resume/CV online to be considered
Must be 18 years of age or older","Gallagher is a global leader in insurance, risk management and consulting services. We keep businesses and institutions running, and enable individuals and families to rebuild their lives. We live a culture defined by The Gallagher Way, our set of shared values and guiding tenets. It’s a culture driven by our people, almost 30,000 strong, serving our clients with customized solutions that will protect them and fuel their futures.


Good companies offer you a career. A great company will offer you a sense of purpose. And that’s the Gallagher difference. When you join us, you become part of a close-knit and collaborative culture that’s making a difference in the lives of others around the globe. We’re proud to have been recognized by Ethisphere as one of the World’s Most Ethical Companies each year for seven years running. And, Forbes named Gallagher as one of the 2000 best places to work in the world.

Position Summary
The Machine Learning Engineer Lead will partner with sales, marketing, and operations for Gallagher’s Brokerage segment. You will leverage company and external data to develop predictive models and other insights that provide business leaders with suggestions for revenue and process optimization. The ideal candidate will have proven experience managing large data sets and developing predictive models. Good communication skills are essential as you will provide highly technical, analytical assessments to team leaders.
Responsibilities:
Independently develop predictive models, leveraging internal and external data, to optimize sales performance, customer experience, and marketing spend. Build models in a cloud environment, and work with the team to ensure any business-accepted models can be deployed to production.
Understand and define business problems and identify the data needed to solve problems.
Coordinate with business analysts and data engineers to gather data for analysis. Lead testing of data quality and completeness for modeling attributes.
Produce written reports and recommendations for internal consumption, including problem statement, methods, interpretation of findings, and business implications.
Provide ad-hoc support to internal clients for data mining and other analytics.
Mentor junior data scientists and data analysts.
Technology is always changing. Continue improving machine learning and programming skills.

Required:
Degree in quantitative field, such as data science, statistics, mathematics, computer science, finance, or economics.
5 years of experience using statistical modeling and/or machine learning techniques to build models that influence company decision-making. Proficient with building data pipelines from larger data sets.
Excellent problem solving skills as well as critical thinking and conceptual thinking abilities. Intermediate to advanced proficiency in SQL and R or Python.
Experience with cloud tools and structures, preferably Azure.
Experience with distributed data and computing tools: MapReduce, Hadoop, Hive, Spark, MySQL, etc.
Nice to Have:
Ability to provide written and oral interpretation of highly specialized terms and data to team members.
Advanced proficiency in a programming language such as R or Python and experience with SQL and NoSQL databases.
5 years developing data pipelines from larger data sets using cloud-based tools (i.e. AWS or Azure) and experience with distributed computing technology such as Hadoop, Spark, Hive, etc.
Experience deploying models in a production environment including writing tests to improve code coverage, using version control (e.g. Git), and levering CI/CD tools (i.e. Jenkins, CircleCI, Travis CI, etc.).
Continuous learner and passion for data science which could include writing blog posts, attending/speaking at conferences, contributing to open source, etc.
Experience mentoring and developing junior data scientists.
Experience working in an agile environment and using agile software (Jira, Asana, Trello, etc.).
Master’s or PhD in quantitative field, such as data science, statistics, mathematics, computer science, finance, or economics.
Work Traits:
Good communication skills to provide highly technical, analytical assessments to team leaders.
U.S. Eligibility Requirements:
Interested candidates must submit an application and resume/CV online to be considered
Must be 18 years of age or older
Must be willing to submit to a background investigation; any offer of employment is conditioned upon the successful completion of a background investigation
Must have unrestricted work authorization to work in the United States. For U.S. employment opportunities, Gallagher hires U.S. citizens, permanent residents, asylees, refugees, and temporary residents. Temporary residence does not include those with non-immigrant work authorization (F, J, H or L visas), such as students in practical training status. Exceptions to these requirements will be determined based on shortage of qualified candidates with a particular skill. Gallagher will require proof of work authorization
Must be willing to execute Gallagher’s Employee Agreement or Confidentiality and Non-Disclosure Agreement which requires, among other things, post-employment obligations relating to non-solicitation, confidentiality and non-disclosure
Gallagher offers competitive salaries and benefits, including: medical/dental/vision plans, life and accident insurance, 401(K), employee stock purchase plan, educational expense reimbursement, employee assistance program, flexible work hours (availability varies by office and job function) training programs, matching gift program, and more.

Gallagher believes that all persons are entitled to equal employment opportunity and does not discriminate against nor favor any applicant because of race, sex, color, disability, national origin, religion, creed, age, marital status, citizenship, veteran status, gender, gender identity / expression, actual or perceived sexual orientation, or any other protected characteristic. Equal employment opportunity will be extended in all aspects of the employer-employee relationship, including, but not limited to, recruitment, hiring, training, promotion, transfer, demotion, compensation, benefits, layoff, and termination. In addition, Gallagher will make reasonable accommodations to known physical or mental limitations of an otherwise qualified applicant with a disability, unless the accommodation would impose an undue hardship on the operation of our business.

#LI-KS1"
3,Machine Learning Engineer (2-3 Years of Exp),"Chicago, IL 60290",Chicago,IL,60290,None Found,None Found,None Found,None Found,None Found,None Found,"Where good people build rewarding careers.
Think that working in the insurance field can’t be exciting, rewarding and challenging? Think again. You’ll help us reinvent protection and retirement to improve customers’ lives. We’ll help you make an impact with our training and mentoring offerings. Here, you’ll have the opportunity to expand and apply your skills in ways you never thought possible. And you’ll have fun doing it. Join a company of individuals with hopes, plans and passions, all using and developing our talents for good, at work and in life.
Job Description
The Machine Learning engineer is a hands-on, forward engineering role in the field of machine learning, information retrieval, artificial intelligence, natural language processing, and ontology engineering technologies. Contributes to the realization of cutting-edge technical capabilities into business applications and solutions by applying advanced algorithms and techniques to software solutions. The engineer will be a vital part of the Claims Technology Services team who will drive cutting-edge initiatives.
Key Responsibilities
Develops and adapts best practices to design and build medium complexity machine learning systems
Contributes to design and prototyping of medium to high complexity machine learning systems
Contributes to the realization of major machine learning technical capabilities in the industry by being responsible for the identification, research and software implementation of these capabilities
With some technical support, leads a technical team to implement machine learning solutions
Contributes to effort to revise current practices; lead innovation in technical capability delivery
Provides influence and technical advice to Jr. level team members when developing solutions
Reaches out to support and collaborate with other technology functional teams to build the solution
Represents area of professional and/or technical expertise for Allstate
May be considered a thought leader within the team
Job Qualifications
BS degree in Computer Science, Machine Learning or Artificial Intelligence major is preferred
Minimum of 2-3 years full time hands-on machine learning or artificial intelligence software engineering experience
Both front and backend technical experience with cognitive business applications.
Instinctive knowledge of how people will want to use a product, service, or solution that solves a real world business problem.
Hands on experience with various supervised and unsupervised machine-learning techniques
Understanding of various deep machine-learning techniques
Hands on experience in one or two of the following areas: machine learning, natural language processing, or ontology engineering technologies.
Ability to develop and adapt standard machine learning methods and best practice
The candidate(s) offered this position will be required to submit to a background investigation, which includes a drug screen.
Good Work. Good Life. Good Hands®.
As a Fortune 100 company and industry leader, we provide a competitive salary – but that’s just the beginning. Our Total Rewards package also offers benefits like tuition assistance, medical and dental insurance, as well as a robust pension and 401(k). Plus, you’ll have access to a wide variety of programs to help you balance your work and personal life - including a generous paid time off policy.
Learn more about life at Allstate. Connect with us on Twitter, Facebook, Instagram and LinkedIn or watch a video.
Allstate generally does not sponsor individuals for employment-based visas for this position.
Effective July 1, 2014, under Indiana House Enrolled Act (HEA) 1242, it is against public policy of the State of Indiana and a discriminatory practice for an employer to discriminate against a prospective employee on the basis of status as a veteran by refusing to employ an applicant on the basis that they are a veteran of the armed forces of the United States, a member of the Indiana National Guard or a member of a reserve component.

For jobs in San Francisco, please click ""here"" for information regarding the San Francisco Fair Chance Ordinance.
For jobs in Los Angeles, please click ""here"" for information regarding the Los Angeles Fair Chance Initiative for Hiring Ordinance.

It is the policy of Allstate to employ the best qualified individuals available for all jobs without regard to race, color, religion, sex, age, national origin, sexual orientation, gender identity/gender expression, disability, and citizenship status as a veteran with a disability or veteran of the Vietnam Era."
4,Machine Learning Engineer,"Burr Ridge, IL",Burr Ridge,IL,None Found,None Found,"
M.Sc. in Computer Vision or Machine Learning, with focus on Deep Learning and machine vision applications

2+ years developing algorithms and solving problems in computer vision and machine learning

2+ years in developing machine learning systems, with extensive experience on deep learning systems

Experience deploying machine learning systems to solve real-world problems

Familiar with data annotation practices/techniques and model training pipelines

Advanced proficiency in C++, Python, or related tools and system SW architecture
",None Found,None Found,None Found,None Found,"Overview
Through its people and brands, CNH Industrial delivers power, technology and innovation to farmers, builders and drivers all around the world. Each of its brands, including Case IH, New Holland Agriculture, Case and New Holland Construction, FPT Industrial, Capital, and Parts & Service, is a major international force in its specific sector.


Through its people and brands, CNH Industrial delivers power, technology and innovation to farmers, builders and drivers all around the world. Each of its brands, including Case IH, New Holland Agriculture, Case and New Holland Construction, FPT Industrial, Capital, and Parts & Service, is a major international force in its specific sector.

Position description

We are looking for a highly skilled and energetic person to play a key role in improving and supporting our robotic and vision-based systems for agriculture. You will be joining a research and engineering team to provide critical skills in improving existing systems and pushing the boundaries of this technology. We provide a high degree of autonomy - you will have the opportunity to influence the development and implementation of our products. The role will include work in the following areas:

Implementing deep-learning-based classification systems for identifying, characterizing, and


classifying specified features

Exploring and developing new methods for improving detection performance and increasing the speed of processing

Working with internal customers to develop machine learning pipelines for computer vision based classification tasks

Helping to architect and develop the data pipeline and platform supporting machine learning

Work as part of a larger development team developing autonomous vehicles

Qualifications
The qualified candidate will have experience with the following:


M.Sc. in Computer Vision or Machine Learning, with focus on Deep Learning and machine vision applications

2+ years developing algorithms and solving problems in computer vision and machine learning

2+ years in developing machine learning systems, with extensive experience on deep learning systems

Experience deploying machine learning systems to solve real-world problems

Familiar with data annotation practices/techniques and model training pipelines

Advanced proficiency in C++, Python, or related tools and system SW architecture


The preferred candidate will have experience with the following:


Experience in implementing and improving deep learning systems and moving to real-time processing on embedded hardware

In-depth knowledge of deep learning frameworks including Tensorflow, PyTorch, MxNet, Caffe, Caffe2

Hands-on experience working on GPU-based computing

Attention to detail and ability to work independently

Excellent communication and team work skills

Passion to solve difficult problems

EEO
CNH Industrial is an equal opportunity employer. This company considers candidates regardless of race, color, religion, sex, sexual orientation, gender identity, national origin, disability, or veteran status. Applicants can learn more about their rights by viewing the federal ""EEO is the Law"" poster and its supplement here.

If you need reasonable accommodation with the application process, please call 1-800-889-4422 option 1 and then option 5, or contact us at narecruitingmailbox@cnhind.com.

Read about our company’s commitment to pay transparency by clicking this link: pay transparency notice."
5,Machine Learning Engineer,"Chicago, IL 60606",Chicago,IL,60606,None Found,None Found,"
10+ years of related experience in technology solutions/practice development
2+ Years of professional experience building natural language machine learning models
Experience in using machine learning frameworks for natural language processing
Advanced SQL development skills
Computer Science Degree or equivalent experience
Experience in ETL pipelines, both batch and real-time data processing.
Cloud computing: Google Cloud, Amazon Web Service, Azure, Docker, Kubernetes","
Own the Machine Learning research and engineering efforts
Analyze problem domains and determine overall architecture for natural language machine processing solutions
Determine data type, format and quantity requirements
Define Machine Learning architecture best practices and keep up to date with the evolving opensource frameworks
AWS or other cloud exposure
Collaborate with business stakeholders, business operations, and software teams in analyzing business problems, building and testing solutions and data models, and implementing the algorithms and results of the models
Contribute to discussions around technical design, validated methodologies and model research
Helping to architect and develop the data pipeline and platform supporting machine learning
Translate, communicate, and present results and recommendations to the non-technical, executive level audiences",None Found,None Found,"We build custom enterprise applications for the web and mobile devices. These solutions address process bottlenecks to improve efficiency, productivity and the bottom line for clients. Alligatortek opens the possibilities for new strategies and business opportunities with software technologies. We value our relationships and success with clients in key industries such as manufacturing, distribution, logistics and transportation.
Are you known for your ability to learn new technology? Do you find creative technological solutions to solve problems? Have you had successful experiences delivering a solution that is exactly what the business wants? Are you as interested in the ""right"" company culture as you are in the ""right"" position?
Here are a few benefits we offer for the ""right"" candidate:
A compensation plan that will match your market value, PTO, extra holidays off, employee focused culture, superb health, dental and vision insurance, 401k matching, yearly bonus, kitchen stocked with coffee, tea, snacks and beer! Most importantly, a company culture which values its employees above all else.
Alligatortek is looking for a Machine Learning Engineer who is creative, talented, and technically savvy. This individual should have experience in analysis and development of a library of ML/AI chatbots. We are looking for someone with experience who can come in and help our team execute the vision and be a part of taking our clients to the next level.
Responsibilities:
Own the Machine Learning research and engineering efforts
Analyze problem domains and determine overall architecture for natural language machine processing solutions
Determine data type, format and quantity requirements
Define Machine Learning architecture best practices and keep up to date with the evolving opensource frameworks
AWS or other cloud exposure
Collaborate with business stakeholders, business operations, and software teams in analyzing business problems, building and testing solutions and data models, and implementing the algorithms and results of the models
Contribute to discussions around technical design, validated methodologies and model research
Helping to architect and develop the data pipeline and platform supporting machine learning
Translate, communicate, and present results and recommendations to the non-technical, executive level audiences
Required Skills:
10+ years of related experience in technology solutions/practice development
2+ Years of professional experience building natural language machine learning models
Experience in using machine learning frameworks for natural language processing
Advanced SQL development skills
Computer Science Degree or equivalent experience
Experience in ETL pipelines, both batch and real-time data processing.
Cloud computing: Google Cloud, Amazon Web Service, Azure, Docker, Kubernetes
Nice to Have:
Experience in full life cycle software development
Web development using ASP.Net MVC, C#, HTML, CSS
Strong skills in Python
Experience in big data technologies: Hadoop, Hive, Spark, Kafka
inOlwIC7yI"
