,Title,Location,City,State,Zip,Country,Qualifications,Skills,Responsibilities,Education,Requirement,FullDescriptions
0,"Associate Cloud Developer, A2C","Houston, TX",Houston,TX,None Found,None Found,None Found,None Found,None Found,None Found,None Found,"Bachelor’s Degree in a STEM related field such as computer science, computer engineering, or equivalent experienceFamiliarity with one of the following programming languages: Java, Python, Ruby, Node.js, C#, or C++Familiarity with Networking fundamentals, Security, Databases (Relational and/or NoSQL), Operating Systems (Unix, Linux, and/or Windows)

Amazon Web Services (AWS) is looking for motivated technologists who possess a unique balance of technical depth, business knowledge, and strong interpersonal skills. You will partner with customers and several AWS teams to craft highly scalable, flexible and resilient cloud architectures that address customer business problems. As a trusted customer advocate, you will help organizations understand best practices around cloud-based solutions, and how to migrate existing workloads to the cloud. You will have the opportunity to help shape and execute a strategy to build min- share and broad use of AWS within organizations.

Professional Services
At AWS, we have a credo of “Work hard. Have fun. Make history”. In this role, you will love what you do and instinctively know how to make work fun. You will be dynamic, creative, and willing to take on any challenge and make a big impact.

Here are some of the qualities we are searching for:
Be great fun to work with. At AWS, we have a credo of “Work hard. Have fun. Make history”. In this role, you will love what you do, and instinctively know how to make work fun. You will be dynamic and creative, and willing to take on any challenge and make a big impact.
An affinity for the new and unknown. We are always experimenting with innovative technologies including cloud computing, Machine Learning, and Internet of Things.
Enjoy working with customers of all shapes and sizes. You will have a passion for educating, training, designing, and building solutions for a diverse and challenging set of customers ranging from small businesses to large enterprises.
During your first year as an Associate Cloud Developer, you will receive instruction and on-the-job training on a range of AWS services and solutions. By the end of your first year, you will choose a specialty track suited to your strengths and preferences (subject to business availability). These tracks include:

Application Developer – AppDev resources are specialists in designing applications that run natively in the cloud. They are experts in building programs that run on any number of platforms including virtualized instances, containers, or serverless architecture.
Cloud Infrastructure Architect – An expert in cloud-based networking and system rollouts. CIAs specialize in network performance, infrastructure provisioning, and building Application Programming Interfaces (APIs).
DevOps Specialist – A leader in building advanced computing systems that harness continuous integration/continuous deployment pipelines and utilize the strengths of cloud computing to build scalable and economical systems for customers.
Data Lake & Analytics Specialist – This role will specifically focus on data processing capabilities and helping our customers and partners to remove the constraints that prevent our customers from leveraging their data to develop business insights. Engagements will include migration of existing applications and development of new applications using AWS cloud services.
Data Warehouse & Massive Parallel Processing Specialist – This role will specifically focus on large scale data warehousing and database migration capabilities. Engagements will include Redshift implementations and helping customers to migrate from their existing on-premises data warehouses using other databases to Amazon Redshift.
Data & Machine Learning Engineer – In this role, you will work with our partners and customers with a focus on our AWS Analytics and ML services offering such Amazon Kinesis, AWS Glue, Amazon Redshift, Amazon EMR, Athena, Amazon SageMaker, and more. You will help our customers and partners to remove the constraints that prevent them from leveraging their data to develop business insights.

Ability to travel to provide Professional Services is required for this role.

Troubleshooting: Experience with QA, testing, helpdesk, IT support, or any technician or quality assurance type workCloud Awareness: Experience implementing a cloud-based technology solution in a school project or while working for a companyExperience with systems administration (Linux/Windows) or network administration (DNS, IPsec, BGP, VPN, Load Balancing)Passion for experiencing new technologies, cultures, and locations in the US and around the world
Amazon is an Equal Opportunity Employer – Minority / Women / Disability / Veteran / Gender Identity / Sexual Orientation / Age.

Pursuant to the San Francisco Fair Chance Ordinance, we will consider for employment qualified applicants with arrest and conviction records.

Pursuant to the Los Angeles Fair Chance Ordinance, we will consider for employment qualified applicants with arrest and conviction records."
1,"Python Developer (Financial Sector), Rice University","Houston, TX",Houston,TX,None Found,None Found,None Found,None Found,None Found,None Found,"
Bachelor's Degree
Minimum of 5 years of work experience
A positive attitude
Ability to deliver our lesson plans that are taught in classrooms across the country to the student body
Openness to share your own professional experiences and industry insight with the students
Ability to support our students individually as they go through an emotional roller coaster
Be able to infuse empathy, support, encouragement, and fun into the student experience
","Trilogy Education partners with universities to offer programs in Web Development, Data Analytics, UX/UI Design, Cybersecurity, and FinTech. Our platform combines a market-driven curriculum, robust career services, and a multinational community of universities, instructors, and employers to prepare adult learners for careers in the digital economy.

Our programs have been in existence since 2015, and since then, we've launched an additional 300 classes across the nation. We have hired more than 1,900 Instructors and Teaching Assistants to support our students.

The Job:
We are looking for an experienced Financial Engineer, Python or Machine Learning Engineer with Finance experience, or similar background to teach our part time FinTech class at Rice University. Our instructors are an essential piece to our students experience with us. You must bring a positive attitude and be able to infuse empathy, support, encouragement and fun into the classroom. As an instructor you will need to have the ability to deliver our lesson plans that are being taught across the country; while at the same time, sharing your own professional experiences and industry insight with the students.

Our Financial Technology Program:
There is a parallel economy forming that is upending the financial system. From giant international firms to tiny startups, financial technology is starting to allow a whole new set of players to access financial data, and enabling a whole new generation of financial products and services.

Why teach with us?

Are you passionate about education and making an impact? Do you love empowering others to find life-changing opportunities. We'd love to hear from you! If you bring knowledge, strong communication, and a positive energy to the classroom, you're going to help our students along their transformative path to a successful and rewarding career. Prior teaching experience isn't a prerequisite for success as an Instructor or Teaching Assistant within Trilogy.

We'll provide the guidance, training, lesson plans, and tools to support you on your journey of impacting lives in the classroom.

What You Will Do:

Lead lectures and share your own personal experiences as an industry professional
Facilitate a hands on lab environment for students to gain real world knowledge
Coach students through coding activities and in-class projects
Distribute Class Materials and Recorded Lectures to set up students for success
Ensure a positive learning environment for students by infusing empathy and support into all that you do
Be a classroom manager and confirm students are engaged and learning at every turn
Make sure students are receiving timely feedback and grades on their assignments from you and your teaching assistants.

Experience, or willingness to learn, the following Technologies is required:


Finance Fundamentals like Time Series Analysis and Financial Ratios
Investment Principles
Excel and VBA
Python 3
Python Libraries such as Pandas, Matplotlib, NumPy, and more
APIs
SQL and NoSQL Databases
AWS
Machine Learning Applied to Finance with Algorithmic Trading, Scikit-learn, and more
Cryptocurrency Fundamentals
Blockchain technologies like Solidity, Ethereum, and Smart Contracts

What makes you a great fit (Requirements):

Bachelor's Degree
Minimum of 5 years of work experience
A positive attitude
Ability to deliver our lesson plans that are taught in classrooms across the country to the student body
Openness to share your own professional experiences and industry insight with the students
Ability to support our students individually as they go through an emotional roller coaster
Be able to infuse empathy, support, encouragement, and fun into the student experience

Logistics:

24-week program
Mon/Wed/Sat OR Tue/Thu/Sat Schedule
Weekday Classes: 5:45pm - 10pm (includes office hours and break)
Saturday Classes: 9:30am - 2:30pm (includes office hours and lunch break)

"
2,"Machine Learning Engineer, Energy Platform - Houston,TX","Houston, TX",Houston,TX,None Found,None Found,None Found,None Found,None Found,None Found,"Legal authorization to work in the US on a full-time basis for anyone other than current employer
Bachelor's degree in a relevant technical discipline
5+ years of experience with demonstrable proficiency in one or more mainstream opensource frameworks: Tensorflow, Torch, Pyro, Keras, Scikit, Statsmodels
Familiarity with time series modeling for financial and electricity market
Passionate about building and bringing scalable, high performing, analytic orchestration and ML into production
Proficiency in Containerized environments and workloads
Experience with object-oriented/object function scripting languages: Python, Java, C++, Scala, etc.
Experience architecting, deploying, and supporting production applications.
Care deeply about performance, accessibility and API design
Excellent analytical, problem-solving, and troubleshooting skills
Great communication skills
Work locations may include Houston, TX or San Francisco, CA","Job Description
If you want to bring your technical expertise, ‘challenge-accepted!’ mentality and passion for building amazing products with real-world impact for hundreds of millions of people come join our group! We have been looking for you! We have an amazing team with deep backgrounds across technology and energy.

Shell New Energies

Shell is leading the transition towards a low-carbon future. We aim to cut the net carbon footprint of our energy products in half by 2050. Our New Energies business, set up in 2016, supports this ambition. New Energies is an emerging opportunity, in which we plan to invest on average $1-2 billion a year until 2020 as we look for commercial investments in new and fast-growing segments of the energy industry.

Shell New Energies focuses on two areas: new fuels and power. New Fuels consists of investments in hydrogen, biofuels, and electric vehicle charging. In Power, we are building up positions across the full electricity value chain, including in renewable generation, retail energy, distributed energy resources, power trading and marketing, and grid services. Within these focus areas, we look for ways to connect customers with new business models for mobility and energy services, enabled by digital technologies and decentralization of energy systems. Development of our IoT platform for Shell New Energy will be paramount in achieving these goals.

Energy Platform Team

The Energy Platform team is a nimble, cross-functional, deeply technical and passionate group that embodies the speed and agility of a startup while embracing the scale of one of the largest companies in the world. Achieving a balance between agility and global scale provides unique opportunities, and the Energy Platform Team borrows from best-in-class product development, continuous delivery, and commercialization techniques while adapting them to the unique global context within Shell.

The Energy Platform team is empowered to coordinate and align Shell’s energy management platform objectives, strategies, and execution approaches across the company, as well as to design, deliver and maintain a mission-critical component of Shell’s ability to deliver differentiated products, offerings and capabilities across its expanding global footprint.

We are looking for a Machine Learning Engineer with the ability to bring their expertise and excitement for solving complex problems while building one of the largest IoT platforms in the world. There will be no shortage of opportunities to lead, eat, drink, and be merry with the most dynamic team ever assembled in the energy industry.
Build, on a daily basis, machine learning and deep learning systems, optimizing for scalability and performance
Have exceptional skills in statistics and machine learning applied to timeseries analysis (ARIMA, GARCH, BSTS, as well as probabilistic methods for ML/DL)
Are proficient orchestrating large scale ML/DL jobs, leveraging big data tooling (Hadoop, Spark, Kafka, Airflow) and modern container orchestration infrastructure (Kubernetes, Kubeflow, ARGO), to tackle distributed training and massive parallel model executions on cloud infrastructure
Are comfortable with a fast pace build, run, test, ship ML/AI workloads into production under a common API.
Has experience designing custom APIs for machine learning models in training and inference
Are whiling to work with a cross functional team of energy markets analysts, software developers, data scientists and engineers, to translate state of the art ML and DL techniques into features inside the Energy Platform
Have a passion for orchestrating infrastructure that assists data scientists and analysts build low latency, scalable and resilient machine learning and optimization workloads into a software product
Are a maniac for data & model quality, provenance and lifecycle management, helping establish a MLOps centric culture within our Data Science and Engineering teams
Eager to design, implement and delivery frameworks and workbenches for mode performance evaluation and back-testing, following MLOps best practices
Proven history of working with large scale model optimization and hyperparameter tuning, applied to ML/DL models
Requirements
Legal authorization to work in the US on a full-time basis for anyone other than current employer
Bachelor's degree in a relevant technical discipline
5+ years of experience with demonstrable proficiency in one or more mainstream opensource frameworks: Tensorflow, Torch, Pyro, Keras, Scikit, Statsmodels
Familiarity with time series modeling for financial and electricity market
Passionate about building and bringing scalable, high performing, analytic orchestration and ML into production
Proficiency in Containerized environments and workloads
Experience with object-oriented/object function scripting languages: Python, Java, C++, Scala, etc.
Experience architecting, deploying, and supporting production applications.
Care deeply about performance, accessibility and API design
Excellent analytical, problem-solving, and troubleshooting skills
Great communication skills
Work locations may include Houston, TX or San Francisco, CA
Company Description
Shell is a global group of energy and petrochemical companies with about 84,000 employees across more than 70 countries. We aim to meet the world’s growing need for more and cleaner energy solutions in ways that are economically, environmentally and socially responsible. We have expertise in exploration, production, refining and marketing of oil and natural gas, and the manufacturing and marketing of chemicals. As a global energy company operating in a challenging world, we set high standards of performance and ethical behaviors. We are judged by how we act and how we live up to our core values of honesty, integrity and respect for people. Our Business Principles are based on these. They promote trust, openness, teamwork and professionalism, as well as pride in what we do and how we conduct business.Building on our core values, we aspire to sustain a diverse and inclusive culture where everyone feels respected and valued, from our employees to our customers and partners. A diverse workforce and an inclusive work environment are vital to our success, leading to greater innovation and better energy solutions.
Disclaimer
Please note: We occasionally amend or withdraw Shell jobs and reserve the right to do so at any time, including prior to the advertised closing date.

Before applying, you are advised to read our data protection policy. This policy describes the processing that may be associated with your personal data and informs you that your personal data may be transferred to Royal Dutch/Shell Group companies around the world.

The Shell Group and its approved recruitment consultants will never ask you for a fee to process or consider your application for a career with Shell. Anyone who demands such a fee is not an authorised Shell representative and you are strongly advised to refuse any such demand.

Shell participates in E-Verify.

All qualified applicants will receive consideration for employment without regard to race, color, sex, national origin, age, religion, disability, sexual orientation, gender identity, protected veteran status, citizenship, genetic information or other protected status under federal, state or local laws.

Shell is an Equal Opportunity Employer - Minorities/Females/Veterans/Disability.
Employment TypeFull Time
Skillpool
IT Data and Analytics, Information
Work LocationHouston
No. of Positions
1
Job Expires01-Nov-2019"
3,"Data Scientist, Rice University","Houston, TX",Houston,TX,None Found,None Found,None Found,None Found,None Found,None Found,"
Bachelor's Degree
Minimum of 4-5 years of work experience
A positive attitude
Ability to deliver our lesson plans that are taught in classrooms across the country to the student body
Openness to share your own professional experiences and industry insight with the students
Ability to support our students individually as they go through an emotional roller coaster
Be able to infuse empathy, support, encouragement, and fun into the student experience
","Trilogy Education partners with universities to offer programs in Web Development, Data Analytics, UX/UI Design, Cybersecurity, and FinTech. Our platform combines a market-driven curriculum, robust career services, and a multinational community of universities, instructors, and employers to prepare adult learners for careers in the digital economy.

Our programs have been in existence since 2015, and since then, we've launched an additional 300 classes across the nation. We have hired more than 1,900 Instructors and Teaching Assistants to support our students.

The Job:
We are looking for an experienced Financial Engineer, Python or Machine Learning Engineer with Finance experience, or similar background to teach our part time FinTech class at Rice University. Our instructors are an essential piece to our students experience with us. You must bring a positive attitude and be able to infuse empathy, support, encouragement and fun into the classroom. As an instructor you will need to have the ability to deliver our lesson plans that are being taught across the country; while at the same time, sharing your own professional experiences and industry insight with the students.

Our Financial Technology Program:
There is a parallel economy forming that is upending the financial system. From giant international firms to tiny startups, financial technology is starting to allow a whole new set of players to access financial data, and enabling a whole new generation of financial products and services.

Why teach with us?

Are you passionate about education and making an impact? Do you love empowering others to find life-changing opportunities. We'd love to hear from you! If you bring knowledge, strong communication, and a positive energy to the classroom, you're going to help our students along their transformative path to a successful and rewarding career. Prior teaching experience isn't a prerequisite for success as an Instructor or Teaching Assistant within Trilogy.

We'll provide the guidance, training, lesson plans, and tools to support you on your journey of impacting lives in the classroom.

What You Will Do:

Lead lectures and share your own personal experiences as an industry professional
Facilitate a hands on lab environment for students to gain real world knowledge
Coach students through coding activities and in-class projects
Distribute Class Materials and Recorded Lectures to set up students for success
Ensure a positive learning environment for students by infusing empathy and support into all that you do
Be a classroom manager and confirm students are engaged and learning at every turn
Make sure students are receiving timely feedback and grades on their assignments from you and your teaching assistants.

Experience, or willingness to learn, the following Technologies is required:


Python 3 and Python Libraries such as Pandas, Matplotlib, NumPy, and more
SQL and NoSQL Databases
Deploying Machine Learning Models, Including using SKlearn, Tensorflow, or Statsmodels

What makes you a great fit (Requirements):

Bachelor's Degree
Minimum of 4-5 years of work experience
A positive attitude
Ability to deliver our lesson plans that are taught in classrooms across the country to the student body
Openness to share your own professional experiences and industry insight with the students
Ability to support our students individually as they go through an emotional roller coaster
Be able to infuse empathy, support, encouragement, and fun into the student experience

Logistics:

24-week program
Mon/Wed/Sat OR Tue/Thu/Sat Schedule
Weekday Classes: 5:45pm - 10pm (includes office hours and break)
Saturday Classes: 9:30am - 2:30pm (includes office hours and lunch break)

"
4,Machine Learning (ML) Engineer,"Houston, TX",Houston,TX,None Found,None Found,"BS in Computer Science, Mathematics, or related fields or equivalent experience
5+ years’ experience in Object Oriented Design and Programming,
Ability to write robust code in Python, Java, and R.
Proficient in applying common design patterns, ability to communicate design ideas effectively
Must have a disciplined, methodical, minimalist approach to designing and constructing layered software components that can be embedded within larger frameworks or applications
Working knowledge of math, probability, statistics, and algorithms
Working knowledge of machine learning frameworks (i.e. Keras and PyTorch) and machine learning libraries (i.e. scikit-learn)
",None Found,"Consistently deliver complex, innovative, and complete solutions, driving them through design, planning, development, deployment and support that simplify business processes and workflows to drive business value
Work collaboratively with a large variety of different teams, including data scientists, data engineers, and solution architects from various organizations within business units and IT
Transform machine learning and optimization prototypes into appropriate solutions in a production environment
Run machine learning experiments and fine-tune algorithms to ensure optimal performance
Train and retrain systems when necessary
Extend existing machine learning libraries and frameworks
Participate as an active member in embedded Agile team to enable cross training and keeping skills current
",None Found,None Found,"Chevron is one of the world's leading energy companies, with approximately 48,000 employees working in countries around the world. We explore, produce and transport crude oil and natural gas; refine, market and distribute fuels and other energy products; manufacture and sell petrochemical products; generate power; and develop future energy resources.
Chevron’s data science engineering center of excellence is accepting online applications for the position of Machine Learning Engineer located in San Ramon, CA/Houston , TX through October 12, 2019 at 11:59 p.m. (Eastern Standard Time).

Requisition ID#404832
Responsibilities for this position may include but are not limited to:
Consistently deliver complex, innovative, and complete solutions, driving them through design, planning, development, deployment and support that simplify business processes and workflows to drive business value
Work collaboratively with a large variety of different teams, including data scientists, data engineers, and solution architects from various organizations within business units and IT
Transform machine learning and optimization prototypes into appropriate solutions in a production environment
Run machine learning experiments and fine-tune algorithms to ensure optimal performance
Train and retrain systems when necessary
Extend existing machine learning libraries and frameworks
Participate as an active member in embedded Agile team to enable cross training and keeping skills current
Required Qualifications:
BS in Computer Science, Mathematics, or related fields or equivalent experience
5+ years’ experience in Object Oriented Design and Programming,
Ability to write robust code in Python, Java, and R.
Proficient in applying common design patterns, ability to communicate design ideas effectively
Must have a disciplined, methodical, minimalist approach to designing and constructing layered software components that can be embedded within larger frameworks or applications
Working knowledge of math, probability, statistics, and algorithms
Working knowledge of machine learning frameworks (i.e. Keras and PyTorch) and machine learning libraries (i.e. scikit-learn)
Preferred Qualifications:
MS in Computer Science, Mathematics, or related fields
Hands-on experience with Azure Cloud, Azure DevOps, Service Now, Ansible, Jenkins
Hands-on experience in deploying machine learning solutions
Exceptional object-oriented programming and debugging skills in Python, Java, R, and Microsoft .NET
A keen eye for good architecture and the ability to develop new architectures and frameworks
Passionate and detailed approach to software development
Knowledge of security/access control, scalability, high availability, concurrency, online diagnoses, deployment, upgrade/migration, internationalization, production support and other SaaS enterprise software issues
Proficient in major development tools and processes, such as source control, requirement spec, design and design review, unit test, system test, performance test, etc
Proven ability to take leadership role in projects that span multiple teams, ability to deliver on time working in a fast paced agile environment, ability to work with product managers to clarify and prune requirements, strong verbal and written communication
Relocation Options:

Relocation may be considered.


International Considerations:

Expatriate assignments will not be considered.

Chevron regrets that it is unable to sponsor employment Visas or consider individuals on time-limited Visa status for this position.
Regulatory Disclosure for US Positions:
Chevron is an Equal Opportunity / Affirmative Action employer. Qualified applicants will receive consideration for employment without regard to race, color, religion, sex, sexual orientation, gender identity, national origin, disability or protected veteran status, or other status protected by law or regulation."
