,Title,Location,City,State,Zip,Country,Qualifications,Skills,Responsibilities,Education,Requirement,FullDescriptions
0,Machine Learning Engineer,"Vienna, VA",Vienna,VA,None Found,None Found,"
Bachelor’s Degree
At least 2 years of open source Machine Learning algorithm development experience in Python and AWS
At least 2 years of Regression analysis, Non-parametric, Bayesian Statistics, or Applied Probabilities
At least 2 years of hands on experience with Redshift tables and PostgreSQL tables
At least 2 years of experience in Continuous Integration/Continuous Development, Test Automation, Build Automation, and Test-Driven Development.
At least 2 years of deployment in AWS Cloud computing environments
",None Found,"
End-to-end/full stack software solutions development and deployment of our Machine Learning (ML) and Artificial Intelligence (AI) algorithms.
Write, design, code, test, implement, debug, and validate applications; document design decisions and develop modular software components; monitor system performance metrics, and identify potential risks/issues.
Lead multiple software development initiatives at any given time, serving as an expert for the escalation of complex application design and development issues.
Provide active mentorship/guidance to junior members of the Agile Tech team and participate in internal and external technology communities.
Work with product owners to understand desired application capabilities and testing scenarios, and define, establish, and execute against strategic technical management and business delivery roadmaps, actively managing data risks, issues, and impediments.
Present project metrics, complex ML and AI concepts to both technical and non-technical audiences.
",None Found,None Found,"Towers Crescent (12066), United States of America, Vienna, Virginia

At Capital One, we’re building a leading information-based technology company. Still founder-led by Chairman and Chief Executive Officer Richard Fairbank, Capital One is on a mission to help our customers succeed by bringing ingenuity, simplicity, and humanity to banking. We measure our efforts by the success our customers enjoy and the advocacy they exhibit. We are succeeding because they are succeeding.

Guided by our shared values, we thrive in an environment where collaboration and openness are valued. We believe that innovation is powered by perspective and that teamwork and respect for each other lead to superior results. We elevate each other and obsess about doing the right thing. Our associates serve with humility and a deep respect for their responsibility in helping our customers achieve their goals and realize their dreams. Together, we are on a quest to change banking for good.

Machine Learning Engineer

Responsibilities:

End-to-end/full stack software solutions development and deployment of our Machine Learning (ML) and Artificial Intelligence (AI) algorithms.
Write, design, code, test, implement, debug, and validate applications; document design decisions and develop modular software components; monitor system performance metrics, and identify potential risks/issues.
Lead multiple software development initiatives at any given time, serving as an expert for the escalation of complex application design and development issues.
Provide active mentorship/guidance to junior members of the Agile Tech team and participate in internal and external technology communities.
Work with product owners to understand desired application capabilities and testing scenarios, and define, establish, and execute against strategic technical management and business delivery roadmaps, actively managing data risks, issues, and impediments.
Present project metrics, complex ML and AI concepts to both technical and non-technical audiences.

Basic Qualifications:

Bachelor’s Degree
At least 2 years of open source Machine Learning algorithm development experience in Python and AWS
At least 2 years of Regression analysis, Non-parametric, Bayesian Statistics, or Applied Probabilities
At least 2 years of hands on experience with Redshift tables and PostgreSQL tables
At least 2 years of experience in Continuous Integration/Continuous Development, Test Automation, Build Automation, and Test-Driven Development.
At least 2 years of deployment in AWS Cloud computing environments

Preferred Qualifications:

Ph.D. in Computer Science, Engineering, Information Systems, Physics or Mathematics discipline
4+ years of experience in software development using Python, Scala, Java, RESTful API, Apache, Spark, Kafka and Microservices
4+ years of experience with the full AWS stack and distributed Big Data technologies such as: Hadoop, Python, Hive or Cloudera
Experience in Scala, R, Java, Perl, JavaScript, or Shell
Experience with Tensorflow

At this time, Capital One will not sponsor a new applicant for employment authorization for this position."
1,Data Scientist/Machine Learning Engineer,"Washington, DC 20005",Washington,DC,20005,None Found,"
7+ years of experience with analytics, big data, data science, machine learning, or artificial intelligence serving in technical delivery roles, including as a data scientist, developer, architect, engineer, mathematician, statistician, or machine learning specialist
5+ years of experience with leading or managing delivery teams, projects, development efforts, research efforts, or similar
3+ years of experience with programming, including in machine learning frameworks, such as TensorFlow, Keras, PyTorch, Caffe, and MXNET
3+ years of experience with business development, client or customer relationship management, proposal development, or similar, including grant application
Experience with traditional and Agile framework project management approaches and constructs
Experience with developing effective delivery or research teams, including recruiting, hiring, mentoring, coaching, and managing team members
Experience with authoring white papers, peer-reviewed articles, or other relevant technical content
Ability to effectively communicate results to both technical and non-technical audiences, including presenting to senior executives, industry conferences, technical seminars, meet-ups, or similar
BA or BS degree in Statistics, Machine Learning, Mathematics, CS, Computer Engineering, Industrial Engineering, or Operations Research
Ability to work in the US indefinitely without sponsorship
Ability to obtain a US security clearance if needed",None Found,"
7+ years of experience with analytics, big data, data science, machine learning, or artificial intelligence serving in technical delivery roles, including as a data scientist, developer, architect, engineer, mathematician, statistician, or machine learning specialist
5+ years of experience with leading or managing delivery teams, projects, development efforts, research efforts, or similar
3+ years of experience with programming, including in machine learning frameworks, such as TensorFlow, Keras, PyTorch, Caffe, and MXNET
3+ years of experience with business development, client or customer relationship management, proposal development, or similar, including grant application
Experience with traditional and Agile framework project management approaches and constructs
Experience with developing effective delivery or research teams, including recruiting, hiring, mentoring, coaching, and managing team members
Experience with authoring white papers, peer-reviewed articles, or other relevant technical content
Ability to effectively communicate results to both technical and non-technical audiences, including presenting to senior executives, industry conferences, technical seminars, meet-ups, or similar
BA or BS degree in Statistics, Machine Learning, Mathematics, CS, Computer Engineering, Industrial Engineering, or Operations Research
Ability to work in the US indefinitely without sponsorship
Ability to obtain a US security clearance if needed",None Found,None Found,"Atlas Research is looking for a Data Scientist/Machine Learning Engineer to support federal clients.
Essential Duties and Responsibilities:
Analyze large amounts of data collected from diverse sources, such as social media, images, video, and sensor feeds, extracting patterns and drawing relationships across them. Leverage your experience and skills as a data scientist, machine learning engineer, and artificial intelligence specialist to understand the complex relationships between the business needs, the data, and modeling approaches.
Develop and apply the latest innovations in machine learning, artificial intelligence, and related technologies. Lead and support research and development efforts to explore the applicability of emerging machine learning and artificial intelligence methods to address client challenges and identify and prioritize emerging methods and challenges for original research or proof of concepts. Lead and support efforts to identify, shape, capture, and deliver data science, machine learning, and artificial intelligence contracts for clients. Shape external client strategies, technology roadmaps, implementation plans, and research initiatives to integrate data science, machine learning, and artificial intelligence in support of client missions. Help identify, recruit, lead, and develop a world-class team of data scientists, data engineers, machine learning engineers, and artificial intelligence specialists.

Minimum Qualifications
7+ years of experience with analytics, big data, data science, machine learning, or artificial intelligence serving in technical delivery roles, including as a data scientist, developer, architect, engineer, mathematician, statistician, or machine learning specialist
5+ years of experience with leading or managing delivery teams, projects, development efforts, research efforts, or similar
3+ years of experience with programming, including in machine learning frameworks, such as TensorFlow, Keras, PyTorch, Caffe, and MXNET
3+ years of experience with business development, client or customer relationship management, proposal development, or similar, including grant application
Experience with traditional and Agile framework project management approaches and constructs
Experience with developing effective delivery or research teams, including recruiting, hiring, mentoring, coaching, and managing team members
Experience with authoring white papers, peer-reviewed articles, or other relevant technical content
Ability to effectively communicate results to both technical and non-technical audiences, including presenting to senior executives, industry conferences, technical seminars, meet-ups, or similar
BA or BS degree in Statistics, Machine Learning, Mathematics, CS, Computer Engineering, Industrial Engineering, or Operations Research
Ability to work in the US indefinitely without sponsorship
Ability to obtain a US security clearance if needed
Preferred Qualifications
Experience with machine learning techniques and their application, including deep learning, such as CNN, RNN, or transfer learning, NLP, gradient-boosted trees, Neural Machine Translation (NMT), and reinforcement learning
Ability to provide a public Github repository, Blog, or Kaggle account showcasing machine learning models developed
MS degree in Science, Engineering, Mathematics, or related field preferred; PhD degree a plus"
2,Machine Learning Engineer,"Alexandria, VA",Alexandria,VA,None Found,None Found,None Found,None Found,None Found,None Found,None Found,"RII develops cutting-edge software for the government and military. We use agile development practices and user-centered design to create innovative software solutions for complex real-world problems. We're breaking through the big, slow status quo with transformative technology that fundamentally changes and improves the world.

Our team is currently seeking high-quality contributors for a variety of positions in the Northern Virginia area. Our projects include developing complex, web client server applications; developing mobile device applications and prototypes; developing Big Data and machine learning solutions; architecting and prototyping complex distributed command and control network applications.

If you are a sharp, experienced engineer with demonstrated capabilities in implementing machine learning and analytical solutions on Big Data stacks we want to hear from you. Joining RII not only provides unique challenges and opportunities, it also directly and positively impacts many of our Defense and Homeland Security end users.
WHAT YOU WILL BE DOING
Identify, develop, and evaluate machine learning capabilities for deployment on our best-of-breed Big Data tech stack in support of multiple customer projects
Maintain awareness of current and emerging capabilities in machine learning and analytical technologies and how these apply to solving our customers’ challenges
Develop captivating solutions by collaborating with customers and development team
Document use cases, solutions, & recommendations to customers
WHAT YOU HAVE DONE
BS in Computer Science, or equivalent degree or work experience
Experience designing, developing, training, tuning, and deploying learning models in current ML frameworks (e.g., Tensorflow, PyTorch, Theano, Caffe, Spark MLib, etc.)
Strong software development in Python or Java
Experience performing exploratory analysis – cleaning, joining, enriching, statistical modeling, and prototyping visualizations to identify latent trends and patterns
Experience curating training and analysis datasets – cleaning, enriching, joining, annotating, and crowdsourcing data for creating and evaluating production models
Understanding in Linux operating systems, distributed systems, and databases (NoSQL and relational)
Excellent understanding of ETL and data analytics platforms
 Experience understanding and decomposing system level requirements into discrete and measurable tasks
EVEN BETTER
MS or PhD in Computer Science or equivalent degree or work experience
Experience designing, developing, and deploying analytics in streaming and cross-corpus frameworks like Spring Cloud, Kafka, Spark, MapReduce, and/or other related BigTable technologies
Experience with Agile Methodologies
Experience with natural language processing techniques and technologies
Strong knowledge of the installation, configuration, and maintenance cloud computing and Big Data infrastructure to include Hadoop, Accumulo, Kafka, Spark, Elasticsearch, Puppet, Ansible, Lucene, and related technologies
Experience with continuous integration and continuous deployment using Atlassian products
Experience with Atlassian products
Extensive experience with model transfer techniques and methodologies
Experience applying machine learning techniques to sparse data sets
Knowledge of cloud computing infrastructure such as: Amazon Web Services EC2 & Elastic
Experience creating Big Data solutions using public, private, and hybrid cloud approaches
Experience with integration methodologies and tools for Big Data applications and services
Experience with data quality and data profiling tools
Active clearance not required to apply.
US Citizenship required. Candidates must be clearable to Secret, desired TS/SCI.

Research Innovations, Inc. is an equal opportunity employer and all qualified applicants will receive consideration for employment without regard to race, color, religion, sex, national, origin, disability status, protected veteran status, or any other characteristic protected by law."
3,Machine Learning Engineer,"Fort Meade, MD",Fort Meade,MD,None Found,None Found,None Found,None Found,None Found,None Found,None Found,"The Challenge:
Are you excited at the prospect of unlocking the secrets held by a data set with algorithms you create? Are you fascinated by the possibilities presented by the IoT, machine learning, and artificial intelligence advances? In an increasingly connected world, massive amounts of structured and unstructured data open up new opportunities. As a data scientist, you can turn these complex data sets into useful information to solve global challenges. Across private and public sectors — from fraud detection, to cancer research, to national intelligence — you know the answers are in the data.
We have an opportunity for you to use your analytical skills to improve national security. You’ll work closely with your customer to understand their questions and needs, and then dig into their data-rich environment to find the pieces of their information puzzle. You’ll develop algorithms, write scripts, build predictive analytics, use automation, apply machine learning, and use the right combination of tools and frameworks to turn that set of disparate data points into objective answers to help senior leadership make informed decisions. You’ll provide your customer with a deep understanding of their data, what it all means, and how they can use it.
Join us as we use data science for national security.
Empower change with us.
Build Your Career:
At Booz Allen, we know the power of analytics and we’re dedicated to helping you grow as a data analysis professional. When you join Booz Allen, you can expect:
access to online and onsite training in data analysis and presentation methodologies, and tools like Hortonworks, Docker, Tableau, and Splunk
a chance to change the world with the Data Science Bowl—the world’s premier data science for social good competition
participation in partnerships with data science leaders, like our partnership with NVIDIA to deliver Deep Learning Institute (DLI) training to the federal government
You’ll have access to a wealth of training resources through our Analytics University, an online learning portal specifically geared towards data science and analytics skills, where you can access more than 5000 functional and technical courses, certifications, and books. Build your technical skills through hands-on training on the latest tools and state-of-the-art tech from our in-house experts. Pursuing certifications? Take advantage of our tuition assistance, on-site bootcamps, certification training, academic programs, vendor relationships, and a network of professionals who can give you helpful tips. We’ll help you develop the career you want, as you chart your own course for success
You Have:Experience as an R, Python, or Java developerExperience with designing novel analytic methods and workflowsExperience with merging disparate data sources for varying data structures of contentExperience with feature generation and feature augmentation, pulling data from unstructured formatsAbility to manage and manipulate large data sets, develop data science approaches, and manage data science tasksAbility to leverage a wide variety of data science capabilities and languagesTS/SCI clearance with a polygraphBS degree in Mathematics, Physics, or Engineering

Nice if You Have:
Experience with machine learning algorithm developmentExperience with building classification modeling schemes based upon time-based data and multivariate time series analysisExperience with statistical signal processing and sensor data fusionExperience in working with big data storage and processing techniques, including HDFS, Hive, Accumulo and Hadoop, or SparkAbility to work with activity recognition and classificationMA or MS degree
Clearance:
Applicants selected will be subject to a security investigation and may need to meet eligibility requirements for access to classified information; TS/SCI clearance with polygraph is required.
We’re an EOE that empowers our people—no matter their race, color, religion, sex, gender identity, sexual orientation, national origin, disability, veteran status, or other protected characteristic—to fearlessly drive change.
CMD"
4,Gultionar Intelligence* - Machine Learning Engineer,"Fort Meade, MD",Fort Meade,MD,None Found,None Found,None Found,None Found,None Found,None Found,None Found,"Title generated by a neural net trained on relevant job listings and then asked to perform poorly.
What you will be working on:
Come be a part of a team applying cutting edge Machine Learning to the cybersecurity domain! We will use state of the art ML techniques (Neural Nets, Gradient Boosting, etc.) to model behaviors, detect anomalies, cluster data, and ultimately create actionable information.
You will: Build and improve ML models for a number of different problem sets Collect and preprocess data for training and validation Use TensorFlow, Keras, XGBoost, scikit-learn, and other ML tools Help other engineers deploy ML models on dynamic compute platforms Read current research and contribute to the team’s collective knowledge Mentor junior team members Work at our headquarters in Annapolis Junction, MD and/or the surrounding area.
What you need: A Bachelor’s degree in Computer Science or Mathematics 5+ years experience in Software Engineering or Machine Learning US Government Security clearance or the ability to obtain one.

What we would like you to have: A deep interest in data and machine learning A Master’s degree in Computer Science or Mathematics Experience with Python
 Experience with Machine Learning tools and techniques Familiarity with the cyber security domain A desire to solve problems whose solutions aren’t on Stack Overflow

A few reasons to work for us:
You can grow with us: Our flexible and collaborative environment encourages our people to challenge themselves and feed their need to learn and grow. We offer $10k towards Professional Development and Education, and Brown Bag sessions covering a wide variety of topics.
You can retire sooner rather than later: We match up to 8% of your 401k contributions which you are vested in 100% day one.
Work - life balance is real: In addition to the ability to work flexible hours, you’ll get up to 7 weeks of PTO which is based upon your total years’ experience. For every year you’re with HII-TSD (formerly G2, Inc), you’ll enjoy an additional day of PTO.
Not quite ready to apply? TAKE THE NEXT STEP and GET CONNECTED or reach out to us at Recruiting@g2-inc.com to take a less formal approach.
We are an equal opportunity employer and all qualified applicants will receive consideration for employment without regard to race, color, religion, sex, national origin, disability status, protected veteran status, or any other characteristic protected by law.
If you are seeking reasonable accommodation as it relates to the employment process, please contact the recruiting department at (410) 290-9710 or recruiting@g2-inc.com"
5,"Senior Software Engineer, Machine Learning","Washington, DC 20007",Washington,DC,20007,None Found,"Bachelors degree in Computer Science or related field and 5+ years professional software development experienceExtensive experience with Python and python frameworks (e.g. CherryPy, Bottle, Flask, Django)Solid experience with multithreading and multiprocessing in Python on Linux and Windows platformsSolid SQL and querying databases through Python (e.g. pyodbc)Experience using AWS instances and S3 bucketsTools and frameworks for testing (unittest, pytest) and software versioning (Bitbucket)Ability to train machine learning models, analyze performance metrics, and communicate resultsSolid understanding of ML algorithmsSelf-starter, independent thinker and workerExcellent analytical skillsHighly detail-orientedGood communication skillsAbility to work well on a team as well as independentlyAbility to communicate results effectively",None Found,"Implement high performance, scalable and reliable software solutions in Python on Linux or Windows platformsDevelop and deploy synchronous and asynchronous REST API web services using Python frameworksDevelop effective methods of ML model testing during all stages: development, deployment, and recalibrationTrain machine learning models, analyze performance metrics, and communicate results with visual and statistical aidsAnalyze, visualize, and summarize large multidimensional datasetsUtilize best practices for software development of high performance systems around design, coding, automated unit and regression testing and deployment",None Found,None Found,"Overview
Do you want to be a part of something innovative and cutting edge? If your answer is yes, then join our team of more than a hundred software engineers, designers, project managers and software specialists that are smart, creative and excited by what they do!

Some of our ground-breaking work includes: advanced computer-adaptive algorithms (only one that’s peer-approved in the country); mobile support for the user interfaces; learning management systems with social media features; user interfaces that are universally accessible to people with or without disabilities; innovative, machine-scorable items and that’s just to name a few.

The American Institutes for Research (AIR) is a leading professional services firm with a growing software engineering and product development team. The Assessment group provides assessment services and technical assistance to school systems nationwide. We design and build things that are inspiring and make a real impact in the online testing industry and we are currently seeking a Senior Software Engineer, Machine Learning for their office in Washington, D.C.
Responsibilities
The machine learning engineer work will be an integral part of the machine learning / scoring development team within AIR. This diverse group of professionals that include mathematicians, computer scientists, psychometricians, statisticians and software engineers, provide custom machine learning solutions for our clients as well as internal support systems. The right candidate will have the skills needed to perform full life-cycle software development to take research ideas and initiatives from concept/prototype to production quality software. This includes participation in research discussions, requirements gathering, application and database design, system documentation, writing and unit-testing efficient code, and deployment.

Implement high performance, scalable and reliable software solutions in Python on Linux or Windows platformsDevelop and deploy synchronous and asynchronous REST API web services using Python frameworksDevelop effective methods of ML model testing during all stages: development, deployment, and recalibrationTrain machine learning models, analyze performance metrics, and communicate results with visual and statistical aidsAnalyze, visualize, and summarize large multidimensional datasetsUtilize best practices for software development of high performance systems around design, coding, automated unit and regression testing and deployment
Qualifications
Bachelors degree in Computer Science or related field and 5+ years professional software development experienceExtensive experience with Python and python frameworks (e.g. CherryPy, Bottle, Flask, Django)Solid experience with multithreading and multiprocessing in Python on Linux and Windows platformsSolid SQL and querying databases through Python (e.g. pyodbc)Experience using AWS instances and S3 bucketsTools and frameworks for testing (unittest, pytest) and software versioning (Bitbucket)Ability to train machine learning models, analyze performance metrics, and communicate resultsSolid understanding of ML algorithmsSelf-starter, independent thinker and workerExcellent analytical skillsHighly detail-orientedGood communication skillsAbility to work well on a team as well as independentlyAbility to communicate results effectively
Preferred Qualifications
Masters degree in Computer ScienceExperience with Python-based machine learning frameworks (e.g., Keras, PyTorch, gensim)
LI-HG1
AIR Assessment is one of America’s leading K -12 educational assessment entities, currently holding prime contracts for educational testing and scoring in many states. AIR Assessment is a national leader in computer based adaptive assessments; a market that is rapidly growing. We focus on providing our clients with customized assessments that not only measure student achievement against state standards, but also provide meaningful score reports that can help students, parents, and educators address any areas of student weakness. Our environment is fast-paced and requires people at all levels who are willing to roll up their sleeves to get the work done on time while maintaining high quality. As a part of AIR, a not-for-profit organization, we are more than 1,900 people working to improve lives in communities domestically and around the world. Our mission calls for us to turn the best research into practice, which we do in every arena in which we work.

All qualified applicants will receive consideration for employment without discrimination on the basis of race, color, religion, sex, gender, gender identity/expression, sexual orientation, national origin, protected veteran status, or disability."
6,Financial Engineering Senior,"McLean, VA 22102",McLean,VA,22102,None Found,"At least 5 years of experience developing in Python or Java
BS in Computer Science or equivalent experience
Experience with building production web services
Experience working with numerical/quantitative systems, e.g., pandas, NumPy, SciPy and Apache Spark
Experience writing automated unit, integration, regression, performance and acceptance tests
Solid understanding of software design principles","Familiarity with linear algebra, regression analysis and machine learning techniques
Experience with cloud computing and storage services
Experience with C or C++
Strong quantitative skills (statistics, econometrics)",None Found,None Found,None Found,"Are you looking for development beyond the ordinary? A place full of interesting challenges and the engineers up to solving them? Then welcome to Financial Engineering. This is the place where the models become software, where many of the numbers that drive our business decisions are produced.

Freddie Mac’s Investments & Capital Markets Division is currently seeking a Machine Learning Engineer to develop production systems that involve data science, data engineering and machine learning. The selected candidate will partner with data scientists to develop high throughput systems to make models, data, and analytics available for business use.

The ideal candidate will have a creative but analytical mindset and be passionate about software engineering. The selected candidate will combine strong software development, quantitative analysis, and collaboration skills to help build high-performance, scalable and fault tolerant solutions.

Your Work Falls into Three Primary Categories:

Building Production Systems
Design, develop and support production systems, which typically contain a models developed by a team of data scientists. Our existing systems are written in Python, however, we choose the right technologies for each system, so candidates need to be able to quickly learn new languages and libraries.
Design and develop new code, implement automated testing to ensure standard technology development practices are met
Support Data Scientists
Work side-by-side with data science and machine learning experts to solve their technical challenges, for example:
Implement new machine learning techniques that are not provided by an existing library
Optimize code written by data scientists to reduce runtime and memory usage
Teamwork
Peer review code and automated tests, help team members with design and implementation challenges
Clearly craft and articulate messages (both written and verbal) to a variety of audiences
Actively seek opportunities to continuously improve the technical quality and architecture to respond to business needs
Qualifications
At least 5 years of experience developing in Python or Java
BS in Computer Science or equivalent experience
Experience with building production web services
Experience working with numerical/quantitative systems, e.g., pandas, NumPy, SciPy and Apache Spark
Experience writing automated unit, integration, regression, performance and acceptance tests
Solid understanding of software design principles
Keys to Success in This Role
Bringing an analytical and imaginative mindset to work every day
Having a passion for advanced technologies
Being a rigorous developer
Learning the business as it happens.
An ability to work independently, communicate well, and emulate an agile mindset
Top Three Personal Competencies to Possess
Customer Focus — Deliver prompt and high-quality customer service
Partnership — Build trust and strong partnerships through self-ownership and team’s actions
Drive for Execution —Be accountable for strong individual and team performance
Preferred Skills
Familiarity with linear algebra, regression analysis and machine learning techniques
Experience with cloud computing and storage services
Experience with C or C++
Strong quantitative skills (statistics, econometrics)
Today, Freddie Mac makes home possible for one in four home borrowers and is one of the largest sources of financing for multifamily housing. Join our smart, creative and dedicated team and you’ll do important work for the housing finance system and make a difference in the lives of others. Freddie Mac is an equal opportunity and top diversity employer. EOE, M/F/D/V."
7,Senior Machine Learning Engineer,"Alexandria, VA 22314",Alexandria,VA,22314,None Found,"
Ability to produce quantitative analysis benchmarking the performance of machine and deep learning algorithms/approaches against state-of-the-practice methods
Experience with neural network design and implementation including, but not limited to, deep neural networks
Excellent written, oral, and interpersonal communication skills
",None Found,None Found,None Found,"
Must be a US citizen with ability to obtain a public trust
Must be a US citizen with ability to obtain a clearance
Master's or higher in computer science, statistics, mathematics, physical science, engineering, or a comparable related technical field
Strong computer science fundamentals, debugging skills and knowledge of algorithms
Be able to develop significant code bases and integrate new libraries and frameworks into work
Excellent foundation and demonstrable experience in recommendations and information retrieval algorithms
Excellent coding abilities in Python and C/C++
Be able to prototype products for ideating and testing
Possess strong writing, data visualization and communication skills with the ability to communicate complex quantitative analysis in a clear, precise, and actionable manner to senior leaders and stakeholders
Good understanding of foundational statistics concepts and algorithms: linear/logistic regression, random forest, boosting, Neural Networks, etc.
Ability to access, manage, transfer, integrate and analyze complex datasets, especially using SQL or map-reduce techniques
Familiarity with libraries such as SparkML, Tensorflow, scikit-learn, or others
Broad understanding of the technologies and capabilities of Machine Learning and Deep Learning
Familiarity with style-transfer learning, unsupervised learning, training sets, and inference models
Experience developing, training, and evaluating deep-learning models using public deep learning frameworks (e.g. PyTorch, TensorFlow, and Keras)
Experience in deep networks (CNN, DBN, RNN, LSTM, DCN) or reinforcement learning (RL)
Strong understanding of machine learning algorithms and principles
Experience with open source vision packages such as OpenCV
Experience with large data sets
Exposure to GPU technology and CUDA programming
","Precision Den Corp (PDC) is a minority owned small business that provides a full suite of service technology consulting and solutions. Our primary focus is information accuracy and management services which include: automated and manual quality control, content capture & data gathering, legacy data migration, systems integration and information management for continuous delivery and deployment systems. PDC develops next generation passive and active land, sea and air content capture mechanisms with the use of the latest technologies. Our support platform is built on machine learning (ML) and uses using artificial intelligence (AI) to provide the ultimate capture accuracy, and provide an immutable flow of usable information for critical decision support.

At PDC, we are helping large enterprises build ML and Deep learning (DL) models on premise and in the cloud. We are applying predictive technology to large volumes of data and against a wide spectrum of problems. We work closely with our customers to provide our professional services to address their business needs using AI.

PDC is seeking a Senior Machine Learning Engineer to join our team responsible for software development of machine learning solutions. Our team is growing and we are looking for a new team member to build a machine learning solution together with a highly multi-disciplinary team of engineers, scientists, and subject domain experts in building adaptive solutions.

In this role the candidate will partner with stakeholders, managers, engineers, and scientists to tackle machine learning problems using AI technology, perform experiments, and optimize the solutions. The candidate will be responsible for designing and maintaining machine/deep/reinforcement learning models and trying to optimize/customize them for new applications, developing production-ready software with scalable, fast and efficient algorithms, collecting data, performing data pre-processing, and defining performance indicators.

Requirements:

Must be a US citizen with ability to obtain a public trust
Must be a US citizen with ability to obtain a clearance
Master's or higher in computer science, statistics, mathematics, physical science, engineering, or a comparable related technical field
Strong computer science fundamentals, debugging skills and knowledge of algorithms
Be able to develop significant code bases and integrate new libraries and frameworks into work
Excellent foundation and demonstrable experience in recommendations and information retrieval algorithms
Excellent coding abilities in Python and C/C++
Be able to prototype products for ideating and testing
Possess strong writing, data visualization and communication skills with the ability to communicate complex quantitative analysis in a clear, precise, and actionable manner to senior leaders and stakeholders
Good understanding of foundational statistics concepts and algorithms: linear/logistic regression, random forest, boosting, Neural Networks, etc.
Ability to access, manage, transfer, integrate and analyze complex datasets, especially using SQL or map-reduce techniques
Familiarity with libraries such as SparkML, Tensorflow, scikit-learn, or others
Broad understanding of the technologies and capabilities of Machine Learning and Deep Learning
Familiarity with style-transfer learning, unsupervised learning, training sets, and inference models
Experience developing, training, and evaluating deep-learning models using public deep learning frameworks (e.g. PyTorch, TensorFlow, and Keras)
Experience in deep networks (CNN, DBN, RNN, LSTM, DCN) or reinforcement learning (RL)
Strong understanding of machine learning algorithms and principles
Experience with open source vision packages such as OpenCV
Experience with large data sets
Exposure to GPU technology and CUDA programming

Preferred Qualifications:

Ability to produce quantitative analysis benchmarking the performance of machine and deep learning algorithms/approaches against state-of-the-practice methods
Experience with neural network design and implementation including, but not limited to, deep neural networks
Excellent written, oral, and interpersonal communication skills

Duties:

Develop highly scalable tools leveraging machine learning models to solve problems such as classification, detection, clustering, topic modeling, natural language processing and recommendation
Research and implement deep learning, machine learning and statistical approaches to solve business problems
Build models and present results to technical and non-technical business users
Develop scalable data processing pipelines for analytical and predictive platform services
Collaborate with other AI scientists and machine learning engineers to find effective solutions to technical challenges
Provide recommendations, guidance and options to support PDC’s AI/ML development roadmap
Work closely with AI/ML engineers to build, test, deploy and troubleshoot machine learning/algorithm-based software

Background Investigation: All applicants will be subject to a background investigation and must be able to obtain a Public Trust clearance.

Physical Demands: While performing the duties of the job, incumbent is occasionally required to stand, walk, sit, use hands and fingers, handle or feel objects, tools, or controls, reach with hands and arms, talk and hear. Employee must occasionally lift and/or move up to 25 pounds. Specific vision abilities required by the job include close vision, distance vision, color vision, peripheral vision, depth perception and the ability to adjust and focus.

We provide:

Competitive Salary
Teleworking Options based on performance
Excellent benefits
Office conveniently located next to metro stop
Location: Washington D.C. area

"
8,"Associate Cloud Developer, A2C Relaunch","Washington, DC",Washington,DC,None Found,None Found,None Found,None Found,None Found,None Found,None Found,"BS level technical degree or equivalent experience; Computer Science or Engineering background preferred; Masters Degree desired.Experience with one of the following programming languages: Java, Python, Ruby, Node.js, C#, or C++Experience with Networking fundamentals, Security, Databases (Relational and/or NoSQL), Operating Systems (Unix, Linux, and/or Windows)Exposure to Agile development methodologies
Ability to travel to provide Professional Services is required for this role.

Returner Program Details:
Return to work and come build the future of cloud computing with Amazon Web Services.The AWS Returners Program offers individuals who have been on a career break an opportunity to return to full time employment within a breadth of different roles. The program is designed to support Returners back into a permanent position, setting them up with the skills and knowledge needed for success at AWS!

Amazon aims to be the most customer centric company on earth. Amazon Web Services (AWS) provides a highly reliable, scalable, low-cost infrastructure platform in the cloud that powers critical applications for hundreds of thousands of businesses in 190 countries around the world.

What are we looking for?
If you have been out of the workforce for longer than two years, and want to restart your career, the AWS Returners Program could be for you. As a Returner:
You will bring your voice. At AWS we value individual expression, respect different opinions, and work together to create a culture where each of us is able to contribute fully.You will accelerate your growth. The scope and scale of what we do for our customers drive us to experiment with new possibilities, take risks and learn quickly.You will chart your own path. The possibilities you explore, the opportunities you take advantage of, and the impact you have is driven by your ideas and initiative.You will embrace the challenge. At AWS building the future is inspiring and fun and we embrace the challenge that comes with inventing and delivering things that were never thought possible.
You will use our Leadership Principles every day. Whether discussing ideas for new projects or deciding on the best approach to solving a problem our Leadership Principles is just one of the things that makes Amazon peculiar. Learn more about our Leadership principles here.
What does the AWS Returners Program Offer?
In Amazon Web Services, we don't mind being called ""peculiar."" We have our own way of doing things. We're obsessed with customers, we see beauty in simplifying the complex, and we're comfortable with being misunderstood. That might sound unorthodox, but our unusual approach and our culture - focused on removing obstacles so builders can build - are part of why our employees enjoy working in AWS.

AWS is helping over a million customers in 190 countries leverage the power of cloud computing. Being a global company isn’t just about worldwide availability or working with international customers; we also see the value in building global teams. Here are some of the great benefits that you’ll get from joining us on our program.

For more information please visit.
https://www.amazon.jobs/en/landing_pages/awsreturners

Professional Services:

We are looking for motivated technologists who possess a unique balance of technical depth, business knowledge, and strong interpersonal skills who have been on a career break an opportunity to return. This program is designed to help and support you back into a full-time permanent role. Our goal is to set you up with the skills and knowledge you need for success.

During your first 6 months as a Returner, you will receive instruction and on-the-job training on a range of AWS services and solutions. By the end of the first year, you will choose a specialty track suited to your strengths and preferences (subject to business availability). These tracks include:

Application Developer – AppDev resources are specialists in designing applications that run natively in the cloud. They are experts in building programs that run on any number of platforms including virtualized instances, containers, or serverless architecture.
Cloud Infrastructure Architect – An expert in cloud-based networking and system rollouts. CIAs specialize in network performance, infrastructure provisioning, and building Application Programming Interfaces (APIs).
DevOps Specialist – A leader in building advanced computing systems that harness continuous integration/continuous deployment pipelines and utilize the strengths of cloud computing to build scalable and economical systems for customers.
Data Lake & Analytics Specialist – This role will specifically focus on data processing capabilities and helping our customers and partners to remove the constraints that prevent our customers from leveraging their data to develop business insights. Engagements will include migration of existing applications and development of new applications using AWS cloud services.
Data Warehouse & Massive Parallel Processing Specialist – This role will specifically focus on large scale data warehousing and database migration capabilities. Engagements will include Redshift implementations and helping customers to migrate from their existing on-premises data warehouses using other databases to Amazon Redshift.
Data & Machine Learning Engineer – In this role, you will work with our partners and customers with a focus on our AWS Analytics and ML services offering such Amazon Kinesis, AWS Glue, Amazon Redshift, Amazon EMR, Athena, Amazon SageMaker, and more. You will help our customers and partners to remove the constraints that prevent them from leveraging their data to develop business insights.

Our consultants deliver proof-of-concept projects, topical workshops, and lead implementation projects. These professional services engagements focus on key customer solutions such as, web applications, enterprise applications, HPC, batch processing and big data, archiving and disaster recovery, education and government.

Responsibilities include:
Expertise - Collaborate with AWS field sales, pre-sales, training and support teams to help partners and customers learn and use AWS services such as Amazon Elastic Compute Cloud (EC2), Amazon Simple Storage Service (S3), Amazon SimpleDB/RDS databases, AWS Identity and Access Management (IAM), etc.Solutions - Define and deliver on-site technical engagements with partners and customers. This includes participating in pre-sales on-site visits, understanding customer requirements, and proposing and delivering packaged offerings, and delivering custom solution engagements.Delivery - Engagements include short on-site projects proving the use of AWS services to support new distributed computing solutions that often span private cloud and public cloud services. Engagements will include migration of existing applications and development of new applications using AWS cloud services.Insights - Work with AWS engineering and support teams to convey partner and customer needs and feedback as input to technology roadmaps. Share real world implementation challenges and recommend new capabilities that would simplify adoption and drive greater value from use of AWS cloud services.
Ability to travel to provide Professional Services is required for this role.

Troubleshooting: Experience with QA, testing, helpdesk, IT support, or any technician or quality assurance type workCloud Awareness: Experience implementing a cloud-based technology solutionExperience with systems administration (Linux/Windows) or network administration (DNS, IPsec, BGP, VPN, Load Balancing)Scripting skills (e.g. Powershell, Python, Bash, Ruby, Perl, etc.)Passion for experiencing new technologies, cultures, and locations in the US and around the world
Amazon is an Equal Opportunity-Affirmative Action Employer – Minority / Female / Disability / Veteran / Gender Identity / Sexual Orientation/Age

Pursuant to the San Francisco Fair Chance Ordinance, we will consider for employment qualified applicants with arrest and conviction records.

Pursuant to the Los Angeles Fair Chance Ordinance, we will consider for employment
qualified applicants with arrest and conviction records."
9,Comchhology Analytics Associate* - Machine Learning Engineer,"Fort Meade, MD",Fort Meade,MD,None Found,None Found,None Found,None Found,None Found,None Found,None Found,"Title generated by a neural net trained on relevant job listings and then asked to perform poorly.
What you will be working on:
Come be a part of a team applying cutting edge Machine Learning to the cybersecurity domain! We will use state of the art ML techniques (Neural Nets, Gradient Boosting, etc.) to model behaviors, detect anomalies, cluster data, and ultimately create actionable information.
You will:
Build and improve ML models for a number of different problem sets
Collect and preprocess data for training and validation
Use TensorFlow, Keras, XGBoost, scikit-learn, and other ML tools
Help other engineers deploy ML models on dynamic compute platforms
Read current research and contribute to the team’s collective knowledge
Work at our headquarters in Annapolis Junction, MD and/or the surrounding area.
What you need:
A Bachelor’s degree in Computer Science or Mathematics
US Government Security clearance or the ability to obtain one.
What we would like you to have:
A deep interest in data and machine learning
A strong background in Computer Science and Mathematics
Experience with Python
Familiarity with Machine Learning tools and techniques
Familiarity with the cyber security domain
A desire to solve problems whose solutions aren’t on Stack Overflow
A few reasons to work for us:
You can grow with us: Our flexible and collaborative environment encourages our people to challenge themselves and feed their need to learn and grow. We offer $10k towards Professional Development and Education, and Brown Bag sessions covering a wide variety of topics.
You can retire sooner rather than later: We match up to 8% of your 401k contributions which you are vested in 100% day one.
Work - life balance is real: In addition to the ability to work flexible hours, you’ll get up to 7 weeks of PTO which is based upon your total years’ experience. For every year you’re with HII-TSD (formerly G2, Inc.), you’ll enjoy an additional day of PTO.
Not quite ready to apply? TAKE THE NEXT STEP and GET CONNECTED or reach out to us at Recruiting@g2-inc.com to take a less formal approach.
We are an equal opportunity employer and all qualified applicants will receive consideration for employment without regard to race, color, religion, sex, national origin, disability status, protected veteran status, or any other characteristic protected by law.
If you are seeking reasonable accommodation as it relates to the employment process, please contact the recruiting department at (410) 290-9710 or recruiting@g2-inc.com"
10,Machine Learning Engineer (Lead),"Vienna, VA",Vienna,VA,None Found,None Found,None Found,None Found,None Found,None Found,None Found,"Towers Crescent (12066), United States of America, Vienna, Virginia

At Capital One, we’re building a leading information-based technology company. Still founder-led by Chairman and Chief Executive Officer Richard Fairbank, Capital One is on a mission to help our customers succeed by bringing ingenuity, simplicity, and humanity to banking. We measure our efforts by the success our customers enjoy and the advocacy they exhibit. We are succeeding because they are succeeding.

Guided by our shared values, we thrive in an environment where collaboration and openness are valued. We believe that innovation is powered by perspective and that teamwork and respect for each other lead to superior results. We elevate each other and obsess about doing the right thing. Our associates serve with humility and a deep respect for their responsibility in helping our customers achieve their goals and realize their dreams. Together, we are on a quest to change banking for good.

Machine Learning Engineer (Lead)

Responsibilities:
End-to-end/full stack software solutions development and deployment of our Machine Learning (ML) and Artificial Intelligence (AI) algorithms.
Write, design, code, test, implement, debug, and validate applications; document design decisions and develop modular software components; monitor system performance metrics, and identify potential risks/issues.
Lead multiple software development initiatives at any given time, serving as an expert for the escalation of complex application design and development issues.
Provide active mentorship/guidance to junior members of the Agile Tech team and participate in internal and external technology communities.
Work with product owners to understand desired application capabilities and testing scenarios, and define, establish, and execute against strategic technical management and business delivery roadmaps, actively managing data risks, issues, and impediments.
Present project metrics, complex ML and AI concepts to both technical and non-technical audiences.

Basic Qualifications:
Bachelor’s Degree
At least 5 years of open source software development experience in Python
At least 2 years of software capabilities development experience in Machine Learning, Deep Learning, or Artificial Intelligence algorithms
At least 2 years of experience in Continuous Integration/Continuous Development, Test Automation, Build Automation, and Test-Driven Development to enable the rapid delivery of working code utilizing Jenkins, Maven, Nexus, Chef, Terraform, Ruby, Git, or Docker in cloud computing environments

Preferred Qualifications:
Ph.D. in Computer Science, Engineering, Information Systems, Physics or Mathematics discipline.
6+ years of experience in full stack software development using Python, Scala, Java, RESTful API, Apache, Spark, Kafka, Micro-service etc., and successful deployment of capabilities in AWS Cloud computing environments.
4+ years of experience with the full AWS stack and distributed Big Data technologies such as Hadoop, Python, Hive, Cloudera, etc.
Experience in Scala, R, Java, Perl, JavaScript, or Shell.
Experience with Tensorflow

Capital One will consider sponsoring a new qualified applicant for employment authorization for this position."
11,Machine Learning Engineer,"Reston, VA 20191",Reston,VA,20191,None Found,"You have BA/BS in a technology, engineering, computer science or related disciplineYou have at least 5 years of hands-on experience in one or more of the fields of image processing, machine learning, computer vision, and data scienceYou have hands-on experience of a broad ranges of technology systems and are able to work with:
any of the following image processing and computer vision frameworks and libraries: OpenCVany of the following AI/machine learning frameworks, statistical packages, and libraries: Tensorflow, Caffe, Amazon Machine Learning, Apache Singa, Torch, Scikit-learn, Microsoft CNTK, Apache Mahout, SQL, d3.js, map-reduce, R, Weka, Orange, as well as open source and other emerging technologies/frameworksprogramming languages and scripting methods including: Python, C, C++, Java, .NET, Bash, AWKoperating systems: Linux, Windowsprefer a Linux terminal over a GUIYou have hands-on experience:engineering solutions to optimize, monitor, and measure performance of operational biometric systemsconducting (and/or leading) research and development of biometric, identity management, and fraud prevention solutionsdeveloping alternate concepts of operation to improve biometric sample and image quality, including automated image quality assessment, image enhancement, device calibrationdeveloping software algorithms to assess and improve image qualityconducting research and assessment to develop technical contributions/guidance for national and international biometrics standards, proposed standards, laws and policiesYou desire to work in an agile and cross functional team environment, understand team goals and generate appropriate, innovative analytical insights to drive process and experience improvement
You challenge the status quo, are hungry to explore, evaluate, and understand new technologies, and wish to share insights and mentor your peersYou possess a TS security clearance",None Found,None Found,None Found,None Found,"RESPONSIBILITIES
As an engineer and technologist in image processing, machine learning, and/or computer vision with out team, you will be working with our clients to design, create, evaluate, and maintain solutions using your experience and expertise in image processing, machine learning, computer vision and data science. In your role you will work with various teams to research, develop, and deploy solutions for various national security missions spanning identity management, multimedia, and cyber end-to-end systems that are transforming the way law enforcement and intelligence communities handle and analyze information and translate it into actionable intelligence.

You would join Noblis’ identity intelligence group as we continue to grow our software and digital capabilities. Today our team consists of developers, scientists, engineers, researchers, and analysts that have served federal, state, and local government clients on high-consequence problems in analytics, biometrics, AI/machine learning, and forensic science for over 20 years. Our team is engaged across the identity intelligence community and has been instrumental in making our customers’ programs successful in analytics, automation, and digital solutions spanning identity science, AI/machine learning, computer vision, biometrics, forensics, media analytics, systems engineering, software development/integration, DevOps, and cloud technologies.
QUALIFICATIONS
Required Qualifications:You have BA/BS in a technology, engineering, computer science or related disciplineYou have at least 5 years of hands-on experience in one or more of the fields of image processing, machine learning, computer vision, and data scienceYou have hands-on experience of a broad ranges of technology systems and are able to work with:
any of the following image processing and computer vision frameworks and libraries: OpenCVany of the following AI/machine learning frameworks, statistical packages, and libraries: Tensorflow, Caffe, Amazon Machine Learning, Apache Singa, Torch, Scikit-learn, Microsoft CNTK, Apache Mahout, SQL, d3.js, map-reduce, R, Weka, Orange, as well as open source and other emerging technologies/frameworksprogramming languages and scripting methods including: Python, C, C++, Java, .NET, Bash, AWKoperating systems: Linux, Windowsprefer a Linux terminal over a GUIYou have hands-on experience:engineering solutions to optimize, monitor, and measure performance of operational biometric systemsconducting (and/or leading) research and development of biometric, identity management, and fraud prevention solutionsdeveloping alternate concepts of operation to improve biometric sample and image quality, including automated image quality assessment, image enhancement, device calibrationdeveloping software algorithms to assess and improve image qualityconducting research and assessment to develop technical contributions/guidance for national and international biometrics standards, proposed standards, laws and policiesYou desire to work in an agile and cross functional team environment, understand team goals and generate appropriate, innovative analytical insights to drive process and experience improvement
You challenge the status quo, are hungry to explore, evaluate, and understand new technologies, and wish to share insights and mentor your peersYou possess a TS security clearance

Desired Qualifications:
Beyond the requirements above, our ideal colleague:has advanced their formal education with a MS/PhD specializing in data science, computer vision, machine learning, and artificial intelligence
has strong written and verbal communication skills (e.g., technical writing)has experience working with USG clients, operational components, and stakeholdershas or are eligible for special access programshas hands-on experience with optics, sensors, color management, measuring image quality characteristicshas hands-on experience with document security features, public key infrastructure (PKI), document imaging, and optical character recognition (OCR)complements our existing team, likes solving problems, and is comfortable with ambiguity
can self manage, has strong self-organization skills, and is eager to contributestrives to be an excellent engineer, is eager to explore new technologies, and develop new skillsis comfortable working with teams across geographic bounds
OVERVIEW
Noblis and our wholly owned subsidiary, Noblis ESI, are solving difficult problems that help our government and our country. We bring the best of scientific thought, management, and engineering expertise with a reputation for independence and objectivity. We support a wide range of government and industry clients in the areas of national security, intelligence, transportation, healthcare, environmental sustainability, and enterprise engineering. Learn more at Noblis -About Us

Why work at a Noblis company?
Our employees find greater meaning in their work and balance the other things in life that matter to them. Our people are our greatest asset. They are exceptionally skilled, knowledgeable, team-oriented, and mission-driven individuals who want to do work that matters and benefits the public.

Noblis has won numerous workplace awards. Noblis maintains a drug-free workplace and is an equal opportunity employer. All qualified applicants will receive consideration for employment without regard to race.
CLIENT ENGAGEMENT
Learn about the Noblis business development life-cycle, processes, tools, and account structureContribute specialized domain or technical content to proposal sections or client white papersBuild a productive relationship with your client and understand their structure and goals."
12,Machine Learning Engineer,"Reston, VA 20190",Reston,VA,20190,None Found,"
2+ years experience coding GANs to produce desired results.
3+ years experience in selecting or developing algorithms for performing a variety of machine learning and computer vision tasks with demonstrable experience
3+ years experience in applying and adapting the latest research in machine learning and computer vision to support business objectives including prototype development and product integration.
3+ years experience performing model training / algorithm development optimizing for speed, size or accuracy and developing / refining new and existing training sets as required.
5+ years experience designing, developing, enhancing, debugging and implementing software and algorithms using programming languages such as Java, C++, Python, R, or JavaScript.
Proficiency in Machine Learning processes such as feature extraction, statistical approaches, linear and non-linear classifiers, and deep learning including one or more approaches such as CNNs, SVM, and Bayesian Networks.
Experience with deep learning frameworks such as TensorFlow, Keras, or Torch
Proficiency in in Image Processing, Image Analysis, and/or Computer Vision
Ability to work independently, in a SCRUM-like environment with strong desire to push your ideas into production, overcoming obstacles, in order to deliver impact.
",None Found,None Found,None Found,None Found,"Overview

Radical Convergence is a fast-paced start up looking to disrupt, transform, and innovate on behalf of our clients. We are inventors, technologists, artisans, problem solvers, and collaborators seeking to redefine the content management experience and changing how content is delivered to clients. We have an amazing team and we want to add a few talented revolutionaries who want to make a difference solving big problems and contributing to impactful and meaningful work. Create your story and start making an indelible impact today.

Job Description

We are seeking a Machine Learning Engineer to work collaboratively with highly talented team members to conduct applied research in generative adversarial networks (GANs) and related methods to generate content. The ideal candidate has experience applying state of the art machine learning and computer vision algorithms and deep learning frameworks with experience in GANs and related deep learning methods. Candidates must be able to conduct research, implement new models, conduct experiments and package models working with our engineering team. Candidates must have strong programming skills in Python, flexibility working across various deep learning platforms (e.g., TensorFlow and PyTorch), and previous experience coding GANs to prototype algorithms and models working with a team of engineers to productize offerings.

This position is located in our Reston, Virginia headquarters.

Qualifications

2+ years experience coding GANs to produce desired results.
3+ years experience in selecting or developing algorithms for performing a variety of machine learning and computer vision tasks with demonstrable experience
3+ years experience in applying and adapting the latest research in machine learning and computer vision to support business objectives including prototype development and product integration.
3+ years experience performing model training / algorithm development optimizing for speed, size or accuracy and developing / refining new and existing training sets as required.
5+ years experience designing, developing, enhancing, debugging and implementing software and algorithms using programming languages such as Java, C++, Python, R, or JavaScript.
Proficiency in Machine Learning processes such as feature extraction, statistical approaches, linear and non-linear classifiers, and deep learning including one or more approaches such as CNNs, SVM, and Bayesian Networks.
Experience with deep learning frameworks such as TensorFlow, Keras, or Torch
Proficiency in in Image Processing, Image Analysis, and/or Computer Vision
Ability to work independently, in a SCRUM-like environment with strong desire to push your ideas into production, overcoming obstacles, in order to deliver impact.
Preferred Qualifications

Master's or Ph.D. degree in Engineering, Computer Science, Machine Learning, Math, Statistics or related fields with specialization in machine learning and/or computer vision.
Computer vision experience in 3D computer vision tasks
Deep understanding of recent ANN/GAN concepts such as Spectral Normalization, Lipschitz Continuity, the Wasserstein Metric, Attention Mechanisms, Instance Normalization, and/or Perceptual Losses.
Experience with distributed training of deep neural networks across many GPUs/TPUs.
Experience with a diverse set of generative modeling techniques.

Benefits and Perks

Radical Convergence is as obsessed about our employees as our customers. We want to provide great benefits and perks so you can focus on making an impact. We recognize that industry is moving away from better benefits so we have decided to do our part to start reversing the trend. Join us in our quest to disrupt, transform and innovate.

Benefits
Competitive Pay
100% Company paid medical/dental/vision/life/disability plans
Health Reimbursable Account (HRA) for those pesky copays
Flexible Savings Accounts (FSA)
Training Budget
401(k) Matching
Perks
Time When You Need It – Unlimited Vacation Time
Be Gumby – Flexible work schedule and location
Late Night Munchies – We are fully stocked
zCNMCQQe1o"
13,Scientientutional Data Tesk* - Machine Learning Engineer,"Fort Meade, MD",Fort Meade,MD,None Found,None Found,None Found,None Found,None Found,None Found,None Found,"Title generated by a neural net trained on relevant job listings and then asked to perform poorly.
What you will be working on:
Come be a part of a team applying cutting edge Machine Learning to the cybersecurity domain! We will use state of the art ML techniques (Neural Nets, Gradient Boosting, etc.) to model behaviors, detect anomalies, cluster data, and ultimately create actionable information.
You will:
Build and improve ML models for a number of different problem sets
Collect and preprocess data for training and validation
Use TensorFlow, Keras, XGBoost, scikit-learn, and other ML tools
Help other engineers deploy ML models on dynamic compute platforms
Read current research and contribute to the team’s collective knowledge
Mentor junior team members
Contribute to team strategy and direction
Work at our headquarters in Annapolis Junction, MD and/or the surrounding area.
What you need:
A Bachelor’s degree in Computer Science or Mathematics
10+ years experience in Software Engineering or Machine Learning
US Government Security clearance or the ability to obtain one.
What we would like you to have:
A deep interest in data and machine learning
A Master’s degree in Computer Science or Mathematics
Experience with Python
5+ years experience with Machine Learning tools and techniques
Familiarity with the cyber security domain
A desire to solve problems whose solutions aren’t on Stack Overflow
A few of the reasons to work for us:
You can grow with us: Our flexible and collaborative environment encourages our people to challenge themselves and feed their need to learn and grow. We offer $10k towards Professional Development and Education, and Brown Bag sessions covering a wide variety of topics.
You can retire sooner rather than later: We match up to 8% of your 401k contributions which you are vested in 100% day one.
Work - life balance is real: In addition to the ability to work flexible hours, you’ll get up to 7 weeks of PTO which is based upon your total years’ experience. For every year you’re with HII-TSD (formerly G2, Inc.) you’ll enjoy an additional day of PTO.
Not quite ready to apply? TAKE THE NEXT STEP and GET CONNECTED or reach out to us at Recruiting@g2-inc.com to take a less formal approach.
We are an equal opportunity employer and all qualified applicants will receive consideration for employment without regard to race, color, religion, sex, national origin, disability status, protected veteran status, or any other characteristic protected by law.
If you are seeking reasonable accommodation as it relates to the employment process, please contact the recruiting department at (410) 290-9710 or recruiting@g2-inc.com"
14,"Associate ProServe Consultant, TechU","Washington, DC",Washington,DC,None Found,None Found,None Found,None Found,None Found,None Found,None Found,"Bachelor’s Degree in a STEM related field such as computer science, computer engineering, or equivalent experience1+ years programming experience in one of the following languages: Java, Python, Ruby, C# or C++1+ years experience with Networking fundamentals, Security, Databases (Relational and/or NoSQL), Operating Systems (Unix, Linux, and/or Windows)

At Amazon we're working to be the most customer-centric company on earth. To get there, we need exceptional talent, and bright, driven people. Amazon Web Services (AWS), a subsidiary of Amazon.com and a leader in Cloud Computing, is seeking early career talent to join our AWS Tech U Program. This is a unique opportunity for driven, self-starters to play a key role in a fast-growing business, and to deliver significant value to AWS customers of all sizes from nimble startups to global brands. You will learn from top AWS subject matter experts and get paid while you train for an exciting career in the tech industry.

These are some of the most challenging and exciting roles in the IT industry today. We work with cutting edge technologies supporting the largest and most innovative businesses, non-profits and government agencies around the world. This is a an unparalleled opportunity to leapfrog your peers and take a leadership role helping AWS to transform the way the world uses technology to solve their business challenges. The skills and experiences you gain will be highly sought after throughout the industry and give you the opportunity for the career of a lifetime.

About Tech U
If you have a deep passion for utilizing technology to empower businesses and a love for collaborating with technology and business leaders then the AWS Tech U Program is for you. AWS Tech U is an accelerated career development program for those who want to advance both their technical and business skills. The Program will provide you with training and work experience that aligns in the fields of Professional Service Consulting. This unique residency program consists of a 6-month instructor lead, project-based learning curriculum (where you must be open to both Herndon, VA, and Seattle, WA for this portion of the program), followed by a 6 month On-the-Job Training (OJT) learning assignment within Professional Services Consulting (location based on business need). To be considered for this role, you must be willing to complete the 6 months of OJT (location based on business need). AWS will provide relocation assistance for both the academic and on-the-job training assignments.

Professional Services
Amazon Web Services (AWS) is looking for motivated technologists who possess a unique balance of technical depth, business knowledge, and strong interpersonal skills. You will partner with customers and several AWS teams to craft highly scalable, flexible and resilient cloud architectures that address customer business problems. As a trusted customer advocate, you will help organizations understand best practices around cloud-based solutions, and how to migrate existing workloads to the cloud. You will have the opportunity to help shape and execute a strategy to build min- share and broad use of AWS within organizations.

At AWS, we have a credo of “Work hard. Have fun. Make history”. In this role, you will love what you do and instinctively know how to make work fun. You will be dynamic, creative, and willing to take on any challenge and make a big impact.

Here are some of the qualities we are searching for:
Be great fun to work with. At AWS, we have a credo of “Work hard. Have fun. Make history”. In this role, you will love what you do, and instinctively know how to make work fun. You will be dynamic and creative, and willing to take on any challenge and make a big impact.
An affinity for the new and unknown. We are always experimenting with innovative technologies including cloud computing, Machine Learning, and Internet of Things.
Enjoy working with customers of all shapes and sizes. You will have a passion for educating, training, designing, and building solutions for a diverse and challenging set of customers ranging from small businesses to large enterprises.
During your OJT as an Associate Cloud Developer within Professional Services, you will receive instruction and on-the-job training on a range of AWS services and solutions. By the end of your program, you will choose a specialty track suited to your strengths and preferences (subject to business availability). These tracks include:

Application Developer – AppDev resources are specialists in designing applications that run natively in the cloud. They are experts in building programs that run on any number of platforms including virtualized instances, containers, or serverless architecture.
Cloud Infrastructure Architect – An expert in cloud-based networking and system rollouts. CIAs specialize in network performance, infrastructure provisioning, and building Application Programming Interfaces (APIs).
DevOps Specialist – A leader in building advanced computing systems that harness continuous integration/continuous deployment pipelines and utilize the strengths of cloud computing to build scalable and economical systems for customers.
Data Lake & Analytics Specialist – This role will specifically focus on data processing capabilities and helping our customers and partners to remove the constraints that prevent our customers from leveraging their data to develop business insights. Engagements will include migration of existing applications and development of new applications using AWS cloud services.
Data Warehouse & Massive Parallel Processing Specialist – This role will specifically focus on large scale data warehousing and database migration capabilities. Engagements will include Redshift implementations and helping customers to migrate from their existing on-premises data warehouses using other databases to Amazon Redshift.
Data & Machine Learning Engineer – In this role, you will work with our partners and customers with a focus on our AWS Analytics and ML services offering such Amazon Kinesis, AWS Glue, Amazon Redshift, Amazon EMR, Athena, Amazon SageMaker, and more. You will help our customers and partners to remove the constraints that prevent them from leveraging their data to develop business insights.

Ability to travel to provide Professional Services is required for this role.

Meet Customer requirements to allow for authorized work in the US and possess permanent authorization to work in the U.S.Troubleshooting: Experience with QA, testing, helpdesk, IT support, or any technician or quality assurance type workCloud Awareness: Experience implementing a cloud-based technology solution in a school project or while working for a companyExperience with one or more of the following domains: systems administration (Linux/Window), network administration (DNS, IPsec, BGP, VPN, Load Balancing), or programming (Node.JS, Java, Ruby, C#, Python, or PHP)Passion for experiencing new technologies, cultures and locations in the US and around the world
Amazon is an Equal Opportunity Employer – Minority / Women / Disability / Veteran / Gender Identity / Sexual Orientation / Age.

Pursuant to the San Francisco Fair Chance Ordinance, we will consider for employment qualified applicants with arrest and conviction records.

Pursuant to the Los Angeles Fair Chance Ordinance, we will consider for employment qualified applicants with arrest and conviction records."
15,Comchhology Analytics Associate* - Machine Learning Engineer,"Fort Meade, MD",Fort Meade,MD,None Found,None Found,None Found,None Found,None Found,None Found,None Found,"Title generated by a neural net trained on relevant job listings and then asked to perform poorly.
What you will be working on:
Come be a part of a team applying cutting edge Machine Learning to the cybersecurity domain! We will use state of the art ML techniques (Neural Nets, Gradient Boosting, etc.) to model behaviors, detect anomalies, cluster data, and ultimately create actionable information.
You will: Build and improve ML models for a number of different problem sets Collect and preprocess data for training and validation Use TensorFlow, Keras, XGBoost, scikit-learn, and other ML tools Help other engineers deploy ML models on dynamic compute platforms Read current research and contribute to the team’s collective knowledge Work at our headquarters in Annapolis Junction, MD and/or the surrounding area.

What you need: A Bachelor’s degree in Computer Science or Mathematics US Government Security clearance or the ability to obtain one.

What we would like you to have: A deep interest in data and machine learning A strong background in Computer Science and Mathematics Experience with Python
 Familiarity with Machine Learning tools and techniques Familiarity with the cyber security domain A desire to solve problems whose solutions aren’t on Stack Overflow

A few reasons to work for us:
You can grow with us: Our flexible and collaborative environment encourages our people to challenge themselves and feed their need to learn and grow. We offer $10k towards Professional Development and Education, and Brown Bag sessions covering a wide variety of topics.
You can retire sooner rather than later: We match up to 8% of your 401k contributions which you are vested in 100% day one.
Work - life balance is real: In addition to the ability to work flexible hours, you’ll get up to 7 weeks of PTO which is based upon your total years’ experience. For every year you’re with HII-TSD (formerly G2, Inc.), you’ll enjoy an additional day of PTO.
Not quite ready to apply? TAKE THE NEXT STEP and GET CONNECTED or reach out to us at Recruiting@g2-inc.com to take a less formal approach.
We are an equal opportunity employer and all qualified applicants will receive consideration for employment without regard to race, color, religion, sex, national origin, disability status, protected veteran status, or any other characteristic protected by law.
If you are seeking reasonable accommodation as it relates to the employment process, please contact the recruiting department at (410) 290-9710 or recruiting@g2-inc.com"
16,Scientientutional Data Tesk* - Machine Learning Engineer,"Fort Meade, MD",Fort Meade,MD,None Found,None Found,None Found,None Found,None Found,None Found,None Found,"Title generated by a neural net trained on relevant job listings and then asked to perform poorly.
What you will be working on:
Come be a part of a team applying cutting edge Machine Learning to the cybersecurity domain! We will use state of the art ML techniques (Neural Nets, Gradient Boosting, etc.) to model behaviors, detect anomalies, cluster data, and ultimately create actionable information.
You will: Build and improve ML models for a number of different problem sets Collect and preprocess data for training and validation Use TensorFlow, Keras, XGBoost, scikit-learn, and other ML tools Help other engineers deploy ML models on dynamic compute platforms Read current research and contribute to the team’s collective knowledge Mentor junior team members Contribute to team strategy and direction Work at our headquarters in Annapolis Junction, MD and/or the surrounding area.

What you need: A Bachelor’s degree in Computer Science or Mathematics 10+ years experience in Software Engineering or Machine Learning US Government Security clearance or the ability to obtain one.

What we would like you to have: A deep interest in data and machine learning A Master’s degree in Computer Science or Mathematics Experience with Python
 5+ years experience with Machine Learning tools and techniques Familiarity with the cyber security domain A desire to solve problems whose solutions aren’t on Stack Overflow

A few of the reasons to work for us:
You can grow with us: Our flexible and collaborative environment encourages our people to challenge themselves and feed their need to learn and grow. We offer $10k towards Professional Development and Education, and Brown Bag sessions covering a wide variety of topics.
You can retire sooner rather than later: We match up to 8% of your 401k contributions which you are vested in 100% day one.
Work - life balance is real: In addition to the ability to work flexible hours, you’ll get up to 7 weeks of PTO which is based upon your total years’ experience. For every year you’re with HII-TSD (formerly G2, Inc.) you’ll enjoy an additional day of PTO.
Not quite ready to apply? TAKE THE NEXT STEP and GET CONNECTED or reach out to us at Recruiting@g2-inc.com to take a less formal approach.
We are an equal opportunity employer and all qualified applicants will receive consideration for employment without regard to race, color, religion, sex, national origin, disability status, protected veteran status, or any other characteristic protected by law.
If you are seeking reasonable accommodation as it relates to the employment process, please contact the recruiting department at (410) 290-9710 or recruiting@g2-inc.com"
17,Machine Learning Engineer,"Reston, VA",Reston,VA,None Found,None Found,"
Strong technical skills with an emphasis in Java
2+ years of experience with machine learning and/or deep learning methods
Ability to handle multiple projects simultaneously, meet deadlines, and effectively manage priorities and communicate progress
Experience working in a cloud based and Agile environment
Experience with big data processing (Spark/Hadoop)
Fluent in Linux based systems and code versioning tooling (Git/CI/CD)
B.S., M.S. or Ph.D. in Computer Science or equivalent degree and work experience",None Found,"
Design and implement ML feature pipelines
Serve as active member of small, dedicated machine learning team
Optimize pipelines and processes for model development, experimentation and scaled production scoring
Implement machine learning algorithms and libraries in service to modeling and production scoring pipelines
Analyze large and complex data sets to derive valuable insights, inform feature and product development
Apply machine learning and data science techniques and design distributed systems
Be in charge of the entire lifecycle (research, design, experimentation, development. deployment, monitoring, and maintenance)
Drive the evolution of Resonate’s ML/AI infrastructure through research, experimentation and implementation of best practices",None Found,"
Strong technical skills with an emphasis in Java
2+ years of experience with machine learning and/or deep learning methods
Ability to handle multiple projects simultaneously, meet deadlines, and effectively manage priorities and communicate progress
Experience working in a cloud based and Agile environment
Experience with big data processing (Spark/Hadoop)
Fluent in Linux based systems and code versioning tooling (Git/CI/CD)
B.S., M.S. or Ph.D. in Computer Science or equivalent degree and work experience","Resonate is disrupting the marketing and advertising landscape with cutting-edge technology that brings together real-time survey data and insights on over 230 million consumers and online behavioral data all in one platform. Resonate has pioneered a completely new way to identify, understand, and engage highly-targeted audiences by uncovering 13,000 individual attributes that identify their underlying values, beliefs, and motivations. We get to the heart of ‘why’ consumers do what they do and the products, companies and causes they support.
This candidate will work with a tight, highly skilled machine learning team dedicated to the development of Resonates proprietary consumer insights. This role will mine billions of streaming web events each day, leveraging the emerging ML techniques to drive the Resonate product. If you are interested in working on cutting edge ML and AI projects at internet scale and speed this is the job for you!
Key Responsibilities
Design and implement ML feature pipelines
Serve as active member of small, dedicated machine learning team
Optimize pipelines and processes for model development, experimentation and scaled production scoring
Implement machine learning algorithms and libraries in service to modeling and production scoring pipelines
Analyze large and complex data sets to derive valuable insights, inform feature and product development
Apply machine learning and data science techniques and design distributed systems
Be in charge of the entire lifecycle (research, design, experimentation, development. deployment, monitoring, and maintenance)
Drive the evolution of Resonate’s ML/AI infrastructure through research, experimentation and implementation of best practices
Qualifications & Experience Requirements
Strong technical skills with an emphasis in Java
2+ years of experience with machine learning and/or deep learning methods
Ability to handle multiple projects simultaneously, meet deadlines, and effectively manage priorities and communicate progress
Experience working in a cloud based and Agile environment
Experience with big data processing (Spark/Hadoop)
Fluent in Linux based systems and code versioning tooling (Git/CI/CD)
B.S., M.S. or Ph.D. in Computer Science or equivalent degree and work experience

About Resonate:

Resonate is a pioneer in Consumer Intelligence Marketing, delivering deep consumer understanding, dynamic insights and analysis in a simple-to-use SaaS platform. Leading consumer brands, advertising agencies and political and advocacy organizations have used Resonate to understand the Human Element, a holistic understanding of their customers and prospects, that extends beyond demographics, psychographics and behavioral data. We uncover the why that drives the what behind consumers’ decisions to buy or support certain brands, products or causes. Resonate conducts the most extensive U.S. consumer survey and the Resonate Platform contains insights on more than 13,000 attributes representing 185 million U.S. adult consumers.

Resonate offers a unique opportunity to people who want to grow and shape the future of the industry. We’ve been named a Top Workplace by both The Washington Post and VA Business Magazine multiple times. We’ve also been recognized for our consistent growth as part of the Inc. 5000 list five years in a row and by industry-leaders for our game-changing approach to understanding people.
Resonate is privately held and backed by Revolution Growth, Greycroft Partners, and iNovia Capital. Resonate is headquartered in Reston, VA with offices in New York City, and Washington, D.C. Be a part of the team that changes the industry!

More Information:

Find out more about our story at www.resonate.com.

Resonate offers a competitive compensation and benefits package."
18,"Machine Learning Engineer, Senior","Chantilly, VA 20151",Chantilly,VA,20151,None Found,None Found,None Found,None Found,None Found,None Found,"The Challenge:
Are you excited at the prospect of unlocking the secrets held by a data set? Are you fascinated by the possibilities presented by the IoT, machine learning, and artificial intelligence advances? In an increasingly connected world, massive amounts of structured and unstructured data open up new opportunities. As a data scientist, you can turn these complex data sets into useful information to solve global challenges. Across private and public sectors — from fraud detection, to cancer research, to national intelligence — you know the answers are in the data.

We have an opportunity for you to use your leadership and analytical skills to improve the military operations community. You’ll work closely with your customer to understand their questions and needs, then dig into their data-rich environment to find the pieces of their information puzzle. You’ll mentor teammates, develop algorithms, write scripts, build predictive analytics, use automation, apply machine learning, and use the right combination of tools and frameworks to turn that set of disparate data points into objective answers to help our military leaders make informed decisions. You’ll provide your customer with a deep understanding of their data, what it all means, and how they can use it. Join us as we use data science for good in support of operations.

Empower change with us.

Build Your Career:

At Booz Allen, we know the power of analytics and we’re dedicated to helping you grow as a data analysis professional. When you join Booz Allen, you can expect:
access to online and onsite training in data analysis and presentation methodologies, and tools like Hortonworks, Docker, Tableau, and Splunk
a chance to change the world with the Data Science Bowl—the world’s premier data science for social good competition
participation in partnerships with data science leaders, like our partnership with NVIDIA to deliver Deep Learning Institute (DLI) training to the federal government
You’ll have access to a wealth of training resources through our Analytics University, an online learning portal specifically geared towards data science and analytics skills, where you can access more than 5000 functional and technical courses, certifications, and books. Build your technical skills through hands-on training on the latest tools and state-of-the-art tech from our in-house experts. Pursuing certifications? Take advantage of our tuition assistance, on-site bootcamps, certification training, academic programs, vendor relationships, and a network of professionals who can give you helpful tips. We’ll help you develop the career you want, as you chart your own course for success.
You Have:5+ years of experience with application of machine learning techniquesExperience with developing machine learning systemsExperience with programming languages, including Python, R, or C++Experience with using a machine learning framework, including TensorFlow, Caffe, Keras, and SparkMLTS/SCI clearanceBA or BS degree in a Science, Technology, Engineering, or Mathematics field
Nice If You Have:2+ years of experience as a developer of Java, Python, R, or similar high-level languages2+ years of experience with designing novel data analytic methods and workflows, including full data pipelines from raw data through analysis results2+ years of experience with managing disparate data sources with varying data structures of content and preparing these for data science and machine learning applicationsExperience in working with Big Data storage, processing, and computation, including one or more of the following: Accumulo, Spark, Storm, Kafka, or MapReduceAbility to both manage and manipulate large data sets, develop data science approaches, and manage data science tasksAbility to leverage a wide variety of data science capabilities and languagesAbility to exhibit flexibility, initiative, and innovation when dealing with ambiguous and fast-paced situations
Clearance:
Applicants selected will be subject to a security investigation and may need to meet eligibility requirements for access to classified information; TS/SCI clearance is required.
We’re an EOE that empowers our people—no matter their race, color, religion, sex, gender identity, sexual orientation, national origin, disability, veteran status, or other protected characteristic—to fearlessly drive change."
19,Federal - Machine Learning Engineer,"Washington, DC 20006",Washington,DC,20006,None Found,"
1 year of experience in building and evolving complex software systems for data processing and machine learning workloads
1 year of experience with Big Data processing and ML cloud native services on one or more Cloud Platforms (GCP, Azure and/or AWS)
1 year of experience with productionizing developed machine learning solutions
1 year of knowledge and experience with databases – SQL, NOSQL
1 year of experience with Python","
1 year of experience in building and evolving complex software systems for data processing and machine learning workloads
1 year of experience with Big Data processing and ML cloud native services on one or more Cloud Platforms (GCP, Azure and/or AWS)
1 year of experience with productionizing developed machine learning solutions
1 year of knowledge and experience with databases – SQL, NOSQL
1 year of experience with Python",None Found,None Found,None Found,"Organization: Accenture Federal Services
Location: Arlington, VA - Washington, DC

Accenture Federal Services, a wholly owned subsidiary of Accenture LLP, is a U.S. company with offices in Arlington, Virginia. Accenture's federal business has served every cabinet-level department and 30 of the largest federal organizations. Accenture Federal Services transforms bold ideas into breakthrough outcomes for clients at defense, intelligence, public safety, civilian and military health organizations.
We believe that great outcomes are everything. It’s what drives us to turn bold ideas into breakthrough solutions. By combining digital technologies with what works across the world’s leading businesses, we use agile approaches to help clients solve their toughest problems fast—the first time. So, you can deliver what matters most.
Count on us to help you embrace new ways of working, building for change and put customers at the core. A wholly owned subsidiary of Accenture, we bring over 30 years of experience serving the federal government, including every cabinet-level department. Our 7,200 dedicated colleagues and change makers work with our clients at the heart of the nation’s priorities in defense, intel, public safety, health and civilian to help you make a difference for the people you employ, serve and protect.

The Machine Learning Engineer develops machine learning solutions to meet business use cases and to support experimentation and innovation to advance mission outcomes. The engineer collaborates with business SMEs, architects, data engineers, developers and data scientists to identify innovative machine learning solutions that leverage data to meet business goals. The machine learning engineer ensures infrastructure and data pipelines are structured to deploy machine learning solutions.

Key Responsibilities:

Understands and translates business and functional needs into machine learning problem statementsTranslates complex machine learning problem statements into specific deliverables and requirementsDesigns and develops scalable solutions that leverage machine learning and deep learning models to meet enterprise requirementsWorks closely with data scientists and data engineers to develop machine learning algorithmsWorks on Optimization of Neural Net and Deep Learning models for inferenceTranslates machine learning algorithms into production-level codeCollaborates with development teams to test and deploy machine learning modelsCreates metrics to continuously evaluate the performance of machine learning solutionsMaintains and improves the performance of existing machine learning solutionsEnsures adherence to performance standards and compliance to data security requirementsKeeps abreast with new tools, algorithms and techniques in machine learning and works to implement them in the organization
Skills:
Proficiency in machine learning algorithms such as multi-class classifications, decision trees, support vector machines and deep learningStrong understanding of probability and statistical models (generative and descriptive models)Ability to run experiments scientifically and analyze resultsAbility to effectively communicate technical concepts and results to technical and business audiences in a comprehensive mannerAbility to collaborate effectively across multiple teams and stakeholders, including analytics teams, development teams, product management and operations
Strong Computer Science fundamentals in algorithms, data structures, OOPS, functional programming

Basic Skills and Qualifications:
1 year of experience in building and evolving complex software systems for data processing and machine learning workloads
1 year of experience with Big Data processing and ML cloud native services on one or more Cloud Platforms (GCP, Azure and/or AWS)
1 year of experience with productionizing developed machine learning solutions
1 year of knowledge and experience with databases – SQL, NOSQL
1 year of experience with Python
Preferred Skills and Qualifications:
Strong grasp of principles and approaches used in data-driven systems, processes and algorithms
Experience with ML algorithms for time series data-sets
Experience with stream processing frameworks / complex event processing engines
Scripting skills in at least one of the following: Shell, Perl, Bash, or Ruby
Experience with performance engineering including testing, tuning and monitoring tools
Basic familiarity with continuous integration tools and frameworks
Bachelor's degree in data science, applied mathematics, computer science or otherwise research-based field

An active security clearance or the ability to obtain one may be required for this role.
Candidates who are currently employed by a client of Accenture or an affiliated Accenture business may not be eligible for consideration.
Applicants for employment in the US must have work authorization that does not now or in the future require sponsorship of a visa for employment authorization in the United States and with Accenture (i.e., H1-B visa, F-1 visa (OPT), TN visa or any other non-immigrant status).
Accenture is a Federal Contractor and an EEO and Affirmative Action Employer of Females/Minorities/Veterans/Individuals with Disabilities.
Equal Employment Opportunity
All employment decisions shall be made without regard to age, race, creed, color, religion, sex, national origin, ancestry, disability status, veteran status, sexual orientation, gender identity or expression, genetic information, marital status, citizenship status or any other basis as protected by federal, state, or local law.
Job candidates will not be obligated to disclose sealed or expunged records of conviction or arrest as part of the hiring process.
Accenture is committed to providing veteran employment opportunities to our service men and women."
20,Lead Machine Learning Engineer,"Rockville, MD 20855",Rockville,MD,20855,None Found,None Found,"Strong technical team leadership skills in communication skills with team members, task organizations, delegation, etc.
Demonstrated use and mastery of machine and deep learning concepts and key algorithms
Solid working (hands on preferred) understanding of big data technologies
Depth in at least one domain where machine learning is applied
Experience in developing, testing, debugging, and deploying complex algorithms in a variety of environments
Proficient in technical writing and strong communication skills
",None Found,"A Master’s degree (with thesis option) or Ph.D. (preferred) in Computer Science, Computer Engineering, Electrical Engineering, Robotics, Physics, Mathematics or related field
Minimum 5 years of research and development experience in general machine learning and deep learning
",None Found,"Are you a machine learning engineer? Does the idea of contributing to a variety of machine learning, deep learning, and big data projects get you excited? If so, we are looking for you!

For this role, the successful candidate will lead a team of engineers and data scientists in developing advanced algorithms for time series, text, audio, image and video processing, and big data analytics.
Related projects at IAI include multi-sensor fusion, information retrieval in big data applications, sensor simulation, text mining, image and video processing, and constrained optimization. We are looking to add expertise and talent to our multi-disciplinary team to continue our success in all of these areas.

Job Duties
Conduct research and development in the area of time series, time-frequency analysis, natural language processing, and/or image/video processing.
Develop algorithms and conduct analysis using state–of-the-art machine learning/artificial intelligence tools across a variety of domains
Interact with and support multiple research teams * Provide technical leadership, mentor junior team members, and develop high quality artifacts that can reused on different projects
Support program management and business development efforts by writing reports/papers, contributing to proposals, presenting work to customers, etc.
Required Experience & Education
A Master’s degree (with thesis option) or Ph.D. (preferred) in Computer Science, Computer Engineering, Electrical Engineering, Robotics, Physics, Mathematics or related field
Minimum 5 years of research and development experience in general machine learning and deep learning
Required Skills
Strong technical team leadership skills in communication skills with team members, task organizations, delegation, etc.
Demonstrated use and mastery of machine and deep learning concepts and key algorithms
Solid working (hands on preferred) understanding of big data technologies
Depth in at least one domain where machine learning is applied
Experience in developing, testing, debugging, and deploying complex algorithms in a variety of environments
Proficient in technical writing and strong communication skills
Desired Skills
Experience with Deep Learning Frameworks (TensorFlow, Caffe, etc.), NVIDIA Deep Learning SDK, and/or other deep learning software libraries
Strong background in math and physics
Proficient in programming and debugging in at least one language (Java, python, C/C++)
Familiar with the software development lifecycle and relevant tools
Experience with Big Data technologies (Apache Kafka, Storm, Spark, Solr).
Experience with database technologies such as HBase, Cassandra, MongoDB or similar
Experience in parallel processing such as GPU programming with CUDA or OpenCL.
About IAI

Intelligent Automation, Inc. (IAI) is a technology innovation company headquartered in Rockville, MD. For over 30 years, we have specialized in providing advanced technology solutions and R&D services to federal agencies and corporations throughout the United States and internationally. Leveraging agile R&D processes, a multi-disciplinary collaborative environment, and its substantial intellectual property portfolio, IAI excels in developing concepts into market-focused products and customer-driven solutions. IAI’s core R&D areas include: Air Traffic Management, Big Data and Social Media Analytics, Control and Signal Processing, Cyber Security, Education and Training Technologies, Health Technologies, Modeling and Simulation, Networks and Communications, Robotics, and Sensor Systems.
US Citizenship or Permanent Residency required

All qualified applicants will receive consideration for employment without regard to race,
color, religion, sex, sexual orientation, gender identity, national origin, disability, or veteran status.


Requisition ID: 19-1201"
21,ML/AI Engineer,"Reston, VA 20190",Reston,VA,20190,None Found,None Found,None Found,None Found,None Found,None Found,"MetroStar Systems is looking for a Machine Learning Engineer that is passionate about cutting edge research and using the latest technologies. If you want to join a company that values solving real client problems while advancing the field of machine learning and are open to commuting to Reston, VA we want you to work for MetroStar!
You're a great fit if:
5+ years functional experience in a data engineering or business intelligence role
You have experience with AWS or Google ML/AI services
You thrive in a collaborative and open environment solving problems
You'll love our position if:
(This is the stuff you MUST have to be a fit)
5+ years of professional software engineering experience, including testing and deploying iterative releases of software systems
3+ years of experience applying, implementing, and/or developing machine learning or statistical algorithms
Proficiency in Python and/or C++ and SQL
3+ years in data modeling and systems design skills
We'll REALLY love you if:
(This is the bonus stuff that makes you stand out)
You have a bachelor’s degree in Computer Science or Software Engineering, or Master’s Degree or PhD in Computer Science or Software Engineering
You have an established portfolio of publications, projects and/or speaking engagements
3+ years working with cloud software design using distributed caching
Advanced knowledge of big data and machine learning technologies, especially in AWS and/or Google
Experience with Apache Atlas, Airflow, and Spark
The Admin Stuff: Applicants selected may be subject to a government security investigation and must meet eligibility requirements for potential access to classified information. Accordingly, US Citizenship is required
The Legal Stuff:MetroStar Systems is committed to creating a diverse environment and is proud to be an equal opportunity employer. All qualified applicants will receive consideration for employment without regard to race, color, religion, gender, gender identity or expression, sexual orientation, national origin, genetics, disability, age, or veteran status. The statements herein are intended to describe the general nature and level of work being performed by employees, and are not to be construed as an exhaustive list of responsibilities, duties, and skills required of personnel so classified. Furthermore, they do not establish a contract for employment and are subject to change at the discretion of MetroStar Systems."
22,Federal - Senior Machine Learning Engineer,"Washington, DC 20006",Washington,DC,20006,None Found,"3 years of experience in building and evolving complex software systems for data processing and machine learning workloads
3 years of experience with Big Data processing and ML cloud native services on one or more Cloud Platforms (GCP, Azure and/or AWS)
3 years of experience with productionizing developed Machine Learning solutions
3 years of knowledge and experience with Databases – SQL, NOSQL
3 years of experience with Python
3 years of experience in interpreting machine learning performance metrics and how to evaluate usefulness of output
","Strong grasp of principles and approaches used in Data-driven systems, processes and algorithms
Experience with ML algorithms for time series data-sets
Experience with stream processing frameworks / Complex event processing engines
Scripting skills in at least one of the following: Shell, Perl, Bash, or Ruby
Experience with Performance Engineering including testing, tuning and monitoring tools
Basic familiarity with continuous integration tools and frameworks
Master’s Degree
Bachelor's degree in data science, applied mathematics, computer science or otherwise research-based field
",None Found,None Found,None Found,"Organization: Accenture Federal Services
Location: Arlington, VA - Washington, DC

Accenture Federal Services, a wholly owned subsidiary of Accenture LLP, is a U.S. company with offices in Arlington, Virginia. Accenture's federal business has served every cabinet-level department and 30 of the largest federal organizations. Accenture Federal Services transforms bold ideas into breakthrough outcomes for clients at defense, intelligence, public safety, civilian and military health organizations.
We believe that great outcomes are everything. It’s what drives us to turn bold ideas into breakthrough solutions. By combining digital technologies with what works across the world’s leading businesses, we use agile approaches to help clients solve their toughest problems fast—the first time. So, you can deliver what matters most.
Count on us to help you embrace new ways of working, building for change and put customers at the core. A wholly owned subsidiary of Accenture, we bring over 30 years of experience serving the federal government, including every cabinet-level department. Our 7,200 dedicated colleagues and change makers work with our clients at the heart of the nation’s priorities in defense, intel, public safety, health and civilian to help you make a difference for the people you employ, serve and protect.

The Machine Learning Engineer develops machine learning solutions to meet business use cases and to support experimentation and innovation to advance mission outcomes. The engineer collaborates with business SMEs, architects, data engineers, developers and data scientists to identify innovative machine learning solutions that leverage data to meet business goals. The machine learning engineer ensures infrastructure and data pipelines are structured to deploy machine learning solutions.

Key Responsibilities:
Understands and translates business and functional needs into machine learning problem statements
Translates complex machine learning problem statements into specific deliverables and requirements
Designs and develops scalable solutions that leverage machine learning and deep learning models to meet enterprise requirements
Works closely with data scientists and data engineers to develop machine learning algorithms
Works on Optimization of Neural Net and Deep Learning models for inference
Translates machine learning algorithms into production-level code
Collaborates with development teams to test and deploy machine learning models
Creates metrics to continuously evaluate the performance of machine learning solutions
Maintains and improves the performance of existing machine learning solutions
Ensures adherence to performance standards and compliance to data security requirements
Keeps abreast with new tools, algorithms and techniques in machine learning and works to implement them in the organization
Skills:
Proficiency in machine learning algorithms such as multi-class classifications, decision trees, support vector machines and deep learningStrong understanding of probability and statistical models (generative and descriptive models)Ability to run experiments scientifically and analyze resultsAbility to effectively communicate technical concepts and results to technical and business audiences in a comprehensive mannerAbility to collaborate effectively across multiple teams and stakeholders, including analytics teams, development teams, product management and operations
Strong Computer Science fundamentals in algorithms, data structures, OOPS, functional programming

Basic Qualifications:
3 years of experience in building and evolving complex software systems for data processing and machine learning workloads
3 years of experience with Big Data processing and ML cloud native services on one or more Cloud Platforms (GCP, Azure and/or AWS)
3 years of experience with productionizing developed Machine Learning solutions
3 years of knowledge and experience with Databases – SQL, NOSQL
3 years of experience with Python
3 years of experience in interpreting machine learning performance metrics and how to evaluate usefulness of output
Preferred Skills and Qualifications:
Strong grasp of principles and approaches used in Data-driven systems, processes and algorithms
Experience with ML algorithms for time series data-sets
Experience with stream processing frameworks / Complex event processing engines
Scripting skills in at least one of the following: Shell, Perl, Bash, or Ruby
Experience with Performance Engineering including testing, tuning and monitoring tools
Basic familiarity with continuous integration tools and frameworks
Master’s Degree
Bachelor's degree in data science, applied mathematics, computer science or otherwise research-based field

An active security clearance or the ability to obtain one may be required for this role.

Candidates who are currently employed by a client of Accenture or an affiliated Accenture business may not be eligible for consideration.

Applicants for employment in the US must have work authorization that does not now or in the future require sponsorship of a visa for employment authorization in the United States and with Accenture (i.e., H1-B visa, F-1 visa (OPT), TN visa or any other non-immigrant status).

Accenture is a Federal Contractor and an EEO and Affirmative Action Employer of Females/Minorities/Veterans/Individuals with Disabilities.

Equal Employment Opportunity
All employment decisions shall be made without regard to age, race, creed, color, religion, sex, national origin, ancestry, disability status, veteran status, sexual orientation, gender identity or expression, genetic information, marital status, citizenship status or any other basis as protected by federal, state, or local law.

Job candidates will not be obligated to disclose sealed or expunged records of conviction or arrest as part of the hiring process.

Accenture is committed to providing veteran employment opportunities to our service men and women."
23,Sr. Applied Machine Learning Engineer,"Tysons, VA",Tysons,VA,None Found,None Found,None Found,None Found,None Found,None Found,None Found,"About the Company

Clarifai is an artificial intelligence company that excels at visual recognition. We do not sell an abstract, futuristic technology - we sell a solution that businesses can use to solve real-world problems. We believe that the same AI technology that gives big tech companies a competitive edge should be available to developers and businesses of any size or budget. That's why we build products to make it easy, quick, and inexpensive for developers and businesses to innovate with AI, go to market faster, and build better customer experiences.

We have secured a $30M Series B round of funding and are backed by Menlo Ventures, Google Ventures, USV, NVIDIA, Qualcomm, Osage, Lux Capital, LDV Capital, and Corazon Capital. To continue to succeed, we need people like you to join the team!

Clarifai is proud to be an equal opportunity workplace dedicated to pursuing and hiring a diverse workforce.

Your Impact

You'll join our Applied Machine Learning Team and help our team drive customer acquisition and revenue growth in 2019. You value collaboration and want to work closely with others in the company, including research, backend, infrastructure, product, frontend, and design. You'll help build and maintain our customer models and visual search technology. You have the ability to make a significant impact on the company and the AI space as a whole.

Your Opportunity


Train public and private custom models with curated data and evaluate model performance. We are always looking to increase our accuracy and refine our current models.
Work with our senior engineers to improve our visual search product and develop new products.
Help the team deploy production ready models to customers. We anticipate that customers will have steady feedback for us on the models, so we should be focusing on using that feedback to make frequent model improvements.
Help maintain our research ML infrastructure.
Collaborate with the research team, and make sure solutions worked out by our research team are production ready. We value alignment between the Applied Machine Learning and research teams, and this is key to our continued success.

Requirements


Either B.S. plus minimum 3 years of industry experience, or M.S.
Python
Demonstrated projects in either CV or NLP
Experience with machine learning or data science experiments
Experience calling web service APIs
Intermediate-level SQL

At least one of:

Proficiency in Go or C++
Experience fielding/debugging complex systems
Kubernetes, Docker, or other containerizers
Intermediate-level SQL

Objectives

You'll thrive in this role if love to learn fast and move fast.

In your first 30 days, you will:

Get up to speed on either a customer-facing ML project or a component of our ML infrastructure for training our models
Learn how we work with both the Research team and the Backend team
Have created your own branch and begun coding

60 days in, you will:

Be adding either functionality or scalability to key software components, under the guidance of a Senior AML Engineer
Have contributed to at least one biweekly sprint
Have actively participated in a delivery to a public sector customer""

180 days in, you will:

Be contributing to multiple projects
Have contributed to our AML instrumentation for gathering analytics about model performance and hardware utilization, and are ready to offer conclusions based on those measurements.

"
24,Machine Learning Engineer,"Reston, VA 20190",Reston,VA,20190,None Found,None Found,None Found,None Found,None Found,None Found,"MetroStar Systems is an award winning IT management consulting firm that works with over 20 public sector clients across law enforcement, foreign affairs, military, and regulatory. We’re a group of self-starters who’ve deliver solutions for citizens, warfighters, and government executives striving for digital transformation across the Government.

We are looking for a Machine Learning Engineer that is passionate about research, design, develop, and test various AI/ML frameworks and models.
You're a great fit if:
You enjoy working with team members, IT business partners, and AWS infrastructure/technology teams to meet customer requirements
You understand end-end delivery of automation/AI use cases from pilot/design to release
You have experience with various AI/ML implementations and map it against applicable use cases.
You have built complex solutions and models from the grounds-up without much supervision.
You'll love our position if:
(This is the stuff you MUST have to be a fit)

Bachelor’s Degree with four or more years of experience
3+ years of professional software engineering experience, including testing and deploying iterative releases of software systems
3+ years of experience applying, implementing, and/or developing machine learning or statistical algorithms
Proficiency in Python, Java, Scala, or C++
Experience in building and deploying ML models using libraries such as TensorFlow, PyTorch, MXNet, Michelangelo, etc.
We'll REALLY love you if:
(This is the bonus stuff that makes you stand out)
You have a bachelor’s degree in Computer Science or Software Engineering, or Master’s Degree or PhD in Computer Science or Software Engineering
You have an established portfolio of publications, projects and/or speaking engagements.
3+ years working with cloud software design using distributed caching
Advanced knowledge of big data and machine learning technologies, especially in AWS and/or Google"
25,Machine Learning Engineer,"Columbia, MD 21046",Columbia,MD,21046,None Found,"
Experience with Tensorflow and XGBoost to create state-of-the-art machine learning (ML) models
Understand software development and creatively applying ML models
Demonstrated ability in selecting, developing, and applying ML and data mining algorithms to answer questions and solve problems.
Experience with pattern recognition, statistical analysis and ML; fluent and hands-on experience with one or more of the following implementation languages: Python, R, Java
Experience with and worked on projects related to ML and/or artificial intelligence (AI)
Develop custom data models and algorithms to apply to large data sets
Research and evaluate new analytical methodologies, approaches, and solutions
Designing, developing, and implementing appropriate ML and deep learning algorithms
Running ML tests and experiments
Kaggle experience would be awesome!
",None Found,None Found,None Found,None Found,"Summary: We are a distributed team of software engineers specializing in the development and application of our own analytic software solutions for our customers. Your expertise and contributions will help in our product’s direction, as well as deliver business-critical functionality and the development of new features, particularly with ML application. Our technical team is involved in all aspects of the development process ranging from dev-ops to front-end usability, deploying our ML solutions, and building distributed backend systems. We have a full range of projects and technology to contribute to, and you will be able to guide all efforts on a daily basis.

Experience:

Must be local to MD/DC/VA - currently no remote or relocation available
Bachelor’s degree in Computer Science or Engineering; 3+ years of experience in hands-on development
US Citizenship required
Ability to meet eligibility requirements for a DoD Security Clearance
Qualifications:

Experience with Tensorflow and XGBoost to create state-of-the-art machine learning (ML) models
Understand software development and creatively applying ML models
Demonstrated ability in selecting, developing, and applying ML and data mining algorithms to answer questions and solve problems.
Experience with pattern recognition, statistical analysis and ML; fluent and hands-on experience with one or more of the following implementation languages: Python, R, Java
Experience with and worked on projects related to ML and/or artificial intelligence (AI)
Develop custom data models and algorithms to apply to large data sets
Research and evaluate new analytical methodologies, approaches, and solutions
Designing, developing, and implementing appropriate ML and deep learning algorithms
Running ML tests and experiments
Kaggle experience would be awesome!
What it takes:

Desire to learn in an innovative field: cyber/threat intelligence, AI, ML, data analytics.
Excellent interpersonal skills and outstanding written and oral communication skills; ability to articulate technical issues effectively and appropriately for a wide range of audiences.
Possession of excellent analytical skills.
Desire to explore, learn, and build cool technologies; make mistakes and quickly learn along the way.
Solid development foundation knowledge in more than one language or framework
Be comfortable working from multiple locations, with our customers, and in our team environment.
Self-driven and self-motivated; attention-to-detail and having a great attitude!
Take ownership of projects and drive them to completion.
TeamWorx Security is an AA/EEO employer and provides equal employment opportunities (EEO) to all employees and applicants for employment without regard to race, color, religion, sex, sexual orientation, national origin, marital status, age, disability."
26,AI/Machine Learning Engineer,"Arlington, VA 22209",Arlington,VA,22209,None Found,"
Bachelor's Degree in Computer Science, Information Technology, Engineering (any), CIS, MIS or a related field.
Relevant experience in workforce/human capital analysis, business/finance/economics, operation research, and/or system engineering.

Demonstrated experience to apply scientific approaches to analyze qualitative and quantitative data to ensure rigor in data quality.
Demonstrated experience in data collection and analysis
2+ years experience with data science and analytics modeling
Demonstrated experience using R and python for on-boarding, processing, cleansing, and verifying the integrity of data used for analysis
Position is located in Arlington, VA
Security clearance is not required, must be clearable",None Found,"
Demonstrated experience to apply scientific approaches to analyze qualitative and quantitative data to ensure rigor in data quality
Demonstrated experience using R and python for on-boarding, processing, cleansing, and verifying the integrity of data used for analysis
Lead business sales and delivery activities for AI and ML based technologies across Federal, State & Local and Higher Education market offerings.
Work with clients to understand “explainable AI” data privacy, bias, and regulations.

Proven track record managing large tech teams that designed and launched complex AI solutions
Previous experience in data management perception and predictions
Knowledge of machine learning, information retrieval, analytics, statistics, deep learning techniques
Hands on experience in ML and deep learning platforms (e.g., TensorFlow, PyTorch, etc.) and models (e.g., DNN, CNN, RNN and GAN)",None Found,None Found,"Artificial Intelligence/Machine Learning Engineer


Work you’ll do

Exciting opportunity, looking for a talented AI/Machine Learning Engineer who can help us create AI products. The role of the Machine Learning Engineer is to create Machine Learning capabilities and solutions by leveraging the power of data, analytics, robotics, science and cognitive technologies to uncover decision-making insights.


The team

Analytics & Cognitive


In this age of disruption, organizations need to navigate the future with confidence, embracing decision making with clear, data-driven choices that deliver enterprise value in a dynamic business environment.


The Analytics & Cognitive team leverages the power of data, analytics, robotics, science and cognitive technologies to uncover hidden relationships from vast troves of data, generate insights, and inform decision-making. Together with the Strategy practice, our Strategy & Analytics portfolio helps clients transform their business by architecting organizational intelligence programs and differentiated strategies to win in their chosen markets.


Analytics & Cognitive will work with our clients to:
Implement large-scale data ecosystems including data management, governance and the integration of structured and unstructured data to generate insights leveraging cloud-based platforms
Leverage automation, cognitive and science-based techniques to manage data, predict scenarios and prescribe actions
Drive operational efficiency by maintaining their data ecosystems, sourcing analytics expertise and providing As-a-Service offerings for continuous insights and improvements


Qualifications

Bachelor's Degree in Computer Science, Information Technology, Engineering (any), CIS, MIS or a related field.
Relevant experience in workforce/human capital analysis, business/finance/economics, operation research, and/or system engineering.

Demonstrated experience to apply scientific approaches to analyze qualitative and quantitative data to ensure rigor in data quality.
Demonstrated experience in data collection and analysis
2+ years experience with data science and analytics modeling
Demonstrated experience using R and python for on-boarding, processing, cleansing, and verifying the integrity of data used for analysis
Position is located in Arlington, VA
Security clearance is not required, must be clearable
 Functional Responsibilities:


Demonstrated experience to apply scientific approaches to analyze qualitative and quantitative data to ensure rigor in data quality
Demonstrated experience using R and python for on-boarding, processing, cleansing, and verifying the integrity of data used for analysis
Lead business sales and delivery activities for AI and ML based technologies across Federal, State & Local and Higher Education market offerings.
Work with clients to understand “explainable AI” data privacy, bias, and regulations.

Proven track record managing large tech teams that designed and launched complex AI solutions
Previous experience in data management perception and predictions
Knowledge of machine learning, information retrieval, analytics, statistics, deep learning techniques
Hands on experience in ML and deep learning platforms (e.g., TensorFlow, PyTorch, etc.) and models (e.g., DNN, CNN, RNN and GAN)


How you’ll grow

At Deloitte, our professional development plan focuses on helping people at every level of their career to identify and use their strengths to do their best work every day. From entry-level employees to senior leaders, we believe there’s always room to learn. We offer opportunities to help sharpen skills in addition to hands-on experience in the global, fast-changing business world. From on-the-job learning experiences to formal development programs at Deloitte University, our professionals have a variety of opportunities to continue to grow throughout their career. Explore Deloitte University, The Leadership Center.


Benefits

At Deloitte, we know that great people make a great organization. We value our people and offer employees a broad range of benefits. Learn more about what working at Deloitte can mean for you.
Deloitte’s culture

Our positive and supportive culture encourages our people to do their best work every day. We celebrate individuals by recognizing their uniqueness and offering them the flexibility to make daily choices that can help them to be healthy, centered, confident, and aware. We offer well-being programs and are continuously looking for new ways to maintain a culture where our people excel and lead healthy, happy lives. Learn more about Life at Deloitte.


Corporate citizenship

Deloitte is led by a purpose: to make an impact that matters. This purpose defines who we are and extends to relationships with our clients, our people and our communities. We believe that business has the power to inspire and transform. We focus on education, giving, skill-based volunteerism, and leadership to help drive positive social impact in our communities. Learn more about Deloitte’s impact on the world.


Recruiter tips

We want job seekers exploring opportunities at Deloitte to feel prepared and confident. To help you with your interview, we suggest that you do your research: know some background about the organization and the business area you’re applying to. Check out recruiting tips from Deloitte professionals."
27,"Associate Cloud Developer, A2C","Washington, DC",Washington,DC,None Found,None Found,None Found,None Found,None Found,None Found,None Found,"Bachelor’s Degree in a STEM related field such as computer science, computer engineering, or equivalent experienceFamiliarity with one of the following programming languages: Java, Python, Ruby, Node.js, C#, or C++Familiarity with Networking fundamentals, Security, Databases (Relational and/or NoSQL), Operating Systems (Unix, Linux, and/or Windows)

Amazon Web Services (AWS) is looking for motivated technologists who possess a unique balance of technical depth, business knowledge, and strong interpersonal skills. You will partner with customers and several AWS teams to craft highly scalable, flexible and resilient cloud architectures that address customer business problems. As a trusted customer advocate, you will help organizations understand best practices around cloud-based solutions, and how to migrate existing workloads to the cloud. You will have the opportunity to help shape and execute a strategy to build min- share and broad use of AWS within organizations.

Professional Services
At AWS, we have a credo of “Work hard. Have fun. Make history”. In this role, you will love what you do and instinctively know how to make work fun. You will be dynamic, creative, and willing to take on any challenge and make a big impact.

Here are some of the qualities we are searching for:
Be great fun to work with. At AWS, we have a credo of “Work hard. Have fun. Make history”. In this role, you will love what you do, and instinctively know how to make work fun. You will be dynamic and creative, and willing to take on any challenge and make a big impact.
An affinity for the new and unknown. We are always experimenting with innovative technologies including cloud computing, Machine Learning, and Internet of Things.
Enjoy working with customers of all shapes and sizes. You will have a passion for educating, training, designing, and building solutions for a diverse and challenging set of customers ranging from small businesses to large enterprises.
During your first year as an Associate Cloud Developer, you will receive instruction and on-the-job training on a range of AWS services and solutions. By the end of your first year, you will choose a specialty track suited to your strengths and preferences (subject to business availability). These tracks include:

Application Developer – AppDev resources are specialists in designing applications that run natively in the cloud. They are experts in building programs that run on any number of platforms including virtualized instances, containers, or serverless architecture.
Cloud Infrastructure Architect – An expert in cloud-based networking and system rollouts. CIAs specialize in network performance, infrastructure provisioning, and building Application Programming Interfaces (APIs).
DevOps Specialist – A leader in building advanced computing systems that harness continuous integration/continuous deployment pipelines and utilize the strengths of cloud computing to build scalable and economical systems for customers.
Data Lake & Analytics Specialist – This role will specifically focus on data processing capabilities and helping our customers and partners to remove the constraints that prevent our customers from leveraging their data to develop business insights. Engagements will include migration of existing applications and development of new applications using AWS cloud services.
Data Warehouse & Massive Parallel Processing Specialist – This role will specifically focus on large scale data warehousing and database migration capabilities. Engagements will include Redshift implementations and helping customers to migrate from their existing on-premises data warehouses using other databases to Amazon Redshift.
Data & Machine Learning Engineer – In this role, you will work with our partners and customers with a focus on our AWS Analytics and ML services offering such Amazon Kinesis, AWS Glue, Amazon Redshift, Amazon EMR, Athena, Amazon SageMaker, and more. You will help our customers and partners to remove the constraints that prevent them from leveraging their data to develop business insights.

Ability to travel to provide Professional Services is required for this role.

Troubleshooting: Experience with QA, testing, helpdesk, IT support, or any technician or quality assurance type workCloud Awareness: Experience implementing a cloud-based technology solution in a school project or while working for a companyExperience with systems administration (Linux/Windows) or network administration (DNS, IPsec, BGP, VPN, Load Balancing)Passion for experiencing new technologies, cultures, and locations in the US and around the world
Amazon is an Equal Opportunity Employer – Minority / Women / Disability / Veteran / Gender Identity / Sexual Orientation / Age.

Pursuant to the San Francisco Fair Chance Ordinance, we will consider for employment qualified applicants with arrest and conviction records.

Pursuant to the Los Angeles Fair Chance Ordinance, we will consider for employment qualified applicants with arrest and conviction records."
28,Gultionar Intelligence* - Machine Learning Engineer,"Fort Meade, MD",Fort Meade,MD,None Found,None Found,None Found,None Found,None Found,None Found,None Found,"Title generated by a neural net trained on relevant job listings and then asked to perform poorly.
What you will be working on:
Come be a part of a team applying cutting edge Machine Learning to the cybersecurity domain! We will use state of the art ML techniques (Neural Nets, Gradient Boosting, etc.) to model behaviors, detect anomalies, cluster data, and ultimately create actionable information.
You will:
Build and improve ML models for a number of different problem sets
Collect and preprocess data for training and validation
Use TensorFlow, Keras, XGBoost, scikit-learn, and other ML tools
Help other engineers deploy ML models on dynamic compute platforms
Read current research and contribute to the team’s collective knowledge
Mentor junior team members
Work at our headquarters in Annapolis Junction, MD and/or the surrounding area.
What you need:
A Bachelor’s degree in Computer Science or Mathematics
5+ years experience in Software Engineering or Machine Learning
US Government Security clearance or the ability to obtain one.
What we would like you to have:
A deep interest in data and machine learning
A Master’s degree in Computer Science or Mathematics
Experience with Python
Experience with Machine Learning tools and techniques
Familiarity with the cyber security domain
A desire to solve problems whose solutions aren’t on Stack Overflow
A few reasons to work for us:
You can grow with us: Our flexible and collaborative environment encourages our people to challenge themselves and feed their need to learn and grow. We offer $10k towards Professional Development and Education, and Brown Bag sessions covering a wide variety of topics.
You can retire sooner rather than later: We match up to 8% of your 401k contributions which you are vested in 100% day one.
Work - life balance is real: In addition to the ability to work flexible hours, you’ll get up to 7 weeks of PTO which is based upon your total years’ experience. For every year you’re with HII-TSD (formerly G2, Inc), you’ll enjoy an additional day of PTO.
Not quite ready to apply? TAKE THE NEXT STEP and GET CONNECTED or reach out to us at Recruiting@g2-inc.com to take a less formal approach.
We are an equal opportunity employer and all qualified applicants will receive consideration for employment without regard to race, color, religion, sex, national origin, disability status, protected veteran status, or any other characteristic protected by law.
If you are seeking reasonable accommodation as it relates to the employment process, please contact the recruiting department at (410) 290-9710 or recruiting@g2-inc.com"
