,Title,Location,City,State,Zip,Country,Qualifications,Skills,Responsibilities,Education,Requirement,FullDescriptions
0,Machine Learning Software Engineer,"Sandy Springs, GA",Sandy Springs,GA,None Found,None Found,None Found,None Found,None Found,None Found,None Found,"PubWise is building AI driven technology to revolutionize the publisher advertising landscape. Our mission is to empower publishers to confidently navigate and understand a continuously changing and complex programmatic revenue generation environment. We do this by building smart, publisher focused technology that reduces the complexity of website programmatic monetization technologies.
We Are Looking For
Working with our development team our Machine Learning Software Engineer will play a critical role in helping achieve our aggressive growth objectives through building new optimization technologies and techniques to improve customer revenue. We are seeking a Machine Learning Engineer to utilize their deep knowledge of machine learning algorithms, computer science, and software engineering to make their predictive models robust, scalable, and performant and get them into a production environment so that they can have business impact. Our system processes 100s terabytes of data monthly. We are truly a big data company with a strong use case for machine learning based optimization.
Our ideal candidate is whip smart, able to work well in small teams and capable of being a self starter. The experience outlined below is critical for success in this position; also the person who fills this position must be capable of hitting the ground running.
What You'll Be Working On
Implement machine learning models in Google Cloud ML and BigQuery to provide actionable optimization opportunities in our software
Research emerging techniques and technologies in the Machine Learning industry
Working with a small team to evaluate, design and deploy the full range of ML tools and techniques from model creation to production operation

Required Experience

Demonstrable experience with machine learning
Ability to create production-ready software
Strong background in mathematics and statistics
Excellent ability to express complex technical concepts to management team
Experience with Google Cloud ML and related technologies. Primarily TensorFlow & BigQuery
Ability to quickly learn new products and features
Resourcefulness coupled with an entrepreneurial spirit
Savvy traveler
Positive attitude with a sense of humor
Bachelor's degree

Current Stack

Google Cloud
Google Cloud ML
BigQuery
TensorFlow
Google Datalab
Python

Benefits

Huge Growth Opportunity - we're exploding in a huge market
Join a customer focused team
We are in the heart of Sandy Springs with great access to restaurants, a park next door and easy access to and from other parts of Atlanta
Medical and Dental Insurance
We're awesome, we work hard, we move fast, and we stay busy in ATL.

How to Apply
The best way to apply is to use our employment portal (https://pubwise-lllp.breezy.hr/) at https://pubwise-lllp.breezy.hr (https://pubwise-lllp.breezy.hr/). Make sure you let us know why you would be awesome at this position!

About PubWise

Established in 2016 in the “Silicon Valley of the South”, PubWise is a revolutionary SaaS product that manages the entire programmatic ad technology for publishers and is virtually guaranteed to increase advertising revenue. PubWise's Prebid AdServer integrates header bidding, Google Ad Manager (formerly known as AdX), EBDA and other demand into a unified parallel auction optimized with the company's AI driven Smart Path Optimization Technology (SPOT). SPOT ensures that the optimal Prebid configuration, flooring strategy and placements are active in thousands of configurations on Geography, Device, placement and more. PubWise is a game changer for publisher programmatic management and critical for reducing the explosion in data infrastructure costs in the programmatic landscape. For more information, visit www.PubWise.io (http://www.pubwise.io)."
1,Machine Learning Engineer,"Atlanta, GA",Atlanta,GA,None Found,None Found,None Found,None Found,None Found,None Found,None Found,"CharterUP is a transportation technology company focused on changing the way the world travels. We work with 1000+ bus companies across the country to create an online marketplace for charter bus transportation. As we scale our platform globally, we are looking for smart, passionate, and detail-oriented people who share our vision.

We are looking for a talented Engineer focused in Machine Learning to help our team develop meaningful technology, enhancements, and features based on data. Efficiency improvement of our technical staff is important to us, and this role would be owning the delivery of features that accomplish this through analysis. Our SaaS applications utilize hardware for tracking, so this person would be able to utilize route data to determine optimal routes, develop algorithms to provide the best results for customers, and identify new types of data to track and report on.

What You'll Need

Master's Degree in Computer Science or Operations Research with an undergraduate in a similar field.
3+ years of experience developing Machine Learning projects
Experience in the transportation field, preferably buses or jets
Experience with Python, SQL, Java, and scientific frameworks

Now here comes the fun part…

Medical, dental and vision insurance premiums paid for by us.
401k available
Flexible work schedules.
Within walking distance to MARTA and surrounded by amazing Buckhead shops and restaurants.
A team that loves making memes, laughing, and having fun.
Very comfortable chairs.
Opportunities to learn and grow through internal training, attending conferences and industry-related seminars (paid for by us).

"
2,Jr/Mid Machine Learning Engineer - SEAL,"Smyrna, GA",Smyrna,GA,None Found,None Found,"Candidates currently enrolled in an accredited Bachelor’s degree program relevant to this position will be considered. Candidate must have a graduation date of no later than December, 2019
Artificial Intelligence algorithms utilized for applications
Knowledge of industry AI tools (e.g., TensorFlow, PyTorch, etc.)
Experience with C and C++
Experience with Linux or Windows
Experience in software engineering and development
Knowledgeable in version control software such as GIT
Knowledgeable in JIRA, Bitbucket and Confluence
Good verbal and written communication skills
Self-starter and ability to work in a team environment
",None Found,None Found,"
A Bachelor's degree in Computer Engineering, Computer Science, Electrical Engineering, Mathematics, Physics, or related field of study.
","
A Bachelor's degree in Computer Engineering, Computer Science, Electrical Engineering, Mathematics, Physics, or related field of study.
","The Sensors and Electromagnetic Applications Laboratory (SEAL) of the Georgia Tech Research Institute (GTRI) is seeking technical personnel to be part of an established software team that has multiple opportunities for junior and mid-level software engineers within the Software Engineering and Architecture Division (SEAD) at Smyrna, GA. The SEAD group mission is to provide world-class software to be used in sensors, signal processing, electronic warfare, tracking, and intelligence surveillance reconnaissance (ISR) systems deployed on land, air and sea. Our software team employs a modern software engineering process to design, code, integrate and test capabilities on a continuous basis resulting in a mature and quality solution for our customers. We strive for technical excellence by drawing upon a diverse workforce whose knowledge base covers the complete spectrum of modern computing languages and platforms.

Job Duties
The successful candidates will be involved in the artificial intelligence (AI) software design, development, integration and testing of the systems. Our real-time machine learning software applications are developed using C++ and Python in a Linux environment. Our group utilizes productive modern (Agile) and industry-proven software development processes and environments. The candidate will get the opportunity to creatively solve problems, design features, and independently and work in a team environment to implement projects.

The candidate will have the opportunity to leverage machine learning techniques to build processes to gather insights from a high volume of data from multiple sources. You will develop systems to efficiently process the data in our platform. The candidate will ultimately be responsible for developing powerful software systems that reinforce our place as a technical research leader in machine learning and deploying software.

Travel Requirements
10% - 25% travel

Education & Length of Experience
Research Engineer/Scientist I

A Bachelor's degree in Computer Engineering, Computer Science, Electrical Engineering, Mathematics, Physics, or related field of study.
Research Engineer/Scientist II

A Master’s degree in Computer Engineering, Computer Science, Electrical Engineering, Mathematics, Physics, or related field of study and three (3) years of relevant full-time experience after completion of that degree,
A Master’s degree in Computer Engineering, Computer Science, Electrical Engineering, Mathematics, Physics, or related field of study and five (5) years of relevant full-time experience after completion of a Bachelor’s degree, or
A Doctoral degree in Computer Engineering, Computer Science, Electrical Engineering, Mathematics, Physics, or related field of study.
Required Minimum Qualifications
Candidates currently enrolled in an accredited Bachelor’s degree program relevant to this position will be considered. Candidate must have a graduation date of no later than December, 2019
Artificial Intelligence algorithms utilized for applications
Knowledge of industry AI tools (e.g., TensorFlow, PyTorch, etc.)
Experience with C and C++
Experience with Linux or Windows
Experience in software engineering and development
Knowledgeable in version control software such as GIT
Knowledgeable in JIRA, Bitbucket and Confluence
Good verbal and written communication skills
Self-starter and ability to work in a team environment
Preferred Qualifications
Knowledge of computer architectures including multi-core environments
Familiarity with software applications requiring multi-threaded programming implementation
Experience in software engineering and development
Complex programs that involved hardware, software, communications and networking
Existing secret clearance, or the ability to obtain an interim clearance within 30 days and full clearance thereafter
U.S. Citizenship Requirements
Due to our research contracts with the US federal government, candidates for this position are required to be US Citizens.

Clearance Type Required
Ability to obtain Secret Clearance upon hire

Diversity & Inclusion"
3,Machine Learning Engineer,"Alpharetta, GA 30022",Alpharetta,GA,30022,None Found,None Found,None Found,None Found,None Found,None Found,"What you’ll be doing...
Verizon is standing up a new team focusing on Emerging Technologies to deliver building blocks for the various teams in the Verizon Consumer Group (VCG), the Verizon Business Group (VBG), and the Global Technology Services (GTS). We are looking for an AI/ML Expert who will be responsible for designing, implementing, and supporting various AI/ML models to support the business for various use cases at Verizon. Your primary responsibility will be analyzing requirements and implementing applicable AI/ML models to support VCG, VBG and GTS.
Work with GTS and Business client to understand their business and technical needs and design AI solutions that make the best use of the shared services our team is delivering.
Research, design, develop, and test various AI/ML frameworks and models.
Lead a team of data scientists and developers to map data onto models and algorithms based on use cases submitted by Business.
Define, implement and operate new processes to manage deployed ML model in production ensuring efficient and resilient management of the ML lifecycle (versioning, rollback, reinforced training, fine tuning…).
Design and implement various transformative and critical Digital Agents, AI Cognitive Services, ML/Deep Learning enhanced business use cases.
Architect and design high availability and resilient ML deployment and management processes for production to ensure accurate prediction and resiliency against training resulting in biases which may impact the business.
Design generic frameworks and services abstracted by standard API layers that can be used by various GTS teams, and designing for versioning in mind, operational considerations such as upgrades and updates.
Candidate must be well versed in the domain of AI/ML and able to build complex solutions and models from the grounds-up without much supervision. Solutions would include Business use cases across the various Verizon Business Units.
Must be able to work independently as well as mentor other individuals on the team, providing guidance on programs/projects direction. Should be comfortable assigning tasks to others and making decisions that impact features and requirements.
Contribute to the development of a governance process around the use of business and customer data in new ML model, on premise and on the cloud to ensure its security and privacy. This is a process that would have significant impact on the future use of data in Machine Learning models.
What we’re looking for...
You’ll need to have:
Bachelor’s degree or four or more years of work experience.
Six or more years of relevant work experience.
Even better if you have:
A degree in Computer Science/Engineering or relevant field.
Strong software development experience.
Two or more years of experience in building and deploying Machine Learning solutions using various supervised/unsupervised ML algorithms such as Linear/Logistic Regression, Support Vector Machines, (Deep) Neural Networks, Random Forest, etc.
Experience in building and deploying ML models using libraries such as scikit-learn, TensorFlow, PyTorch, MXNet,Caffe, etc.
Experience deploying production-grade machine learning solutions on public cloud platforms.
Experience with Machine and Deep Learning toolkits such as MXNet, TensorFlow, Caffe and Torch.
Two or more years of experience in building and deploying Machine Learning solutions using various supervised/unsupervised ML algorithms such as Linear/Logistic Regression, Support Vector Machines, (Deep) Neural Networks, Random Forest, etc.
Strong knowledge of common algorithms and data structures.
Experience working with large codebases.
Experience in one of the following languages: C#, Python, Java, Scala, C++.
Experience communicating effectively across internal and external organizations, for complex mission-critical solutions.
Experience with predictive analytics, semi and unstructured data.
When you join Verizon...
You’ll have the power to go beyond – doing the work that’s transforming how people, businesses and things connect with each other. Not only do we provide the fastest and most reliable network for our customers, but we were first to 5G - a quantum leap in connectivity. Our connected solutions are making communities stronger and enabling energy efficiency. Here, you’ll have the ability to make an impact and create positive change. Whether you think in code, words, pictures or numbers, join our team of the best and brightest. We offer great pay, amazing benefits and opportunity to learn and grow in every role. Together we’ll go far.
Equal Employment Opportunity
We're proud to be an equal opportunity employer- and celebrate our employees' differences,including race, color, religion, sex, sexual orientation, gender identity, national origin, age, disability, and Veteran status. Different makes us better."
4,Principal Machine Learning Engineer - Conversational AI,"Atlanta, GA 30319",Atlanta,GA,30319,None Found,None Found,None Found,None Found,None Found,None Found,"About the team
The Conversational Assistants AI team, part of the overall Artificial Intelligence team, is responsible for the science and platforms that power automated conversational intelligent agents across Zillow Group websites and mobile apps. The intelligent bots converse with 200 million unique users per month supporting apartment tours, questions and answers for landlords, rental leases, and other natural language conversations for real-estate specific scenarios.
About the role
The Principal Machine Learning Engineer will design and build the next-generation intelligent agents that will power automated natural language conversations in real-estate. You will:
Participate in the technical direction for conversation assistants at Zillow Group
Build machine learning models and systems in natural language processing (NLP), natural language understanding (NLU), semantic understanding, and intent classification
Build real-time low-latency machine learning platforms
Be hands-on in technical feature development, design and code-reviews, prototyping
Enable applied scientists to iterate quickly and deploy NLP and NLU machine learning models into production
Who you are
Proven track record of successfully architecting and building highly available, low latency systems for high traffic applications
7+ years of experience as a software engineer
2+ years of experience building conversational intelligent agents
Strong knowledge of machine learning, NLP, and NLU
Familiarity with conversational bot integrations with Google Assistant, Alexa, and Siri
Bachelor's/Master's degree preferred
Get to know us
At Zillow Group, we're powered by our inclusive work culture, where everyone has the support and resources to do the best work of their careers. Our efforts to streamline the real estate transaction is supported by our passion to empower people and enrich lives around everything home, a deep-rooted culture of innovation, a fundamental commitment to Equity and Belonging, and world-class benefits. But, don't just take our word for it. Read our reviews on Glassdoor and recent recognition from multiple organizations, including: Fortune 100 Best Companies to Work For (#69), Fortune Best Workplaces for Diversity (#38), Fortune Best Workplaces for Parents (#31), Fortune Best Workplaces for Women (#20), Fatherly's Best Workplaces for New Dads (#37), JUST Capital 100 Company (#69), Bloomberg Gender Equality Index constituent.
Zillow Group is an equal opportunity employer committed to fostering an inclusive, innovative environment with the best employees. Therefore, we provide employment opportunities without regard to age, race, color, ancestry, national origin, religion, disability, sex, gender identity or expression, sexual orientation, or any other protected status in accordance with applicable law. If there are preparations we can make to help ensure you have a comfortable and positive interview experience, please let us know."
5,Senior Machine Learning Engineer - SEAL,"Smyrna, GA",Smyrna,GA,None Found,None Found,"Candidates currently enrolled in an accredited Master's or Doctoral degree program relevant to this position will be considered. Candidate must have a graduation date of no later than December, 2019.
Artificial Intelligence algorithms utilized for applications
Knowledge of industry AI tools (e.g., TensorFlow, PyTorch, etc.)
Experience with C and C++
Experience with Linux or Windows
Experience in software engineering and development
Knowledgeable in version control software such as GIT
Knowledgeable in JIRA, Bitbucket and Confluence
Experience in the technical management of software engineers
Good verbal and written communication skills
Self-starter and ability to work in a team environment
",None Found,None Found,"
A Master’s degree in Computer Engineering, Computer Science, Electrical Engineering, Mathematics, Physics, or related field of study and seven (7) years of relevant full-time experience after completion of that degree,
A Master’s degree in Computer Engineering, Computer Science, Electrical Engineering, Mathematics, Physics, or related field of study and nine (9) years of relevant full-time experience after completion of a Bachelor’s degree, or
A Doctoral degree in Computer Engineering, Computer Science, Electrical Engineering, Mathematics, Physics, or related field of study and four (4) years of relevant full time experience.
","
A Master’s degree in Computer Engineering, Computer Science, Electrical Engineering, Mathematics, Physics, or related field of study and seven (7) years of relevant full-time experience after completion of that degree,
A Master’s degree in Computer Engineering, Computer Science, Electrical Engineering, Mathematics, Physics, or related field of study and nine (9) years of relevant full-time experience after completion of a Bachelor’s degree, or
A Doctoral degree in Computer Engineering, Computer Science, Electrical Engineering, Mathematics, Physics, or related field of study and four (4) years of relevant full time experience.
","The Sensors and Electromagnetic Applications Laboratory (SEAL) of the Georgia Tech Research Institute (GTRI) is seeking senior level technical personnel to be part of an established software team that has multiple opportunities for software engineers within the Software Engineering and Architecture Division (SEAD) at Smyrna, GA. The SEAD group mission is to provide world-class software to be used in sensors, signal processing, electronic warfare, tracking, and intelligence surveillance reconnaissance (ISR) systems deployed on land, air and sea. Our software team employs a modern software engineering process to design, code, integrate and test capabilities on a continuous basis resulting in a mature and quality solution for our customers. We strive for technical excellence by drawing upon a diverse workforce whose knowledge base covers the complete spectrum of modern computing languages and platforms.

Job Duties
The successful candidates will be involved in the artificial intelligence (AI) software design, development, integration and testing of the systems. Our real-time machine learning software applications are developed using C++ and Python in a Linux environment. Our group utilizes productive modern (Agile) and industry-proven software development processes and environments. The candidate will get the opportunity to creatively solve problems, design features, and independently and work in a team environment to implement projects.

The candidate will have the opportunity to leverage machine learning techniques to build processes to gather insights from a high volume of data from multiple sources. You will develop systems to efficiently process the data in our platform. The candidate will ultimately be responsible for developing powerful software systems that reinforce our place as a technical research leader in machine learning and deploying software. The candidate will also lead and mentor junior engineers in the development of our quality, efficient and open software products.

Travel Requirements
10% - 25% travel

Education & Length of Experience
Senior Research Engineer/Scientist

A Master’s degree in Computer Engineering, Computer Science, Electrical Engineering, Mathematics, Physics, or related field of study and seven (7) years of relevant full-time experience after completion of that degree,
A Master’s degree in Computer Engineering, Computer Science, Electrical Engineering, Mathematics, Physics, or related field of study and nine (9) years of relevant full-time experience after completion of a Bachelor’s degree, or
A Doctoral degree in Computer Engineering, Computer Science, Electrical Engineering, Mathematics, Physics, or related field of study and four (4) years of relevant full time experience.
Required Minimum Qualifications
Candidates currently enrolled in an accredited Master's or Doctoral degree program relevant to this position will be considered. Candidate must have a graduation date of no later than December, 2019.
Artificial Intelligence algorithms utilized for applications
Knowledge of industry AI tools (e.g., TensorFlow, PyTorch, etc.)
Experience with C and C++
Experience with Linux or Windows
Experience in software engineering and development
Knowledgeable in version control software such as GIT
Knowledgeable in JIRA, Bitbucket and Confluence
Experience in the technical management of software engineers
Good verbal and written communication skills
Self-starter and ability to work in a team environment
Preferred Qualifications
Knowledge of computer architectures including multi-core environments
Familiarity with software applications requiring multi-threaded programming implementation
Complex programs that involved hardware, software, communications and networking
Experience with Object-Oriented Design Knowledge
Existing secret clearance, or the ability to obtain an interim clearance within 30 days and full clearance thereafter
U.S. Citizenship Requirements
Due to our research contracts with the US federal government, candidates for this position are required to be US Citizens.

Clearance Type Required
Ability to obtain Secret Clearance upon hire

Diversity & Inclusion"
